OSEBuildingID,DataYear,BuildingType,PrimaryPropertyType,PropertyName,Address,City,State,ZipCode,TaxParcelIdentificationNumber,CouncilDistrictCode,Neighborhood,Latitude,Longitude,YearBuilt,NumberofBuildings,NumberofFloors,PropertyGFATotal,PropertyGFAParking,PropertyGFABuilding(s),ListOfAllPropertyUseTypes,LargestPropertyUseType,LargestPropertyUseTypeGFA,SecondLargestPropertyUseType,SecondLargestPropertyUseTypeGFA,ThirdLargestPropertyUseType,ThirdLargestPropertyUseTypeGFA,YearsENERGYSTARCertified,ENERGYSTARScore,SiteEUI(kBtu/sf),SiteEUIWN(kBtu/sf),SourceEUI(kBtu/sf),SourceEUIWN(kBtu/sf),SiteEnergyUse(kBtu),SiteEnergyUseWN(kBtu),SteamUse(kBtu),Electricity(kWh),Electricity(kBtu),NaturalGas(therms),NaturalGas(kBtu),DefaultData,Comments,ComplianceStatus,Outlier,TotalGHGEmissions,GHGEmissionsIntensity,ENERGYSTARScore_is_missing,flag_anomalie,type_anomalie,critere_detection,action,justification,IsZeroFloorReported,IsAggregatedCampus,_ratio_usage,_energy_gap_pct
16,2016,NonResidential,Hotel,5679-W Seattle,1112 Fourth Avenue,Seattle,WA,98101.0,0942000165,7,DOWNTOWN,47.60713,-122.33323,1998,1.0,25.0,333176,61161,272015,Hotel,Hotel,336640.0,,,,,,36.0,80.0,80.40000153,199.0,199.3999939,26941110.0,27070114.0,5999360.5,5299838.5,18083049.0,28586.99805,2858700.0,False,,Compliant,,740.97,2.22,False,False,Ratio Usage/Total toléré (≤ 1.05),1.00 < Ratio ≤ 1.05,✅ Conservation,Incertitude de mesure acceptable (< 5%),False,False,1.0103969073402645,0.0
28,2016,SPS-District K-12,K-12 School,Graham Hill Elementary,5149 S. Graham St.,Seattle,WA,98118.0,1102000138,2,SOUTHEAST,47.54576,-122.26853,1961,1.0,2.0,56228,0,56228,K-12 School,K-12 School,58916.0,,,,,,95.0,26.10000038,29.10000038,60.70000076,64.59999847,1539478.5,1713623.5,0.0,274605.9063,936955.0,6025.229004,602523.0,True,,Error - Correct Default Data,,38.53,0.69,False,True,Statut Error/Missing,ComplianceStatus invalide,❌ Suppression,Données explicitement invalidées,False,False,1.047805363875649,0.0
34,2016,SPS-District K-12,K-12 School,Meany Building,301/300 21st Ave. E.,Seattle,WA,98112.0,0688000090,3,Central,47.62266,-122.30547,1955,1.0,1.0,126351,0,126351,K-12 School,K-12 School,126351.0,,,,,,,0.0,0.0,0.0,0.0,0.0,0.0,0.0,0.0,0.0,0.0,0.0,False,,Missing Data,,0.0,0.0,True,True,Statut Error/Missing,ComplianceStatus invalide,❌ Suppression,Données explicitement invalidées,False,False,1.0,
36,2016,SPS-District K-12,K-12 School,Jane Addams Middle,11051 34th Ave. N.E.,Seattle,WA,98125.0,0752000170,5,NORTH,47.70994,-122.29301,1949,1.0,2.0,160645,0,160645,K-12 School,K-12 School,164229.0,,,,,,75.0,41.29999924,47.5,68.09999847,75.69999695,6779173.0,7800349.5,0.0,570809.1875,1947601.0,48315.71875,4831572.0,True,,Error - Correct Default Data,,270.18,1.68,False,True,Statut Error/Missing,ComplianceStatus invalide,❌ Suppression,Données explicitement invalidées,False,False,1.0223100625603039,0.0
37,2016,SPS-District K-12,K-12 School,John Hay Elementary,201 Garfield St.,Seattle,WA,98109.0,0809000005,7,MAGNOLIA / QUEEN ANNE,47.6329,-122.35172,1989,1.0,2.0,51582,0,51582,K-12 School,K-12 School,55166.0,,,,,,,0.0,0.0,0.0,0.0,0.0,0.0,0.0,438691.6875,1496816.0,0.0,0.0,False,,Missing Data,,10.43,0.2,True,True,Statut Error/Missing,ComplianceStatus invalide,❌ Suppression,Données explicitement invalidées,False,False,1.069481602109263,inf
43,2016,Campus,Mixed Use Property,Plant 2 Site,7755 E MARGINAL WAY S,Seattle,WA,98108.0,0022000005,2,GREATER DUWAMISH,47.53493,-122.31788,1992,1.0,3.0,494835,0,494835,"Energy/Power Station, Laboratory, Manufacturing/Industrial Plant, Non-Refrigerated Warehouse, Office",Office,757027.0,Laboratory,639931.0,Non-Refrigerated Warehouse,459748.0,,8.0,221.6999969,233.1000061,388.2000122,400.2999878,448385312.0,471613856.0,0.0,44102076.0,150476283.0,2979090.0,297909000.0,False,,Compliant,,16870.98,34.09,False,True,Ratio Usage/Total critique (> 1.30),LargestPropertyUseTypeGFA/PropertyGFATotal > 1.30,❌ Suppression,Erreur physique manifeste,False,True,1.5298574272232157,0.0
51,2016,SPS-District K-12,K-12 School,Eckstein Middle,3003 N.E. 75th St.,Seattle,WA,98115.0,0425049022,4,NORTHEAST,47.68252,-122.29498,1950,1.0,2.0,175565,0,175565,K-12 School,K-12 School,182861.0,,,,,,88.0,35.0,40.09999847,55.0,60.40000153,6399127.5,7329817.5,0.0,468840.5,1599684.0,47994.43359,4799443.0,True,,Error - Correct Default Data,,266.05,1.52,False,True,Statut Error/Missing,ComplianceStatus invalide,❌ Suppression,Données explicitement invalidées,False,False,1.041557257995614,0.0
56,2016,NonResidential,Hotel,Seattle Hilton Hotel,1301 Sixth Ave,Seattle,WA,98101.0,1975700040,7,DOWNTOWN,47.60946,-122.33337,1969,1.0,24.0,332210,205970,126240,Hotel,Hotel,348630.0,,,,,,67.0,46.40000153,46.40000153,121.8000031,121.8000031,16163194.0,16163194.0,0.0,3576906.75,12204406.0,39587.86719,3958787.0,False,,Compliant,,295.33,0.89,False,False,Ratio Usage/Total toléré (≤ 1.05),1.00 < Ratio ≤ 1.05,✅ Conservation,Incertitude de mesure acceptable (< 5%),False,False,1.049426567532585,0.0
84,2016,NonResidential,Senior Care Community,PSSA - The Mount,4831 35th Ave SW,Seattle,WA,98126.0,2324039001,1,SOUTHWEST,47.55837,-122.37751,1922,1.0,5.0,217603,0,217603,"Parking, Senior Care Community",Senior Care Community,296313.0,Parking,0.0,,,,54.0,144.3999939,153.6999969,235.0,244.8000031,42792072.0,45547252.0,0.0,3465642.5,11824772.0,309673.0,30967300.0,False,,Compliant,,1727.11,7.94,False,True,Ratio Usage/Total critique (> 1.30),LargestPropertyUseTypeGFA/PropertyGFATotal > 1.30,❌ Suppression,Erreur physique manifeste,False,False,1.3617137631374567,0.0
87,2016,SPS-District K-12,K-12 School,Arbor Heights Elementary,3701 S.W. 104th St.,Seattle,WA,98146.0,2518400005,1,SOUTHWEST,47.5097,-122.37759,1948,1.0,2.0,53352,0,53352,K-12 School,K-12 School,65568.0,,,,,,,0.0,0.0,0.0,0.0,0.0,0.0,0.0,176088.0938,600813.0,0.0,0.0,False,,Missing Data,,4.19,0.08,True,True,Statut Error/Missing,ComplianceStatus invalide,❌ Suppression,Données explicitement invalidées,False,False,1.228969860548808,inf
98,2016,NonResidential,Retail Store,Firestone Store#012432,400 Westlake Ave N,Seattle,WA,98109.0,1983200230,7,LAKE UNION,47.62237,-122.33805,1929,1.0,2.0,58320,0,58320,Retail Store,Retail Store,72072.0,,,,,,96.0,14.60000038,17.20000076,25.79999924,28.79999924,1049748.625,1243027.75,0.0,106038.5,361803.0,6879.452148,687945.0,False,,Compliant,,39.06,0.67,False,True,Ratio Usage/Total critique (monostructurel),1.05 < Ratio ≤ 1.30 + monostructurel,❌ Suppression,Incohérence structurelle (risque sous-estimation 20%+ sur EUI),False,False,1.2358024691358025,0.0
103,2016,Nonresidential COS,Other,Key Arena,334 1st Ave. N,Seattle,WA,98109.0,1985200003,7,MAGNOLIA / QUEEN ANNE,47.62208,-122.35398,1962,1.0,1.0,389000,0,389000,Other,Other,368000.0,,,,,,,64.30000305,64.5,151.6000061,152.1000061,23658978.0,23736924.0,6093150.0,4226010.0,14419146.0,6886.799805,688680.0,False,,Compliant,,607.41,1.56,True,True,Incohérence énergétique,Écart sources/total > 10%,❌ Suppression,CO₂ mathématiquement corrompu (déconnexion sources/total),False,False,0.9460154241645244,10.39
106,2016,Nonresidential COS,Other,Armory,305 Harrison St.,Seattle,WA,98109.0,1985200305,7,MAGNOLIA / QUEEN ANNE,47.62208,-122.35398,1938,1.0,5.0,396085,0,396085,Other,Other,278500.0,,,,,,,75.19999695,76.30000305,138.1000061,140.0,20955026.0,21257836.0,9763690.0,2125534.75,7252325.0,0.0,0.0,False,,Compliant,,804.2,2.03,True,True,Incohérence énergétique,Écart sources/total > 10%,❌ Suppression,CO₂ mathématiquement corrompu (déconnexion sources/total),False,False,0.7031319035055607,18.8
107,2016,NonResidential,Large Office,City Place IV - SEDO,333 Boren Ave. N.,Seattle,WA,98109.0,1986200410,7,LAKE UNION,47.62112,-122.33629,2010,1.0,12.0,571329,0,571329,"Office, Other, Parking",Office,598801.0,Parking,310699.0,Other,26203.0,,91.0,63.40000153,64.19999695,174.1999969,176.3999939,39605888.0,40153432.0,0.0,9439097.0,32206199.0,73996.85156,7399685.0,False,,Compliant,,617.52,1.08,False,False,Ratio Usage/Total toléré (≤ 1.05),1.00 < Ratio ≤ 1.05,✅ Conservation,Incertitude de mesure acceptable (< 5%),False,False,1.048084378702989,0.0
111,2016,Nonresidential COS,Other,Mercer Arena,363 Mercer St.,Seattle,WA,98109.0,1988200700,7,MAGNOLIA / QUEEN ANNE,47.62395,-122.35077,1928,1.0,1.0,60696,0,60696,Other,Other,108000.0,,,,,,,8.100000381,8.100000381,25.5,25.5,875943.3125,875943.3125,0.0,256724.2969,875943.0,0.0,0.0,False,,Compliant,,6.11,0.1,True,True,Ratio Usage/Total critique (> 1.30),LargestPropertyUseTypeGFA/PropertyGFATotal > 1.30,❌ Suppression,Erreur physique manifeste,False,False,1.7793594306049823,0.0
112,2016,Nonresidential COS,Other,McCaw Hall,321 Mercer St.,Seattle,WA,98109.0,1988200700,7,MAGNOLIA / QUEEN ANNE,47.62395,-122.35143,1928,1.0,2.0,262048,0,262048,Other,Other,296000.0,,,,,,,70.0,70.30000305,171.1999969,175.1999969,20723248.0,20823520.0,5137220.0,3960341.75,13512686.0,0.0,0.0,False,,Compliant,,490.73,1.87,True,True,Ratio Usage/Total critique (monostructurel),1.05 < Ratio ≤ 1.30 + monostructurel,❌ Suppression,Incohérence structurelle (risque sous-estimation 20%+ sur EUI),False,False,1.129564049334473,10.0
118,2016,SPS-District K-12,K-12 School,Pathfinder K-8,1901 SW Genesee St.,Seattle,WA,98106.0,1324039116,1,DELRIDGE,47.5636,-122.358,1999,1.0,3.0,74468,0,74468,K-12 School,K-12 School,75364.0,,,,,,,0.0,0.0,0.0,0.0,0.0,0.0,0.0,497706.8125,1698176.0,0.0,0.0,False,,Missing Data,,11.84,0.16,True,True,Statut Error/Missing,ComplianceStatus invalide,❌ Suppression,Données explicitement invalidées,False,False,1.012032013750873,inf
122,2016,SPS-District K-12,K-12 School,John Muir Elementary,3301 S. Horton St.,Seattle,WA,98144.0,1524049002,2,SOUTHEAST,47.57324,-122.29058,1991,1.0,2.0,58933,0,58933,K-12 School,K-12 School,60725.0,,,,,,,0.0,0.0,0.0,0.0,0.0,0.0,0.0,687906.875,2347138.0,0.0,0.0,False,,Missing Data,,16.36,0.28,True,True,Statut Error/Missing,ComplianceStatus invalide,❌ Suppression,Données explicitement invalidées,False,False,1.0304074118066278,inf
125,2016,SPS-District K-12,K-12 School,Mercer International Middle,1600 Columbian Way S.,Seattle,WA,98108.0,1624049214,2,GREATER DUWAMISH,47.56413,-122.31208,1957,1.0,1.0,130862,0,130862,K-12 School,K-12 School,134446.0,,,,,,61.0,48.0,54.29999924,85.59999847,93.5,6456026.0,7300977.5,0.0,663194.5,2262820.0,41932.06641,4193207.0,True,,Error - Correct Default Data,,238.48,1.82,False,True,Statut Error/Missing,ComplianceStatus invalide,❌ Suppression,Données explicitement invalidées,False,False,1.027387629716801,0.0
127,2016,SPS-District K-12,K-12 School,Orca K-8 School,5215 46th Ave. S.,Seattle,WA,98118.0,1704900242,2,SOUTHEAST,47.55478,-122.27596,1989,1.0,3.0,59955,0,59955,K-12 School,K-12 School,59955.0,,,,,,93.0,27.20000076,29.20000076,78.69999695,83.0,1633399.375,1749171.25,0.0,420989.4063,1436416.0,1969.83252,196983.0,True,,Error - Correct Default Data,,20.48,0.34,False,True,Statut Error/Missing,ComplianceStatus invalide,❌ Suppression,Données explicitement invalidées,False,False,1.0,0.0
130,2016,SPS-District K-12,K-12 School,McClure Middle,1915 1st Ave. W.,Seattle,WA,98119.0,1794501220,7,MAGNOLIA / QUEEN ANNE,47.63683,-122.35896,1964,1.0,2.0,93218,0,93218,K-12 School,K-12 School,93218.0,,,,,,86.0,31.0,34.5,65.90000153,70.80000305,2887392.0,3216155.0,0.0,435743.8125,1486758.0,14006.33984,1400634.0,True,,Error - Correct Default Data,,84.75,0.91,False,True,Statut Error/Missing,ComplianceStatus invalide,❌ Suppression,Données explicitement invalidées,False,False,1.0,0.0
137,2016,SPS-District K-12,K-12 School,Broadview-Thomson K-8,13052 Greenwood Ave. N.,Seattle,WA,98133.0,1926049025,5,NORTHWEST,47.72463,-122.35315,1963,1.0,2.0,131013,0,131013,K-12 School,K-12 School,131909.0,,,,,,88.0,29.5,32.5,59.09999847,62.90000153,3894584.5,4290831.5,0.0,520365.6875,1775488.0,21190.9668,2119097.0,True,,Error - Correct Default Data,,124.92,0.95,False,True,Statut Error/Missing,ComplianceStatus invalide,❌ Suppression,Données explicitement invalidées,False,False,1.0068390159755138,0.0
139,2016,NonResidential,Hotel,7066-Seattle-Northgate,13300 Stone Avenue N,Seattle,WA,98133.0,1926049434,5,NORTHWEST,47.72551,-122.3423,2002,1.0,3.0,69138,0,69138,Hotel,Hotel,70609.0,,,,,,78.0,45.90000153,47.09999847,101.5999985,104.6999969,3242458.0,3323400.5,0.0,528396.6875,1802889.0,14395.68164,1439568.0,False,,Compliant,,89.02,1.29,False,False,Ratio Usage/Total toléré (≤ 1.05),1.00 < Ratio ≤ 1.05,✅ Conservation,Incertitude de mesure acceptable (< 5%),False,False,1.0212762880037027,0.0
140,2016,SPS-District K-12,K-12 School,B.F. Day Elementary,3921 Linden Ave. N.,Seattle,WA,98103.0,1931301145,6,LAKE UNION,47.65464,-122.34912,1991,1.0,3.0,66588,0,66588,K-12 School,K-12 School,66588.0,,,,,,,0.0,0.0,0.0,0.0,0.0,0.0,0.0,616730.8125,2104286.0,0.0,0.0,False,,Missing Data,,14.67,0.22,True,True,Statut Error/Missing,ComplianceStatus invalide,❌ Suppression,Données explicitement invalidées,False,False,1.0,inf
147,2016,NonResidential,Hospital,Swedish Ballard,5300 Tallman Ave NW,Seattle,WA,98107.0,2767703875,6,BALLARD,47.66737,-122.37956,1954,4.0,5.0,285333,0,285333,"Hospital (General Medical & Surgical), Parking",Hospital (General Medical & Surgical),302661.0,Parking,148865.0,,,,14.0,225.0,157.3000031,479.5,251.8000031,68090728.0,47602720.0,0.0,10327434.0,35237205.0,328535.125,32853512.0,False,,Compliant,,1990.5,6.98,False,False,Ratio Usage/Total intermédiaire (multi-usages),1.05 < Ratio ≤ 1.30 + NumberofBuildings > 1,✅ Conservation sélective,Dépassement structurel accepté pour bâtiments complexes,False,False,1.0607290429077605,0.0
148,2016,SPS-District K-12,K-12 School,West Woodland Elementary,5601 4th Ave. N.W.,Seattle,WA,98107.0,2768000375,6,Ballard,47.6706,-122.36225,1991,1.0,2.0,55513,0,55513,K-12 School,K-12 School,59097.0,,,,,,93.0,25.60000038,27.10000038,80.40000153,85.0,1513570.75,1598852.625,0.0,443602.1875,1513571.0,0.0,0.0,True,,Error - Correct Default Data,,10.55,0.19,False,True,Statut Error/Missing,ComplianceStatus invalide,❌ Suppression,Données explicitement invalidées,False,False,1.0645614540738206,0.0
169,2016,SPS-District K-12,K-12 School,Franklin High,3013 S. Mt. Baker Blvd.,Seattle,WA,98144.0,5700000455,2,SOUTHEAST,47.57589,-122.29365,1990,1.0,4.0,289588,0,289588,K-12 School,K-12 School,289588.0,,,,,,90.0,30.5,33.0,78.5,82.30000305,8819852.0,9542598.0,0.0,1890317.75,6449764.0,23700.86328,2370086.0,True,,Error - Correct Default Data,,170.84,0.59,False,True,Statut Error/Missing,ComplianceStatus invalide,❌ Suppression,Données explicitement invalidées,False,False,1.0,0.0
170,2016,NonResidential,University,SCCC FINE ARTS BUILDING,801 E PINE ST,Seattle,WA,98122.0,6003000470,3,EAST,47.61495,-122.32177,1915,1.0,3.0,63330,0,63330,College/University,College/University,64820.0,,,,,,,47.20000076,50.70000076,111.1999969,116.0,3059758.0,3284214.5,0.0,560100.6875,1911064.0,11486.94043,1148694.0,False,,Compliant,,74.33,1.17,True,False,Ratio Usage/Total toléré (≤ 1.05),1.00 < Ratio ≤ 1.05,✅ Conservation,Incertitude de mesure acceptable (< 5%),False,False,1.0235275540817939,0.0
172,2016,Campus,University,SSCC MAIN CAMPUS,6000 16th Ave SW,Seattle,WA,98106.0,6171900005,1,DELRIDGE,47.547,-122.35307,1970,27.0,2.0,441071,0,441071,College/University,College/University,483000.0,,,,,,,79.30000305,85.19999695,192.8000031,202.6000061,38301744.0,41151732.0,0.0,7419277.5,25314575.0,129871.6641,12987166.0,False,,Compliant,,866.23,1.96,True,False,Ratio Usage/Total intermédiaire (multi-usages),1.05 < Ratio ≤ 1.30 + NumberofBuildings > 1,✅ Conservation sélective,Dépassement structurel accepté pour bâtiments complexes,False,True,1.095061792772592,0.0
174,2016,Nonresidential COS,Other,CSC Vehicle Maintenance (E),805 S Charles St,Seattle,WA,98134.0,6834700175,2,GREATER DUWAMISH,47.59545,-122.32146,1950,1.0,1.0,67356,0,67356,"Repair Services (Vehicle, Shoe, Locksmith, etc)","Repair Services (Vehicle, Shoe, Locksmith, etc)",68359.0,,,,,,,109.4000015,118.3000031,242.6999969,252.1000061,7475577.5,8086930.5,0.0,1225674.375,4182001.0,32935.76172,3293576.0,False,,Compliant,,204.08,3.03,True,False,Ratio Usage/Total toléré (≤ 1.05),1.00 < Ratio ≤ 1.05,✅ Conservation,Incertitude de mesure acceptable (< 5%),False,False,1.014891026783063,0.0
175,2016,SPS-District K-12,K-12 School,Garfield High,400 23rd Ave.,Seattle,WA,98122.0,6840701230,3,CENTRAL,47.60598,-122.30156,2008,1.0,3.0,254523,0,254523,K-12 School,K-12 School,254523.0,,,,,,60.0,53.29999924,58.20000076,120.3000031,126.3000031,13567774.0,14810159.0,0.0,2296326.25,7835065.0,57327.08203,5732708.0,True,,Error - Correct Default Data,,359.09,1.41,False,True,Statut Error/Missing,ComplianceStatus invalide,❌ Suppression,Données explicitement invalidées,False,False,1.0,0.0
176,2016,SPS-District K-12,K-12 School,Emerson Elementary,9709 60th Ave. S.,Seattle,WA,98118.0,7129302300,2,SOUTHEAST,47.51482,-122.25864,2001,1.0,3.0,78804,0,78804,K-12 School,K-12 School,78804.0,,,,,,92.0,31.70000076,34.0,76.90000153,79.30000305,2499140.0,2677620.75,0.0,482184.6875,1645214.0,8539.256836,853926.0,True,,Error - Correct Default Data,,56.82,0.72,False,True,Statut Error/Missing,ComplianceStatus invalide,❌ Suppression,Données explicitement invalidées,False,False,1.0,0.0
177,2016,SPS-District K-12,K-12 School,Madrona K-8,1121 33rd Ave.,Seattle,WA,98122.0,7152200350,3,CENTRAL,47.61224,-122.29087,2002,1.0,3.0,66994,0,66994,K-12 School,K-12 School,66994.0,,,,,,79.0,35.40000153,38.5,94.09999847,99.59999847,2371304.5,2579774.5,0.0,534831.5,1824845.0,5464.591797,546459.0,True,,Error - Correct Default Data,,41.74,0.62,False,True,Statut Error/Missing,ComplianceStatus invalide,❌ Suppression,Données explicitement invalidées,False,False,1.0,0.0
178,2016,SPS-District K-12,K-12 School,Van Asselt Elementary,8311 Beacon Ave S,Seattle,WA,98118.0,7243500230,2,GREATER DUWAMISH,47.52915,-122.28904,2000,1.0,3.0,98357,0,98357,K-12 School,K-12 School,98357.0,,,,,,88.0,35.09999847,38.5,77.80000305,81.30000305,3456131.5,3783580.25,0.0,564791.125,1927067.0,15290.64063,1529064.0,True,,Error - Correct Default Data,,94.64,0.96,False,True,Statut Error/Missing,ComplianceStatus invalide,❌ Suppression,Données explicitement invalidées,False,False,1.0,0.0
185,2016,SPS-District K-12,K-12 School,Nathan Hale High,17050 30th Ave. N.E.,Seattle,WA,98125.0,2826049152,5,NORTH,47.70763,-122.29453,2011,1.0,2.0,236758,0,236758,"K-12 School, Parking",K-12 School,238550.0,Parking,0.0,,,2016,96.0,35.0,38.90000153,78.69999695,84.40000153,8355988.5,9287467.0,0.0,1403853.5,4789948.0,35660.39453,3566039.0,False,,Compliant,,222.78,0.94,False,False,Ratio Usage/Total toléré (≤ 1.05),1.00 < Ratio ≤ 1.05,✅ Conservation,Incertitude de mesure acceptable (< 5%),False,False,1.0075689100262715,0.0
189,2016,SPS-District K-12,K-12 School,Greenwood Elementary,144 N.W. 80th St.,Seattle,WA,98117.0,2919200635,6,NORTHWEST,47.68725,-122.35996,2002,1.0,3.0,62526,0,62526,K-12 School,K-12 School,62526.0,,,,,,96.0,31.79999924,35.09999847,70.59999847,75.30000305,1986094.875,2192411.0,0.0,326608.6875,1114389.0,8717.058594,871706.0,True,,Error - Correct Default Data,,54.07,0.86,False,True,Statut Error/Missing,ComplianceStatus invalide,❌ Suppression,Données explicitement invalidées,False,False,1.0,0.0
205,2016,SPS-District K-12,K-12 School,Ballard High,1418 N.W. 65th St.,Seattle,WA,98117.0,3050700050,6,BALLARD,47.67661,-122.37489,1999,1.0,2.0,242795,0,242795,K-12 School,K-12 School,242795.0,,,,,,80.0,37.70000076,40.0,107.3000031,112.3000031,9157150.0,9708318.0,0.0,2303477.0,7859464.0,12976.84766,1297685.0,True,,Error - Correct Default Data,,123.71,0.51,False,True,Statut Error/Missing,ComplianceStatus invalide,❌ Suppression,Données explicitement invalidées,False,False,1.0,0.0
209,2016,NonResidential,Self-Storage Facility,Madison Self Storage,1111 E. Madison,Seattle,WA,98122.0,3225049002,3,EAST,47.61233,-122.3171,1910,1.0,5.0,84870,0,84870,Self-Storage Facility,Self-Storage Facility,85521.0,,,,,,,16.20000076,18.89999962,28.79999924,31.70000076,1381590.125,1617801.25,0.0,141452.2031,482635.0,8989.550781,898955.0,False,,Compliant,,51.11,0.6,True,False,Ratio Usage/Total toléré (≤ 1.05),1.00 < Ratio ≤ 1.05,✅ Conservation,Incertitude de mesure acceptable (< 5%),False,False,1.0076705549664193,0.0
212,2016,SPS-District K-12,K-12 School,Aki Kurose Middle,3928 S. Graham St.,Seattle,WA,98118.0,3332501090,2,SOUTHEAST,47.54632,-122.28198,1952,1.0,2.0,173185,0,173185,K-12 School,K-12 School,173185.0,,,,,,79.0,35.40000153,40.59999847,58.90000153,64.90000153,6127771.5,7034167.5,0.0,527763.0,1800727.0,43270.4375,4327044.0,True,,Error - Correct Default Data,,242.36,1.4,False,True,Statut Error/Missing,ComplianceStatus invalide,❌ Suppression,Données explicitement invalidées,False,False,1.0,0.0
214,2016,SPS-District K-12,K-12 School,Boren Building,5950 Delridge Way S.W.,Seattle,WA,98106.0,3438501230,1,DELRIDGE,47.54862,-122.36214,1963,1.0,1.0,145341,0,145341,K-12 School,K-12 School,139069.0,,,,,,75.0,39.5,45.59999847,69.5,77.19999695,5499097.0,6337972.0,0.0,546590.625,1864967.0,36341.29688,3634130.0,True,,Error - Correct Default Data,,206.01,1.42,False,True,Statut Error/Missing,ComplianceStatus invalide,❌ Suppression,Données explicitement invalidées,False,False,0.9568463131532052,0.0
216,2016,SPS-District K-12,K-12 School,Rainier Beach High,8815 Seward Park Ave S.,Seattle,WA,98118.0,3524049149,2,SOUTHEAST,47.52407,-122.26586,1960,1.0,2.0,184125,0,184125,K-12 School,K-12 School,184125.0,,,,,,86.0,47.79999924,54.70000076,84.19999695,92.30000305,8800292.0,10067991.0,0.0,879209.3125,2999862.0,58004.30078,5800430.0,True,,Error - Correct Default Data,,328.97,1.79,False,True,Statut Error/Missing,ComplianceStatus invalide,❌ Suppression,Données explicitement invalidées,False,False,1.0,0.0
217,2016,SPS-District K-12,K-12 School,Whitman Middle,9201 15th Ave. NW.,Seattle,WA,98117.0,3526039131,6,BALLARD,47.69675,-122.3776,1959,1.0,1.0,160270,0,160270,K-12 School,K-12 School,160270.0,,,,,,,0.0,0.0,0.0,0.0,0.0,0.0,0.0,0.0,0.0,43189.17188,4318917.0,False,,Missing Data,,229.38,1.43,True,True,Statut Error/Missing,ComplianceStatus invalide,❌ Suppression,Données explicitement invalidées,False,False,1.0,inf
223,2016,NonResidential,Retail Store,Westwood Village - Building A,2600 SW Barton St,Seattle,WA,98126.0,3624039009,1,DELRIDGE,47.52254,-122.36627,1966,1.0,1.0,64984,0,64984,Retail Store,Retail Store,65425.0,,,,,,72.0,45.0,46.09999847,130.6999969,130.6999969,2944296.25,3016373.5,0.0,766027.8125,2613687.0,3306.090088,330609.0,False,,Compliant,,35.78,0.55,False,False,Ratio Usage/Total toléré (≤ 1.05),1.00 < Ratio ≤ 1.05,✅ Conservation,Incertitude de mesure acceptable (< 5%),False,False,1.0067862858549796,0.0
224,2016,NonResidential,Retail Store,Westwood Village - Building B,2600 SW Barton St,Seattle,WA,98126.0,3624039009,1,DELRIDGE,47.52254,-122.36627,1965,1.0,1.0,67745,0,67745,Retail Store,Retail Store,67782.0,,,,,,37.0,136.1999969,141.5,223.8999939,227.3000031,9230223.0,9589728.0,0.0,769080.3125,2624102.0,66061.21094,6606121.0,False,,Compliant,,369.14,5.45,False,False,Ratio Usage/Total toléré (≤ 1.05),1.00 < Ratio ≤ 1.05,✅ Conservation,Incertitude de mesure acceptable (< 5%),False,False,1.0005461657686914,0.0
226,2016,SPS-District K-12,K-12 School,Roxhill Elementary,9430 30th Ave. S.W.,Seattle,WA,98126.0,3624039057,1,DELRIDGE,47.51778,-122.37074,1958,1.0,1.0,46797,0,46797,K-12 School,K-12 School,46797.0,,,,,,86.0,44.40000153,50.90000153,82.19999695,91.5,2075891.0,2380144.5,0.0,233647.0938,797204.0,12786.87207,1278687.0,True,,Error - Correct Default Data,,73.47,1.57,False,True,Statut Error/Missing,ComplianceStatus invalide,❌ Suppression,Données explicitement invalidées,False,False,1.0,0.0
227,2016,SPS-District K-12,K-12 School,Washington Middle,2101 S. Jackson,Seattle,WA,98144.0,3646100540,3,CENTRAL,47.59796,-122.30415,1963,1.0,3.0,136188,0,136188,K-12 School,K-12 School,136188.0,,,,,,,0.0,0.0,0.0,0.0,0.0,0.0,0.0,0.0,0.0,32178.77344,3217877.0,False,,Missing Data,,170.9,1.25,True,True,Statut Error/Missing,ComplianceStatus invalide,❌ Suppression,Données explicitement invalidées,False,False,1.0,inf
229,2016,SPS-District K-12,K-12 School,Martin Luther King Jr. Elementary,6725 45th Ave S,Seattle,WA,98118.0,3812400550,2,SOUTHEAST,47.54174,-122.27691,2004,1.0,2.0,67371,0,67371,K-12 School,K-12 School,67371.0,,,,,,92.0,31.60000038,33.59999847,78.0,80.09999847,2128459.0,2260359.75,0.0,423604.5938,1445339.0,6831.19873,683120.0,True,,Error - Correct Default Data,,46.36,0.69,False,True,Statut Error/Missing,ComplianceStatus invalide,❌ Suppression,Données explicitement invalidées,False,False,1.0,0.0
231,2016,SPS-District K-12,K-12 School,Hamilton International Middle,1610 N. 41st St.,Seattle,WA,98103.0,4083301505,4,LAKE UNION,47.65708,-122.33803,2010,1.0,3.0,127776,0,127776,K-12 School,K-12 School,127776.0,,,,,,75.0,37.20000076,39.09999847,100.0,103.5,4748137.0,4998584.5,0.0,1093179.875,3729930.0,10182.06738,1018207.0,True,,Error - Correct Default Data,,80.08,0.63,False,True,Statut Error/Missing,ComplianceStatus invalide,❌ Suppression,Données explicitement invalidées,False,False,1.0,0.0
237,2016,SPS-District K-12,K-12 School,Whittier Elementary,1320 NW 75th St.,Seattle,WA,98117.0,4240400005,6,BALLARD,47.68359,-122.37308,1999,1.0,2.0,67235,0,67235,K-12 School,K-12 School,67235.0,,,,,,89.0,34.0,36.29999924,84.30000305,86.80000305,2284133.75,2443194.0,0.0,458595.4063,1564728.0,7194.061523,719406.0,True,,Error - Correct Default Data,,49.12,0.73,False,True,Statut Error/Missing,ComplianceStatus invalide,❌ Suppression,Données explicitement invalidées,False,False,1.0,0.0
239,2016,SPS-District K-12,K-12 School,Gatewood Elementary,4320 SW Myrtle,Seattle,WA,98136.0,4315700020,1,SOUTHWEST,47.54025,-122.3885,1991,1.0,3.0,58118,0,58118,K-12 School,K-12 School,59014.0,,,,,,97.0,23.79999924,25.70000076,66.09999847,69.59999847,1407277.25,1519074.75,0.0,339524.3125,1158457.0,2488.200928,248820.0,True,,Error - Correct Default Data,,21.29,0.37,False,True,Statut Error/Missing,ComplianceStatus invalide,❌ Suppression,Données explicitement invalidées,False,False,1.0154169104236208,0.0
242,2016,SPS-District K-12,K-12 School,Olympic View Elementary,504 N.E. 95th St.,Seattle,WA,98115.0,5100404840,5,NORTH,47.69823,-122.32126,1989,1.0,2.0,52792,0,52792,K-12 School,K-12 School,55480.0,,,,,,,0.0,0.0,0.0,0.0,0.0,0.0,0.0,0.0,0.0,0.0,0.0,False,,Missing Data,,0.0,0.0,True,True,Statut Error/Missing,ComplianceStatus invalide,❌ Suppression,Données explicitement invalidées,False,False,1.0509168055766025,
243,2016,SPS-District K-12,K-12 School,Van Asselt Building - Old,7201 Beacon Ave. S.,Seattle,WA,98108.0,5129000050,2,GREATER DUWAMISH,47.53809,-122.29591,1925,1.0,1.0,70762,0,70762,K-12 School,K-12 School,70762.0,,,,,,87.0,51.0,58.5,68.0,76.5,3606416.0,4138032.75,0.0,143935.0,491106.0,31153.0957,3115310.0,True,,Error - Correct Default Data,,168.88,2.39,False,True,Statut Error/Missing,ComplianceStatus invalide,❌ Suppression,Données explicitement invalidées,False,False,1.0,0.0
260,2016,SPS-District K-12,K-12 School,Lincoln Building,4400 Interlake Ave N,Seattle,WA,98103.0,7821200700,4,LAKE UNION,47.65996,-122.33962,1997,1.0,4.0,241066,0,241066,K-12 School,K-12 School,241066.0,,,,,,79.0,32.29999924,36.90000153,60.79999924,66.19999695,7791957.0,8886716.0,0.0,907478.3125,3096316.0,46956.40625,4695641.0,True,,Error - Correct Default Data,,270.97,1.12,False,True,Statut Error/Missing,ComplianceStatus invalide,❌ Suppression,Données explicitement invalidées,False,False,1.0,0.0
267,2016,NonResidential,Hotel,Grand Hyatt Seattle,721 Pine St,Seattle,WA,98101.0,6792120000,7,DOWNTOWN,47.61275,-122.3333,1999,1.0,,934292,0,934292,"Hotel, Other, Parking, Restaurant, Retail Store",Hotel,495536.0,Parking,438756.0,Restaurant,49700.0,,,117.9000015,120.5,272.8999939,278.2000122,65047284.0,66502836.0,0.0,11536962.0,39364114.0,256831.625,25683162.0,False,,Compliant,,1638.46,1.75,True,False,Nombre d'étages incohérent,NumberofFloors=0 & BuildingType!=Campus,⚠️ Feature Engineering : NaN + Flag,"Structure massive nécessitant plusieurs niveaux (ex: Grand Hyatt, Pacific Place)",True,False,0.5303866457167566,0.0
268,2016,NonResidential,Hospital,Swedish Cherry Hill,500 17th Ave,Seattle,WA,98122.0,7942600331,3,CENTRAL,47.60705,-122.30966,1990,6.0,5.0,597519,0,597519,"Hospital (General Medical & Surgical), Parking",Hospital (General Medical & Surgical),601615.0,Parking,48607.0,,,,34.0,238.3999939,244.8000031,454.3999939,459.2000122,143423024.0,147299056.0,0.0,17220084.0,58754927.0,846680.9375,84668094.0,False,,Compliant,,4906.33,8.21,False,False,Ratio Usage/Total toléré (≤ 1.05),1.00 < Ratio ≤ 1.05,✅ Conservation,Incertitude de mesure acceptable (< 5%),False,False,1.0068550121418733,0.0
273,2016,SPS-District K-12,K-12 School,Highland Park Elementary,1012 S.W. Trenton St.,Seattle,WA,98106.0,7972603210,1,DELRIDGE,47.52518,-122.34828,1999,1.0,1.0,71714,0,71714,K-12 School,K-12 School,71714.0,,,,,,87.0,33.09999847,34.5,91.40000153,93.90000153,2371358.0,2470597.75,0.0,569817.125,1944216.0,4271.419434,427142.0,True,,Error - Correct Default Data,,36.24,0.51,False,True,Statut Error/Missing,ComplianceStatus invalide,❌ Suppression,Données explicitement invalidées,False,False,1.0,0.0
276,2016,NonResidential,Hospital,Harborview Medical Center,325 9th Ave.,Seattle,WA,98104.0,8590900220,3,EAST,47.60399,-122.32377,2000,9.0,8.0,1158691,0,1158691,"Hospital (General Medical & Surgical), Parking",Hospital (General Medical & Surgical),1350182.0,Parking,387651.0,,,,29.0,217.1000061,219.6999969,502.8999939,502.7999878,293090784.0,296671744.0,122575032.0,49438336.0,168683602.0,18321.29102,1832129.0,False,,Compliant,,10734.57,9.26,False,False,Ratio Usage/Total intermédiaire (multi-usages),1.05 < Ratio ≤ 1.30 + NumberofBuildings > 1,✅ Conservation sélective,Dépassement structurel accepté pour bâtiments complexes,False,False,1.1652649412138352,0.0
279,2016,SPS-District K-12,K-12 School,West Seattle High,3000 California Ave SW,Seattle,WA,98116.0,8702100050,1,SOUTHWEST,47.57678,-122.38459,2002,1.0,2.0,208981,0,208981,K-12 School,K-12 School,208981.0,,,,,,80.0,39.09999847,43.20000076,90.0,95.19999695,8164853.0,9030149.0,0.0,1434598.625,4894851.0,32700.02148,3270002.0,True,,Error - Correct Default Data,,207.79,0.99,False,True,Statut Error/Missing,ComplianceStatus invalide,❌ Suppression,Données explicitement invalidées,False,False,1.0,0.0
286,2016,SPS-District K-12,K-12 School,Roosevelt High,1410 N.E. 66th St.,Seattle,WA,98115.0,8826900005,4,NORTHEAST,47.67723,-122.31281,2006,1.0,3.0,269297,0,269297,K-12 School,K-12 School,269297.0,,,,,,80.0,39.0,41.59999847,96.80000305,99.59999847,10498344.0,11208195.0,0.0,2111361.25,7203965.0,32943.78516,3294379.0,True,,Error - Correct Default Data,,225.19,0.84,False,True,Statut Error/Missing,ComplianceStatus invalide,❌ Suppression,Données explicitement invalidées,False,False,1.0,0.0
287,2016,SPS-District K-12,K-12 School,Bryant Elementary,3311 N.E. 60th,Seattle,WA,98115.0,8827900180,4,NORTHEAST,47.67184,-122.29221,2001,1.0,3.0,75174,0,75174,K-12 School,K-12 School,75174.0,,,,,,77.0,36.40000153,40.09999847,82.40000153,87.59999847,2733846.0,3011741.75,0.0,465868.5,1589543.0,11443.02246,1144302.0,True,,Error - Correct Default Data,,71.86,0.96,False,True,Statut Error/Missing,ComplianceStatus invalide,❌ Suppression,Données explicitement invalidées,False,False,1.0,0.0
289,2016,SPS-District K-12,K-12 School,Frantz Coe Elementary,2424 7th Ave W.,Seattle,WA,98119.0,9270200005,7,MAGNOLIA / QUEEN ANNE,47.64052,-122.3656,2003,1.0,3.0,75214,0,75214,K-12 School,K-12 School,75214.0,,,,,,88.0,31.0,32.70000076,80.80000305,82.5,2334260.0,2457326.25,0.0,508113.9063,1733685.0,6005.752441,600575.0,True,,Error - Correct Default Data,,43.98,0.58,False,True,Statut Error/Missing,ComplianceStatus invalide,❌ Suppression,Données explicitement invalidées,False,False,1.0,0.0
290,2016,SPS-District K-12,K-12 School,Madison Middle,3429 45th Ave. S.W.,Seattle,WA,98116.0,9278300005,1,SOUTHWEST,47.57298,-122.39028,2005,1.0,3.0,134918,0,134918,K-12 School,K-12 School,134918.0,,,,,,91.0,28.29999924,30.60000038,74.59999847,79.0,3822102.5,4135198.25,0.0,848506.625,2895105.0,9269.976563,926998.0,True,,Error - Correct Default Data,,69.42,0.51,False,True,Statut Error/Missing,ComplianceStatus invalide,❌ Suppression,Données explicitement invalidées,False,False,1.0,0.0
291,2016,SPS-District K-12,K-12 School,Thurgood Marshall Elementary,2401 S. Irving St.,Seattle,WA,98144.0,9344400300,3,CENTRAL,47.59096,-122.29985,1991,1.0,2.0,64414,0,64414,K-12 School,K-12 School,65310.0,,,,,,67.0,35.09999847,37.59999847,110.3000031,117.9000015,2295176.5,2453255.5,0.0,672677.6875,2295176.0,0.0,0.0,True,,Error - Correct Default Data,,16.0,0.25,False,True,Statut Error/Missing,ComplianceStatus invalide,❌ Suppression,Données explicitement invalidées,False,False,1.013910019560965,0.0
292,2016,SPS-District K-12,K-12 School,John Marshall Building,520 N.E. Ravenna Blvd.,Seattle,WA,98115.0,9528103775,6,NORTHWEST,47.67725,-122.32232,1927,1.0,3.0,92437,0,92437,K-12 School,K-12 School,92437.0,,,,,,78.0,50.0,57.09999847,74.40000153,81.90000153,4626443.0,5280739.0,0.0,283665.3125,967866.0,36585.76953,3658577.0,True,,Error - Correct Default Data,,201.05,2.17,False,True,Statut Error/Missing,ComplianceStatus invalide,❌ Suppression,Données explicitement invalidées,False,False,1.0,0.0
300,2016,SPS-District K-12,K-12 School,Cleveland STEM High,5511 15th Ave. S.,Seattle,WA,98108.0,7549802085,2,GREATER DUWAMISH,47.55237,-122.31391,2007,1.0,3.0,204961,0,204961,K-12 School,K-12 School,204961.0,,,,,,94.0,40.0,43.59999847,88.09999847,92.0,8190809.0,8935423.0,0.0,1327293.75,4528726.0,36620.82031,3662082.0,True,,Error - Correct Default Data,,226.06,1.1,False,True,Statut Error/Missing,ComplianceStatus invalide,❌ Suppression,Données explicitement invalidées,False,False,1.0,0.0
302,2016,NonResidential,Other,Seattle ReadCntr (50/50),Readiness Center - Pier 91,Seattle,WA,98119.0,7666201147,7,MAGNOLIA / QUEEN ANNE,47.63965,-122.3783,1973,1.0,1.0,76086,0,76086,Other,Other,77810.0,,,,,,,42.0,46.0,86.09999847,90.30000305,3267564.0,3576720.0,0.0,458196.3125,1563366.0,17041.97852,1704198.0,False,,Compliant,,101.41,1.33,True,False,Ratio Usage/Total toléré (≤ 1.05),1.00 < Ratio ≤ 1.05,✅ Conservation,Incertitude de mesure acceptable (< 5%),False,False,1.0226585705648872,0.0
315,2016,Campus,Other,P66 Bell Harbor International Conference Center & Cruise Terminal.,2225 Alaskan Way,Seattle,WA,98125.0,7666202325,7,DOWNTOWN,47.61137,-122.34947,1995,4.0,3.0,215476,0,215476,Other,Other,217088.0,,,,,,,110.5999985,113.3000031,248.8999939,251.8000031,24017770.0,24606366.0,0.0,4041281.75,13788853.0,102289.1641,10228916.0,False,,Compliant,,639.39,2.97,True,False,Ratio Usage/Total toléré (≤ 1.05),1.00 < Ratio ≤ 1.05,✅ Conservation,Incertitude de mesure acceptable (< 5%),False,True,1.007481111585513,0.0
316,2016,NonResidential,Hotel,337v2-Seattle Waterfront Marriott,2100 Alaskan Way,Seattle,WA,98121.0,7666202345,7,DOWNTOWN,47.61069,-122.34653,2003,1.0,8.0,254273,38800,215473,Hotel,Hotel,277000.0,,,,,,29.0,96.19999695,96.90000153,204.8999939,205.0,26659244.0,26831896.0,0.0,4033863.5,13763542.0,128957.0,12895700.0,False,,Compliant,,780.84,3.07,False,True,Ratio Usage/Total critique (monostructurel),1.05 < Ratio ≤ 1.30 + monostructurel,❌ Suppression,Incohérence structurelle (risque sous-estimation 20%+ sur EUI),False,False,1.0893803117122147,0.0
326,2016,NonResidential,Large Office,Westlake Tower,1601 5th Avenue,Seattle,WA,98101.0,9301500000,7,DOWNTOWN,47.61217,-122.33694,1989,1.0,25.0,369996,0,369996,"Office, Parking",Office,383942.0,Parking,127192.0,,,2012,74.0,64.5,64.5,202.5,202.5,24755086.0,24755086.0,0.0,7255300.0,24755084.0,0.0,0.0,False,,Compliant,,172.58,0.47,False,False,Ratio Usage/Total toléré (≤ 1.05),1.00 < Ratio ≤ 1.05,✅ Conservation,Incertitude de mesure acceptable (< 5%),False,False,1.0376922993762094,0.0
350,2016,NonResidential,Large Office,Second And Spring Building,1100 Second Avenue,Seattle,WA,98101.0,0942000045,7,DOWNTOWN,47.60642,-122.33581,1958,1.0,6.0,172842,25920,146922,"Data Center, Office, Parking",Office,99890.0,Data Center,39336.0,Parking,25000.0,,,297.3999939,299.2000122,909.5999756,911.5,41399504.0,41650404.0,0.0,11663150.0,39794668.0,16048.30957,1604831.0,False,,Non-Compliant,High outlier,362.66,2.1,True,True,Statut Error/Missing,ComplianceStatus invalide,❌ Suppression,Données explicitement invalidées,False,False,0.5779266613438864,0.0
381,2016,NonResidential,Supermarket / Grocery Store,70500872 -- Holman Road,9999 Holman Road NW,Seattle,WA,98117.0,0767000060,6,NORTHWEST,47.7019,-122.36374,1956,1.0,1.0,60880,0,60880,Supermarket/Grocery Store,Supermarket/Grocery Store,61666.0,,,,,,54.0,231.8000031,239.0,518.7999878,523.5999756,14293972.0,14736775.0,0.0,2381365.25,8125218.0,61687.52734,6168753.0,False,,Compliant,,384.27,6.31,False,False,Ratio Usage/Total toléré (≤ 1.05),1.00 < Ratio ≤ 1.05,✅ Conservation,Incertitude de mesure acceptable (< 5%),False,False,1.012910643889619,0.0
382,2016,NonResidential,Small- and Mid-Sized Office,Collins Building,524 2nd Ave,Seattle,WA,98104.0,0939000025,7,DOWNTOWN,47.60227,-122.33202,1900,1.0,5.0,50176,0,50176,"Office, Other, Restaurant",Office,50328.0,Other,8329.0,Restaurant,4253.0,,77.0,46.59999847,46.59999847,143.1999969,143.1999969,2933288.75,2933288.75,0.0,831375.875,2836654.0,966.3400269,96634.0,False,,Compliant,,24.91,0.5,False,False,Ratio Usage/Total toléré (≤ 1.05),1.00 < Ratio ≤ 1.05,✅ Conservation,Incertitude de mesure acceptable (< 5%),False,False,1.0030293367346939,0.0
388,2016,NonResidential,Large Office,Rainier Tower,1301 5th Ave,Seattle,WA,98101.0,0002400003,7,DOWNTOWN,47.60896,-122.33481,1976,1.0,42.0,635824,0,635824,"Financial Office, Office, Other, Parking, Restaurant",Office,718473.0,Parking,40000.0,Restaurant,19671.0,,69.0,62.90000153,62.90000153,197.6000061,197.6000061,48479988.0,48479988.0,0.0,14208670.0,48479982.0,0.0,0.0,False,,Compliant,,337.97,0.53,False,True,Ratio Usage/Total critique (monostructurel),1.05 < Ratio ≤ 1.30 + monostructurel,❌ Suppression,Incohérence structurelle (risque sous-estimation 20%+ sur EUI),False,False,1.1299872291703363,0.0
401,2016,NonResidential,Hotel,WAC aggregate,1325 6th Ave,Seattle,WA,98101.0,1975700025,7,DOWNTOWN,47.60968,-122.33379,1930,1.0,21.0,305548,0,305548,Hotel,Hotel,310000.0,,,,,,58.0,108.8000031,111.4000015,220.6000061,222.1999969,33729336.0,34527356.0,16284570.0,4272584.5,14578058.0,28667.04883,2866705.0,False,,Compliant,,1510.85,4.94,False,False,Ratio Usage/Total toléré (≤ 1.05),1.00 < Ratio ≤ 1.05,✅ Conservation,Incertitude de mesure acceptable (< 5%),False,False,1.0145705421079503,0.0
403,2016,NonResidential,Large Office,Logan Building,500 Union St,Seattle,WA,98101.0,1975700095,7,DOWNTOWN,47.61003,-122.33452,1958,1.0,10.0,135918,0,135918,Office,Office,144570.0,,,,,,91.0,44.40000153,46.79999924,111.0999985,114.0,6423556.5,6771618.5,2121203.0,1260947.625,4302353.0,0.0,0.0,False,,Compliant,,193.72,1.43,False,True,Ratio Usage/Total critique (monostructurel),1.05 < Ratio ≤ 1.30 + monostructurel,❌ Suppression,Incohérence structurelle (risque sous-estimation 20%+ sur EUI),False,False,1.0636560278991745,0.0
405,2016,NonResidential,Large Office,The Decatur,1511 6th Avenue,Seattle,WA,98101.0,1975700125,7,DOWNTOWN,47.61166,-122.33528,1921,1.0,4.0,127268,0,127268,"Non-Refrigerated Warehouse, Office, Retail Store",Office,62512.0,Retail Store,53971.0,Non-Refrigerated Warehouse,5000.0,,71.0,63.5,63.5,171.5,171.5,7711757.5,7711757.5,714523.6875,1770165.625,6039805.0,9574.279297,957428.0,True,,Error - Correct Default Data,,148.11,1.16,False,True,Statut Error/Missing,ComplianceStatus invalide,❌ Suppression,Données explicitement invalidées,False,False,0.49118395826130684,0.0
435,2016,NonResidential,Other,Washington State Convention Center,705 Pike St,Seattle,WA,98101.0,1978200105,7,DOWNTOWN,47.61195,-122.33167,1990,1.0,6.0,1400000,0,1400000,"Convention Center, Parking",Convention Center,1072000.0,Parking,686750.0,,,,,,0.0,0.0,0.0,0.0,0.0,0.0,0.0,0.0,0.0,0.0,False,,Non-Compliant,,0.0,0.0,True,True,Statut Error/Missing,ComplianceStatus invalide,❌ Suppression,Données explicitement invalidées,False,False,0.7657142857142857,
447,2016,NonResidential,Warehouse,NWCP-SEA Sylv Bldg,750 S Michigan St,Seattle,WA,98108.0,2024049061,2,GREATER DUWAMISH,47.5471,-122.32406,1963,1.0,1.0,106000,0,106000,Non-Refrigerated Warehouse,Non-Refrigerated Warehouse,106001.0,,,,,,93.0,7.199999809,7.199999809,22.60000038,22.60000038,763364.5,763364.5,0.0,223729.2969,763364.0,0.0,0.0,False,,Compliant,,5.32,0.05,False,False,Ratio Usage/Total toléré (≤ 1.05),1.00 < Ratio ≤ 1.05,✅ Conservation,Incertitude de mesure acceptable (< 5%),False,False,1.000009433962264,0.0
487,2016,NonResidential,Laboratory,UW Medicine Research Phase I,850 Republican St.,Seattle,WA,98109.0,1988201480,7,LAKE UNION,47.62405,-122.34036,1963,1.0,4.0,102235,0,102235,Laboratory,Laboratory,103135.0,,,,,,,236.5,241.5,559.5,559.7000122,24395228.0,24903228.0,0.0,4500367.5,15355254.0,90399.71875,9039972.0,False,,Compliant,,587.16,5.74,True,False,Ratio Usage/Total toléré (≤ 1.05),1.00 < Ratio ≤ 1.05,✅ Conservation,Incertitude de mesure acceptable (< 5%),False,False,1.0088032474201594,0.0
507,2016,NonResidential,Warehouse,Skyline-East Marginal,4401 E Marginal Way S,Seattle,WA,98134.0,1824049063,2,GREATER DUWAMISH,47.56419,-122.34262,1999,1.0,1.0,243044,0,243044,Non-Refrigerated Warehouse,Non-Refrigerated Warehouse,325424.0,,,,,,100.0,4.300000191,4.300000191,9.0,9.0,1396082.25,1396082.25,0.0,205444.5938,700977.0,6951.050293,695105.0,False,,Compliant,,41.8,0.17,False,True,Ratio Usage/Total critique (> 1.30),LargestPropertyUseTypeGFA/PropertyGFATotal > 1.30,❌ Suppression,Erreur physique manifeste,False,False,1.3389509718404897,0.0
513,2016,NonResidential,Other,Q13 FOX,1813 Westlake Ave N,Seattle,WA,98109.0,1925049022,7,MAGNOLIA / QUEEN ANNE,47.63549,-122.34103,1952,1.0,3.0,66462,12998,53464,"Other, Parking",Other,72000.0,Parking,15000.0,,,,,95.5,95.5,299.8999939,299.8999939,6876439.5,6876439.5,0.0,2015368.75,6876438.0,0.0,0.0,False,,Compliant,,47.94,0.72,True,True,Ratio Usage/Total critique (monostructurel),1.05 < Ratio ≤ 1.30 + monostructurel,❌ Suppression,Incohérence structurelle (risque sous-estimation 20%+ sur EUI),False,False,1.0833258102374288,0.0
516,2016,NonResidential,Other,Aurora Shopping Center,13201 Aurora Avenue North,Seattle,WA,98133.0,1926049215,5,NORTHWEST,47.72546,-122.34659,1964,6.0,1.0,111900,0,111900,"Parking, Strip Mall",Strip Mall,124231.0,Parking,0.0,,,,,79.0,81.09999847,190.5,193.0,9814820.0,10079993.0,0.0,1872845.375,6390148.0,34246.69922,3424670.0,False,,Compliant,,226.43,2.02,True,False,Ratio Usage/Total intermédiaire (multi-usages),1.05 < Ratio ≤ 1.30 + NumberofBuildings > 1,✅ Conservation sélective,Dépassement structurel accepté pour bâtiments complexes,False,False,1.1101966041108133,0.0
539,2016,NonResidential,Retail Store,University Center,4501 Roosevelt Way NE,Seattle,WA,98105.0,5335200380,4,NORTHEAST,47.66178,-122.31812,1987,1.0,2.0,69492,0,69492,Retail Store,Retail Store,69800.0,Other,0.0,,,,100.0,4.599999905,4.599999905,14.30000019,14.30000019,318962.8125,318962.8125,0.0,93482.60156,318963.0,0.0,0.0,False,,Non-Compliant,Low outlier,2.22,0.03,False,True,Statut Error/Missing,ComplianceStatus invalide,❌ Suppression,Données explicitement invalidées,False,False,1.0044321648535084,0.0
552,2016,NonResidential,Distribution Center,South Seattle Distribution Center- 3800,3800 1st Avenue South,Seattle,WA,98134.0,6172900005,2,GREATER DUWAMISH,47.5701,-122.33342,1968,1.0,1.0,161678,0,161678,Distribution Center,Distribution Center,162425.0,,,,,,25.0,57.59999847,62.09999847,142.0,145.5,9357230.0,10093972.0,0.0,1855803.75,6332002.0,30252.27148,3025227.0,False,,Compliant,,204.81,1.27,False,False,Ratio Usage/Total toléré (≤ 1.05),1.00 < Ratio ≤ 1.05,✅ Conservation,Incertitude de mesure acceptable (< 5%),False,False,1.0046202946597558,0.0
554,2016,NonResidential,Distribution Center,South Seattle Distribution Center- 3601,3601 2ND AVE S,Seattle,WA,98134.0,6172900015,2,GREATER DUWAMISH,47.57023,-122.33241,1980,1.0,1.0,52613,0,52613,Distribution Center,Distribution Center,59504.0,,,,,,80.0,17.79999924,20.70000076,37.29999924,40.29999924,1061458.25,1231121.75,0.0,154710.5,527872.0,5335.860352,533586.0,False,,Compliant,,32.02,0.61,False,True,Ratio Usage/Total critique (monostructurel),1.05 < Ratio ≤ 1.30 + monostructurel,❌ Suppression,Incohérence structurelle (risque sous-estimation 20%+ sur EUI),False,False,1.1309752342576929,0.0
561,2016,NonResidential,Large Office,Alley24,221 Yale Avenue North,Seattle,WA,98109.0,6849700145,7,LAKE UNION,47.62029,-122.33078,2005,1.0,6.0,336700,124800,211900,"Office, Parking, Retail Store",Office,217977.0,Parking,4569.0,Retail Store,0.0,,95.0,41.59999847,42.20000076,113.5,113.5,9058916.0,9200102.0,0.0,2308731.75,7877393.0,0.0,0.0,False,,Compliant,,54.92,0.16,False,True,Incohérence énergétique,Écart sources/total > 10%,❌ Suppression,CO₂ mathématiquement corrompu (déconnexion sources/total),False,False,0.6473923373923374,13.04
586,2016,NonResidential,Retail Store,"SEATTLE, WA-0106",401 NE NORTHGATE WAY STE 475,Seattle,WA,98125.0,3226049481,5,NORTH,47.70759,-122.3255,1965,1.0,2.0,168619,0,168619,Retail Store,Retail Store,173106.0,,,,,2009,78.0,37.29999924,38.79999924,105.0,106.9000015,6455828.5,6718441.0,0.0,1599320.5,5456882.0,9989.459961,998946.0,False,,Compliant,,91.1,0.54,False,False,Ratio Usage/Total toléré (≤ 1.05),1.00 < Ratio ≤ 1.05,✅ Conservation,Incertitude de mesure acceptable (< 5%),False,False,1.0266102870969465,0.0
599,2016,NonResidential,Refrigerated Warehouse,Uwajimaya (Seattle 5),4601 6th Ave S,Seattle,WA,98108.0,3958900565,2,GREATER DUWAMISH,47.56158,-122.32754,1971,1.0,1.0,76354,0,76354,Refrigerated Warehouse,Refrigerated Warehouse,76486.0,,,,,,70.0,37.20000076,36.5,116.4000015,114.3000031,2843033.5,2792753.5,0.0,830282.5,2832924.0,101.0899963,10109.0,False,,Compliant,,20.29,0.27,False,False,Ratio Usage/Total toléré (≤ 1.05),1.00 < Ratio ≤ 1.05,✅ Conservation,Incertitude de mesure acceptable (< 5%),False,False,1.0017287895853524,0.0
608,2016,NonResidential,Large Office,411 1ST AVE  S (ID608),411 1ST AVE S,Seattle,WA,98104.0,5247800200,2,DOWNTOWN,47.59878,-122.33458,1913,5.0,7.0,154159,0,154159,Office,Office,193154.0,,,,,,100.0,58.0,58.79999924,28.0,28.70000076,11195917.0,11348758.0,0.0,471503.0,1608768.0,3430.500488,343050.0,False,,Non-Compliant,Low outlier,29.43,0.19,False,True,Statut Error/Missing,ComplianceStatus invalide,❌ Suppression,Données explicitement invalidées,False,False,1.252953119830824,82.57
618,2016,NonResidential,Small- and Mid-Sized Office,Prefontaine,110 Prefontaine Pl S,Seattle,WA,98104.0,5247801045,7,DOWNTOWN,47.60159,-122.32915,1909,1.0,6.0,73470,0,73470,"Non-Refrigerated Warehouse, Office, Retail Store",Office,47145.0,Non-Refrigerated Warehouse,9477.0,Retail Store,9477.0,,83.0,48.59999847,51.59999847,152.6000061,161.8999939,3212269.0,3408133.75,0.0,941462.125,3212269.0,0.0,0.0,True,,Error - Correct Default Data,,22.39,0.3,False,True,Statut Error/Missing,ComplianceStatus invalide,❌ Suppression,Données explicitement invalidées,False,False,0.6416904859126173,0.0
624,2016,NonResidential,Other,South Occidental Warehouse,1900 Occidental Ave S,Seattle,WA,98134.0,7666206115,2,GREATER DUWAMISH,47.58444,-122.33282,1941,2.0,2.0,125519,0,125519,Manufacturing/Industrial Plant,Manufacturing/Industrial Plant,142901.0,,,,,,,15.69999981,15.69999981,49.29999924,49.29999924,2244317.0,2244317.0,0.0,657771.625,2244317.0,0.0,0.0,False,,Compliant,,15.65,0.12,True,False,Ratio Usage/Total intermédiaire (multi-usages),1.05 < Ratio ≤ 1.30 + NumberofBuildings > 1,✅ Conservation sélective,Dépassement structurel accepté pour bâtiments complexes,False,False,1.1384810267768226,0.0
654,2016,NonResidential,Retail Store,AIRPORT WAY SOUTH,4101 - 4111 AIRPORT WAY S,Seattle,WA,98108.0,7886100495,2,GREATER DUWAMISH,47.56664,-122.32346,1973,1.0,1.0,56572,0,56572,Retail Store,Retail Store,56576.0,,,,,,66.0,42.59999847,44.90000153,93.30000305,95.69999695,2409429.0,2540840.5,0.0,385429.3125,1315085.0,10943.44043,1094344.0,False,,Compliant,,67.29,1.19,False,False,Ratio Usage/Total toléré (≤ 1.05),1.00 < Ratio ≤ 1.05,✅ Conservation,Incertitude de mesure acceptable (< 5%),False,False,1.0000707063565015,0.0
656,2016,NonResidential,Medical Office,Arnold Pavilion,1221 Madison Street,Seattle,WA,98104.0,8725990000,3,EAST,47.60979,-122.32298,2004,1.0,,225982,0,225982,Medical Office,Medical Office,200184.0,,,,,,53.0,102.6999969,103.6999969,246.8999939,245.3000031,20560622.0,20764814.0,7815663.0,3735333.25,12744957.0,0.0,0.0,False,,Compliant,,692.12,3.06,False,False,Nombre d'étages incohérent,NumberofFloors=0 & BuildingType!=Campus,⚠️ Feature Engineering : NaN + Flag,"Structure massive nécessitant plusieurs niveaux (ex: Grand Hyatt, Pacific Place)",True,False,0.8858404651697923,0.0
657,2016,NonResidential,Mixed Use Property,2200 Westlake - SEDO,2200 Westlake Ave.,Seattle,WA,98121.0,8729740000,7,DOWNTOWN,47.61783,-122.33729,2006,0.0,,516407,0,516407,"Financial Office, Hotel, Multifamily Housing, Other, Parking, Restaurant, Supermarket/Grocery Store",Parking,385196.0,Multifamily Housing,340236.0,Hotel,67627.0,,31.0,76.30000305,78.90000153,199.1999969,202.0,39403320.0,40754364.0,0.0,8626261.0,29432803.0,99705.11719,9970512.0,False,,Compliant,,734.72,1.42,False,False,Nombre d'étages incohérent,NumberofFloors=0 & BuildingType!=Campus,⚠️ Feature Engineering : NaN + Flag,"Structure massive nécessitant plusieurs niveaux (ex: Grand Hyatt, Pacific Place)",True,False,0.7459155278685223,0.0
671,2016,NonResidential,Medical Office,Jefferson Tower,1600 E Jefferson St,Seattle,WA,98122.0,7942600570,3,CENTRAL,47.60649,-122.31121,1987,1.0,7.0,94500,0,94500,Medical Office,Medical Office,113739.0,,,,,,68.0,50.90000153,50.5,159.8999939,158.5,5792926.0,5739540.0,0.0,1697809.25,5792925.0,0.0,0.0,False,,Compliant,,40.38,0.43,False,True,Ratio Usage/Total critique (monostructurel),1.05 < Ratio ≤ 1.30 + monostructurel,❌ Suppression,Incohérence structurelle (risque sous-estimation 20%+ sur EUI),False,False,1.2035873015873015,0.0
673,2016,NonResidential,Retail Store,#8944 West Seattle,7345 Delridge Way SW,Seattle,WA,98106.0,7985400295,1,DELRIDGE,47.53655,-122.36377,2005,0.0,1.0,94713,0,94713,Retail Store,Retail Store,109758.0,,,,,,79.0,49.40000153,53.0,131.5,135.3000031,5417598.0,5820712.5,0.0,1225938.125,4182901.0,12346.9668,1234697.0,False,,Compliant,,94.74,1.0,False,False,Ratio Usage/Total intermédiaire (multi-usages),1.05 < Ratio ≤ 1.30 + NumberofBuildings > 1,✅ Conservation sélective,Dépassement structurel accepté pour bâtiments complexes,False,False,1.1588483101580564,0.0
683,2016,NonResidential,Other,Rainier Square Plaza,3820 Rainier Ave S,Seattle,WA,98118.0,9834201515,2,SOUTHEAST,47.56961,-122.28881,1994,3.0,1.0,102133,0,102133,"Parking, Strip Mall",Strip Mall,107427.0,Parking,0.0,,,,,192.8999939,199.3000031,443.0,447.6000061,20725996.0,21406232.0,0.0,3621616.75,12356956.0,83690.375,8369038.0,False,,Compliant,,530.62,5.2,True,False,Ratio Usage/Total intermédiaire (multi-usages),1.05 < Ratio ≤ 1.30 + NumberofBuildings > 1,✅ Conservation sélective,Dépassement structurel accepté pour bâtiments complexes,False,False,1.0518343728275876,0.0
689,2016,NonResidential,Other,Marketplace at Queen Anne,600 1st Ave N,Seattle,WA,98109.0,5161000000,7,MAGNOLIA / QUEEN ANNE,47.62476,-122.35521,1994,3.0,2.0,81336,0,81336,Lifestyle Center,Lifestyle Center,81385.0,,,,,,,160.8000031,164.1999969,405.2999878,406.2000122,13085297.0,13360349.0,0.0,2698352.0,9206777.0,38785.1875,3878519.0,False,,Compliant,,270.17,3.32,True,False,Ratio Usage/Total toléré (≤ 1.05),1.00 < Ratio ≤ 1.05,✅ Conservation,Incertitude de mesure acceptable (< 5%),False,False,1.0006024392642865,0.0
700,2016,NonResidential,Supermarket / Grocery Store,IUC- Whole Foods Interbay,2001 15th Avenue West,Seattle,WA,98119.0,7666201460,7,MAGNOLIA / QUEEN ANNE,47.63718,-122.37734,2008,1.0,1.0,57176,0,57176,"Personal Services (Health/Beauty, Dry Cleaning, etc), Retail Store, Supermarket/Grocery Store",Supermarket/Grocery Store,39500.0,Retail Store,15000.0,"Personal Services (Health/Beauty, Dry Cleaning, etc)",5500.0,,31.0,208.8000031,214.1000061,0.0,0.0,12525174.0,12843856.0,0.0,0.0,0.0,0.0,0.0,False,,Compliant,,0.0,0.0,False,True,Incohérence énergétique,Écart sources/total > 10%,❌ Suppression,CO₂ mathématiquement corrompu (déconnexion sources/total),False,False,0.690849307401707,100.0
704,2016,NonResidential,Large Office,401 Elliott Ave West,401 Elliot Ave West,Seattle,WA,98119.0,7666202110,7,MAGNOLIA / QUEEN ANNE,47.62235,-122.36378,2000,1.0,4.0,129551,42500,87051,"Data Center, Office, Parking",Office,82273.0,Parking,42500.0,Data Center,4778.0,,1.0,311.7000122,311.7000122,978.9000244,978.9000244,27137190.0,27137190.0,0.0,7953454.5,27137187.0,0.0,0.0,False,,Non-Compliant,High outlier,189.18,1.46,False,True,Statut Error/Missing,ComplianceStatus invalide,❌ Suppression,Données explicitement invalidées,False,False,0.6350626394238562,0.0
722,2016,NonResidential,Warehouse,(ID722)INDUSTRIAL TRANSFER WAREHOUSE,2440 6TH AVE S,Seattle,WA,98121.0,7666203530,2,GREATER DUWAMISH,47.58042,-122.32552,1951,1.0,3.0,98220,0,98220,Non-Refrigerated Warehouse,Non-Refrigerated Warehouse,129420.0,,,,,,12.0,50.0,50.70000076,146.3999939,147.1000061,6468090.0,6562048.5,0.0,1703866.125,5813591.0,6544.97998,654498.0,False,,Compliant,,75.29,0.77,False,True,Ratio Usage/Total critique (> 1.30),LargestPropertyUseTypeGFA/PropertyGFATotal > 1.30,❌ Suppression,Erreur physique manifeste,False,False,1.3176542455711668,0.0
730,2016,NonResidential,Other,(ID#730)Campus 4:KC Metro Transit Ryerson Base,1200 4TH AVE S,Seattle,WA,98134.0,7666204685,2,GREATER DUWAMISH,47.5908,-122.32828,1986,3.0,2.0,63644,0,63644,"Other - Public Services, Parking",Other - Public Services,65700.0,Parking,0.0,,,,,104.4000015,113.4000015,244.6000061,254.0,6858533.5,7448018.0,0.0,1243467.5,4242711.0,26158.2207,2615822.0,False,,Compliant,,168.5,2.65,True,False,Ratio Usage/Total toléré (≤ 1.05),1.00 < Ratio ≤ 1.05,✅ Conservation,Incertitude de mesure acceptable (< 5%),False,False,1.0323046948651875,0.0
732,2016,NonResidential,Supermarket / Grocery Store,70100122-Greenwood,100 NW 85th Street,Seattle,WA,98117.0,9231900160,6,NORTHWEST,47.69197,-122.35877,1970,1.0,1.0,141890,35545,106345,"Parking, Supermarket/Grocery Store",Supermarket/Grocery Store,168735.0,Parking,0.0,Parking,0.0,,91.0,100.0,103.0,266.6000061,269.7999878,16865978.0,17384564.0,0.0,3825269.5,13051820.0,38141.5625,3814156.0,False,,Compliant,,293.56,2.07,False,True,Ratio Usage/Total critique (monostructurel),1.05 < Ratio ≤ 1.30 + monostructurel,❌ Suppression,Incohérence structurelle (risque sous-estimation 20%+ sur EUI),False,False,1.189195855944746,0.0
748,2016,NonResidential,Small- and Mid-Sized Office,Pier 70,2801 Alaskan Way,Seattle,WA,98121.0,7666202292,7,DOWNTOWN,47.61472,-122.35566,1902,1.0,3.0,76893,0,76893,"Office, Parking, Retail Store",Office,90345.0,Parking,33380.0,Retail Store,15845.0,,,113.3000031,115.6999969,280.5,285.8999939,12029600.0,12289373.0,0.0,2405996.5,8209260.0,38203.39063,3820339.0,False,,Compliant,,260.13,3.38,True,True,Ratio Usage/Total critique (monostructurel),1.05 < Ratio ≤ 1.30 + monostructurel,❌ Suppression,Incohérence structurelle (risque sous-estimation 20%+ sur EUI),False,False,1.1749444032616754,0.0
757,2016,NonResidential,Large Office,Market Place I & II-2003 Western Avenue,2003 Western Avenue,Seattle,WA,98121.0,1977200280,7,DOWNTOWN,47.61051,-122.34439,1979,1.0,7.0,131143,87160,43983,"Office, Retail Store",Office,120248.0,Retail Store,10853.0,,,,93.0,39.5,,128.0,0.0,5177270.5,,0.0,1427645.25,4871126.0,14160.40918,1416041.0,False,,Compliant,,109.16,0.83,False,True,Incohérence énergétique,Écart sources/total > 10%,❌ Suppression,CO₂ mathématiquement corrompu (déconnexion sources/total),False,False,0.9169227484501651,21.44
758,2016,NonResidential,Other,Pacific Place,600 Pine Street,Seattle,WA,98101.0,6600470000,7,DOWNTOWN,47.61289,-122.33531,1999,1.0,,947987,0,947987,"Office, Other - Entertainment/Public Assembly, Other - Mall, Restaurant",Other - Mall,561684.0,Other - Entertainment/Public Assembly,100000.0,Restaurant,80000.0,,,62.29999924,62.09999847,195.6000061,194.8999939,46510960.0,46343304.0,0.0,13631581.0,46510954.0,0.0,0.0,False,,Compliant,,324.25,0.34,True,False,Nombre d'étages incohérent,NumberofFloors=0 & BuildingType!=Campus,⚠️ Feature Engineering : NaN + Flag,"Structure massive nécessitant plusieurs niveaux (ex: Grand Hyatt, Pacific Place)",True,False,0.5925017959107034,0.0
760,2016,NonResidential,Large Office,Broadacres Building,1601 Second Avenue,Seattle,WA,98101.0,1977200040,7,DOWNTOWN,47.61036,-122.34037,1908,1.0,10.0,132998,0,132998,"Office, Retail Store",Office,138257.0,Retail Store,0.0,,,,97.0,27.29999924,29.20000076,64.30000305,66.59999847,3775187.5,4040138.75,1530680.625,657827.3125,2244507.0,0.0,0.0,False,,Compliant,,133.8,1.01,False,False,Ratio Usage/Total toléré (≤ 1.05),1.00 < Ratio ≤ 1.05,✅ Conservation,Incertitude de mesure acceptable (< 5%),False,False,1.039541947999218,0.0
773,2016,NonResidential,Small- and Mid-Sized Office,SEATTLE BUILDING,215 COLUMBIA ST,Seattle,WA,98104.0,0939000245,7,DOWNTOWN,47.6038,-122.33293,1924,,4.0,63150,0,63150,,,,,,,,,,,,,,,,,,,,,False,,Non-Compliant,,,,True,True,Statut Error/Missing,ComplianceStatus invalide,❌ Suppression,Données explicitement invalidées,False,False,,
782,2016,NonResidential,Other,DOT 17G_01 1051 BUILDING,1051 1ST AVE SO,Seattle,WA,98104.0,7666206955,2,GREATER DUWAMISH,47.59273,-122.33455,1939,1.0,2.0,58492,0,58492,Other,Other,58500.0,,,,,,,27.29999924,31.60000038,54.29999924,58.79999924,1594422.5,1849863.625,0.0,210377.0,717806.0,8766.160156,876616.0,False,,Compliant,,51.56,0.88,True,False,Ratio Usage/Total toléré (≤ 1.05),1.00 < Ratio ≤ 1.05,✅ Conservation,Incertitude de mesure acceptable (< 5%),False,False,1.0001367708404567,0.0
784,2016,NonResidential,Warehouse,SEWA,1919 Sixth Ave South,Seattle,WA,98134.0,7666204495,2,GREATER DUWAMISH,47.58454,-122.3269,1960,1.0,1.0,73296,0,73296,"Non-Refrigerated Warehouse, Parking",Non-Refrigerated Warehouse,77800.0,Parking,0.0,,,2014,83.0,30.29999924,34.79999924,61.79999924,66.69999695,2356376.75,2709055.0,0.0,327543.0,1117577.0,12388.00098,1238800.0,False,,Compliant,,73.58,1.0,False,True,Ratio Usage/Total critique (monostructurel),1.05 < Ratio ≤ 1.30 + monostructurel,❌ Suppression,Incohérence structurelle (risque sous-estimation 20%+ sur EUI),False,False,1.0614494651822746,0.0
791,2016,NonResidential,Other,United Parcel Service,4455 7th Avenue South,Seattle,WA,98108.0,7376600390,2,GREATER DUWAMISH,47.56301,-122.32564,1970,1.0,1.0,141686,0,141686,Other,Other,152511.0,,,,,,,43.79999924,44.79999924,137.3999939,140.8000031,6673138.0,6837936.0,0.0,1955784.625,6673137.0,0.0,0.0,False,,Compliant,,46.52,0.33,True,True,Ratio Usage/Total critique (monostructurel),1.05 < Ratio ≤ 1.30 + monostructurel,❌ Suppression,Incohérence structurelle (risque sous-estimation 20%+ sur EUI),False,False,1.0764013381703204,0.0
792,2016,NonResidential,Small- and Mid-Sized Office,McKinstry SEA - 5005 3rd Ave S Office,5005 3rd Avenue S.,Seattle,WA,98134.0,3573700320,2,GREATER DUWAMISH,47.55695,-122.33176,1950,1.0,1.0,93610,0,93610,"Data Center, Office",Office,101278.0,Data Center,502.0,,,2016,95.0,61.29999924,65.0,144.0,146.1999969,6235947.0,6612733.0,0.0,1136505.75,3877758.0,23581.89063,2358189.0,False,,Compliant,,152.28,1.63,False,True,Ratio Usage/Total critique (monostructurel),1.05 < Ratio ≤ 1.30 + monostructurel,❌ Suppression,Incohérence structurelle (risque sous-estimation 20%+ sur EUI),False,False,1.0819143253925863,0.0
796,2016,NonResidential,Large Office,6100 Building,6100 4th Ave S,Seattle,WA,98108.0,5367200610,2,GREATER DUWAMISH,47.54699,-122.32882,1975,1.0,5.0,238148,0,238148,"Office, Parking",Office,245240.0,Parking,5616.0,Parking,5616.0,,93.0,43.90000153,43.90000153,138.0,138.0,10775646.0,10775646.0,0.0,3158161.0,10775645.0,0.0,0.0,False,,Compliant,,75.12,0.32,False,False,Ratio Usage/Total toléré (≤ 1.05),1.00 < Ratio ≤ 1.05,✅ Conservation,Incertitude de mesure acceptable (< 5%),False,False,1.0297798007961436,0.0
799,2016,NonResidential,Distribution Center,Cloverdale Business Park Building D,309 South Cloverdale Street,Seattle,WA,98108.0,3224049012,1,GREATER DUWAMISH,47.52549,-122.33064,1979,1.0,1.0,54880,0,54880,Distribution Center,Distribution Center,55000.0,,,,,,32.0,50.20000076,54.79999924,99.90000153,104.6999969,2763597.0,3013861.5,0.0,363654.1875,1240788.0,15228.08984,1522809.0,False,,Compliant,,89.53,1.63,False,False,Ratio Usage/Total toléré (≤ 1.05),1.00 < Ratio ≤ 1.05,✅ Conservation,Incertitude de mesure acceptable (< 5%),False,False,1.0021865889212829,0.0
803,2016,NonResidential,Small- and Mid-Sized Office,200 SW Michigan,200 SW Michigan,Seattle,WA,98106.0,5367202506,1,Delridge,47.54103,-122.33766,1929,1.0,3.0,85126,0,85126,Office,Office,81526.0,,,,,,1.0,465.5,467.0,725.5999756,727.2000122,37951708.0,38074932.0,0.0,5454295.0,18610055.0,6851.318359,685132.0,False,,Compliant,,166.13,1.95,False,True,Incohérence énergétique,Écart sources/total > 10%,❌ Suppression,CO₂ mathématiquement corrompu (déconnexion sources/total),False,False,0.9577097479031084,49.16
804,2016,NonResidential,Other,Northgate North,302 NE Northgate Way,Seattle,WA,98125.0,2926049109,5,North,47.70911,-122.32529,2000,1.0,5.0,303255,19820,283435,"Other, Parking, Restaurant, Retail Store",Parking,321828.0,Retail Store,298043.0,Other,5636.0,,,36.5,36.5,111.3000031,111.3000031,11077140.0,11077140.0,0.0,3107313.0,10602152.0,4749.870117,474987.0,False,,Compliant,,99.14,0.33,True,True,Ratio Usage/Total critique (monostructurel),1.05 < Ratio ≤ 1.30 + monostructurel,❌ Suppression,Incohérence structurelle (risque sous-estimation 20%+ sur EUI),False,False,1.061245486471781,0.0
820,2016,SPS-District K-12,K-12 School,Bailey Gatzert Elementary,1301 E. Yesler Way,Seattle,WA,98122.0,0007600137,3,CENTRAL,47.6012,-122.31548,1988,1.0,1.0,52924,0,52924,K-12 School,K-12 School,52924.0,,,,,,,0.0,0.0,0.0,0.0,0.0,0.0,0.0,573642.5,1957268.0,0.0,0.0,False,,Missing Data,,13.64,0.26,True,True,Statut Error/Missing,ComplianceStatus invalide,❌ Suppression,Données explicitement invalidées,False,False,1.0,inf
829,2016,NonResidential,Other,Northwest Work Lofts,3131 Western Ave.,Seattle,WA,98121.0,1992200425,7,MAGNOLIA / QUEEN ANNE,47.61915,-122.35871,1928,3.0,4.0,62600,0,62600,Other,Other,215197.0,,,,,,,51.79999924,58.70000076,93.5,100.5999985,11147342.0,12637976.0,0.0,1181456.0,4031128.0,71162.13281,7116213.0,False,,Compliant,,406.04,6.49,True,True,Ratio Usage/Total critique (> 1.30),LargestPropertyUseTypeGFA/PropertyGFATotal > 1.30,❌ Suppression,Erreur physique manifeste,False,False,3.4376517571884984,0.0
848,2016,NonResidential,Retail Store,#4706 Bitterlake,11616 AURORA AVE N,Seattle,WA,98133.0,3026049093,5,NORTHWEST,47.71417,-122.34256,1995,1.0,1.0,101830,0,101830,Retail Store,Retail Store,130767.0,,,,,,60.0,81.90000153,87.69999695,180.8999939,187.0,10713006.0,11474490.0,0.0,1739556.0,5935365.0,47776.39844,4777640.0,False,,Compliant,,295.12,2.9,False,True,Ratio Usage/Total critique (monostructurel),1.05 < Ratio ≤ 1.30 + monostructurel,❌ Suppression,Incohérence structurelle (risque sous-estimation 20%+ sur EUI),False,False,1.2841696945890209,0.0
850,2016,SPS-District K-12,K-12 School,Leschi Elementary,135 32nd Ave.,Seattle,WA,98122.0,3416600240,3,CENTRAL,47.6021,-122.29181,1988,1.0,3.0,55353,0,55353,K-12 School,K-12 School,55353.0,,,,,2016,,0.0,0.0,0.0,0.0,0.0,0.0,0.0,420163.0938,1433596.0,0.0,0.0,False,,Missing Data,,9.99,0.18,True,True,Statut Error/Missing,ComplianceStatus invalide,❌ Suppression,Données explicitement invalidées,False,False,1.0,inf
866,2016,SPS-District K-12,K-12 School,Lafayette Elementary,2645 California Ave. S.W.,Seattle,WA,98116.0,9277200005,1,SOUTHWEST,47.5795,-122.38723,1950,1.0,1.0,61183,0,61183,K-12 School,K-12 School,62975.0,,,,,,92.0,38.5,44.29999924,64.30000305,71.59999847,2424724.25,2789344.0,0.0,211139.0,720406.0,17043.17773,1704318.0,True,,Error - Correct Default Data,,95.54,1.56,False,True,Statut Error/Missing,ComplianceStatus invalide,❌ Suppression,Données explicitement invalidées,False,False,1.0292891816354217,0.0
19462,2016,SPS-District K-12,K-12 School,Wedgwood Elementary,2720 N.E. 85th St.,Seattle,WA,98115.0,0439000615,5,NORTHEAST,47.69054,-122.29705,1955,1.0,1.0,46732,0,46732,K-12 School,K-12 School,50956.0,,,,,,87.0,45.79999924,51.79999924,79.0,87.30000305,2331952.75,2637723.5,0.0,220895.0938,753694.0,15782.58594,1578259.0,True,,Error - Correct Default Data,,89.08,1.91,False,True,Statut Error/Missing,ComplianceStatus invalide,❌ Suppression,Données explicitement invalidées,False,False,1.0903877428742617,0.0
19537,2016,SPS-District K-12,K-12 School,Alki Elementary,3010 59th Ave S.W.,Seattle,WA,98116.0,0148000064,1,SOUTHWEST,47.5773,-122.4074,1954,1.0,2.0,51489,0,51489,K-12 School,K-12 School,51489.0,,,,,,93.0,38.5,43.59999847,70.90000153,77.5,1984067.625,2244011.75,0.0,219894.9063,750281.0,12337.8623,1233786.0,True,,Error - Correct Default Data,,70.76,1.37,False,True,Statut Error/Missing,ComplianceStatus invalide,❌ Suppression,Données explicitement invalidées,False,False,1.0,0.0
19654,2016,NonResidential,Laboratory,1100 Olive Lab,1100 Olive Way,Seattle,WA,98101.0,0660002030,7,DOWNTOWN,47.61597,-122.33086,1946,1.0,2.0,44588,22000,22588,Laboratory,Laboratory,69000.0,,,,,,,105.0999985,105.0999985,330.0,330.0,7251589.0,7251589.0,0.0,2125318.75,7251588.0,0.0,0.0,False,,Compliant,,50.55,1.13,True,True,Ratio Usage/Total critique (> 1.30),LargestPropertyUseTypeGFA/PropertyGFATotal > 1.30,❌ Suppression,Erreur physique manifeste,False,False,1.547501569929129,0.0
19694,2016,SPS-District K-12,K-12 School,Mann Building (Nova High),2410 E. Cherry,Seattle,WA,98122.0,0519000290,3,CENTRAL,47.60842,-122.30093,1925,1.0,2.0,37327,0,37327,K-12 School,K-12 School,48887.0,,,,,,92.0,40.20000076,44.59999847,73.19999695,77.80000305,1967476.375,2179860.5,0.0,212356.4063,724560.0,12429.16309,1242916.0,True,,Error - Correct Default Data,,71.06,1.9,False,True,Statut Error/Missing,ComplianceStatus invalide,❌ Suppression,Données explicitement invalidées,False,False,1.3096953947544672,0.0
19697,2016,Nonresidential COS,Other,North Substation,814 NE 75th ST,Seattle,WA,98115.0,0525049003,4,NORTH,47.68339,-122.31947,1923,1.0,2.0,21462,0,21462,"Office, Other",Other,25778.0,Office,200.0,,,,,42.90000153,46.5,134.6999969,146.0,1114384.625,1207838.75,0.0,326607.4063,1114384.0,0.0,0.0,False,,Compliant,,7.77,0.36,True,True,Ratio Usage/Total critique (monostructurel),1.05 < Ratio ≤ 1.30 + monostructurel,❌ Suppression,Incohérence structurelle (risque sous-estimation 20%+ sur EUI),False,False,1.2010996179293636,0.0
19728,2016,SPS-District K-12,K-12 School,Daniel Bagley Elementary,7821 Stone Ave. N.,Seattle,WA,98103.0,0625049048,6,NORTHWEST,47.68636,-122.3423,1930,1.0,2.0,47602,0,47602,K-12 School,K-12 School,46066.0,,,,,,78.0,48.79999924,56.20000076,86.59999847,96.30000305,2249592.5,2589620.0,0.0,227970.7969,777836.0,14717.55859,1471756.0,True,,Error - Correct Default Data,,83.59,1.76,False,True,Statut Error/Missing,ComplianceStatus invalide,❌ Suppression,Données explicitement invalidées,False,False,0.9677324482164615,0.0
19776,2016,NonResidential,Other,Welcome Home Society - PriceCo,13537 Aurora Ave N,Seattle,WA,98133.0,0164000020,5,NORTHWEST,47.72777,-122.34503,2002,1.0,1.0,29924,0,29924,Other - Education,Other - Education,29924.0,,,,,,,0.0,0.0,0.0,0.0,0.0,0.0,0.0,0.0,0.0,0.0,0.0,False,,Missing Data,,0.0,0.0,True,True,Statut Error/Missing,ComplianceStatus invalide,❌ Suppression,Données explicitement invalidées,False,False,1.0,
19855,2016,NonResidential,Small- and Mid-Sized Office,Lowman & Hanford Building,616 First Avenue,Seattle,WA,98104.0,0939000125,7,DOWNTOWN,47.60247,-122.33372,1900,1.0,7.0,23622,0,23622,"Office, Restaurant",Office,26195.0,Restaurant,2285.0,,,,100.0,19.39999962,20.20000076,51.20000076,52.0,552007.5,575362.5,0.0,123050.5,419848.0,1321.589966,132159.0,False,,Compliant,,9.95,0.42,False,True,Ratio Usage/Total critique (monostructurel),1.05 < Ratio ≤ 1.30 + monostructurel,❌ Suppression,Incohérence structurelle (risque sous-estimation 20%+ sur EUI),False,False,1.1089238845144358,0.0
19860,2016,NonResidential,Small- and Mid-Sized Office,Marion 814,814 2nd Avenue,Seattle,WA,98104.0,0939000300,7,DOWNTOWN,47.60427,-122.33385,1906,1.0,5.0,26840,0,26840,Office,Office,29040.0,,,,,,24.0,68.5,68.80000305,215.1000061,216.0,1989287.0,1997288.75,0.0,583026.625,1989287.0,0.0,0.0,False,,Compliant,,13.87,0.52,False,True,Ratio Usage/Total critique (monostructurel),1.05 < Ratio ≤ 1.30 + monostructurel,❌ Suppression,Incohérence structurelle (risque sous-estimation 20%+ sur EUI),False,False,1.0819672131147542,0.0
19917,2016,Nonresidential COS,Other,Fire Station 02,2334 4th Ave,Seattle,WA,98121.0,0696000160,7,DOWNTOWN,47.61607,-122.34449,1922,1.0,2.0,37740,0,37740,Fire Station,Fire Station,38939.0,,,,,,,79.5,86.19999695,174.6999969,181.6999969,3095882.0,3356598.0,0.0,498054.5,1699362.0,13965.19922,1396520.0,False,,Compliant,,86.02,2.28,True,False,Ratio Usage/Total toléré (≤ 1.05),1.00 < Ratio ≤ 1.05,✅ Conservation,Incertitude de mesure acceptable (< 5%),False,False,1.031770005299417,0.0
19927,2016,NonResidential,Hotel,The Loyal Inn,2301 Eighth Avenue,Seattle,WA,98121.0,0697000435,7,DOWNTOWN,47.61822,-122.34132,1967,1.0,4.0,44416,0,44416,Hotel,Hotel,52668.0,,,,,,61.0,50.70000076,52.0,112.5999985,114.8000031,2669564.25,2736926.5,0.0,438318.5938,1495543.0,11740.20996,1174021.0,False,,Compliant,,72.78,1.64,False,True,Ratio Usage/Total critique (monostructurel),1.05 < Ratio ≤ 1.30 + monostructurel,❌ Suppression,Incohérence structurelle (risque sous-estimation 20%+ sur EUI),False,False,1.1857889048991355,0.0
19967,2016,SPS-District K-12,K-12 School,Queen Anne Gym,1431 2nd Ave N,Seattle,WA,98109.0,0811000005,7,MAGNOLIA / QUEEN ANNE,47.63203,-122.35337,2001,1.0,1.0,35805,0,35805,K-12 School,K-12 School,35805.0,,,,,,100.0,12.10000038,12.10000038,27.0,27.0,431471.6875,431471.6875,0.0,72282.39844,246628.0,1848.439575,184844.0,True,,Error - Correct Default Data,Low outlier,11.54,0.32,False,True,Statut Error/Missing,ComplianceStatus invalide,❌ Suppression,Données explicitement invalidées,False,False,1.0,0.0
20033,2016,NonResidential,Small- and Mid-Sized Office,Lisa Li Building,4907 25th Ave NE,Seattle,WA,98105.0,0925049118,4,NORTHEAST,47.66461,-122.30142,1989,1.0,2.0,20384,0,20384,Office,Office,25021.0,,,,,,16.0,71.59999847,71.19999695,222.1999969,220.5,1791071.375,1781798.375,0.0,515861.0,1760118.0,309.5351563,30954.0,False,,Compliant,,13.91,0.68,False,True,Ratio Usage/Total critique (monostructurel),1.05 < Ratio ≤ 1.30 + monostructurel,❌ Suppression,Incohérence structurelle (risque sous-estimation 20%+ sur EUI),False,False,1.227482339089482,0.0
20066,2016,NonResidential,Hotel,University Travelodge,4725 25th AVE NE,Seattle,WA,98105.0,0925049404,4,NORTHEAST,47.66355,-122.30123,1961,2.0,2.0,24100,0,24100,Hotel,Hotel,30910.0,,,,,,91.0,51.40000153,53.09999847,109.1999969,114.5999985,1587454.75,1640279.375,0.0,239738.2031,817987.0,7694.679688,769468.0,False,,Compliant,,46.57,1.93,False,False,Ratio Usage/Total intermédiaire (multi-usages),1.05 < Ratio ≤ 1.30 + NumberofBuildings > 1,✅ Conservation sélective,Dépassement structurel accepté pour bâtiments complexes,False,False,1.282572614107884,0.0
20182,2016,NonResidential,Worship Facility,St. Bridget Church,4900 NE 50th St.,Seattle,WA,98105.0,1025049150,4,NORTHEAST,47.66516,-122.2738,1972,1.0,1.0,26366,0,26366,"Parking, Worship Facility",Worship Facility,26386.0,Parking,0.0,,,,88.0,33.70000076,37.79999924,61.0,65.30000305,888031.875,996850.0,0.0,94900.89844,323802.0,5642.299805,564230.0,False,,Compliant,,32.22,1.22,False,False,Ratio Usage/Total toléré (≤ 1.05),1.00 < Ratio ≤ 1.05,✅ Conservation,Incertitude de mesure acceptable (< 5%),False,False,1.0007585526814837,0.0
20217,2016,SPS-District K-12,K-12 School,Sand Point Elementary,6208 60TH AVE NE,Seattle,WA,98115.0,1125049134,4,NORTHEAST,47.67365,-122.26293,1958,1.0,1.0,38624,0,38624,K-12 School,K-12 School,41408.0,,,,,,83.0,34.40000153,37.79999924,76.40000153,81.19999695,1424157.25,1564929.125,0.0,234116.2031,798804.0,6253.524414,625352.0,True,,Error - Correct Default Data,,38.78,1.0,False,True,Statut Error/Missing,ComplianceStatus invalide,❌ Suppression,Données explicitement invalidées,False,False,1.072079536039768,0.0
20323,2016,NonResidential,Residence Hall,Chancery Place Apartments,910 Marion Street,Seattle,WA,98104.0,1510600000,3,EAST,47.60817,-122.32654,1982,0.0,15.0,115775,31535,84240,"Office, Residence Hall/Dormitory",Residence Hall/Dormitory,150000.0,Office,25000.0,,,,94.0,16.5,17.39999962,51.70000076,54.59999847,2882489.75,3042217.25,0.0,844809.3125,2882489.0,0.0,0.0,False,,Compliant,,20.09,0.17,False,False,Ratio Usage/Total intermédiaire (multi-usages),1.05 < Ratio ≤ 1.30 + NumberofBuildings > 1,✅ Conservation sélective,Dépassement structurel accepté pour bâtiments complexes,False,False,1.295616497516735,0.0
20325,2016,Campus,K-12 School,University Prep Academy,8000 25th Ave NE,Seattle,WA,98115.0,1513800010,4,NORTHEAST,47.687,-122.30013,1989,5.0,3.0,21500,0,21500,K-12 School,K-12 School,96154.0,,,,,,44.0,69.59999847,73.90000153,144.8999939,149.5,6689184.0,7109712.5,0.0,969429.1875,3307692.0,33814.91016,3381491.0,False,,Compliant,,202.65,9.43,False,True,Ratio Usage/Total critique (> 1.30),LargestPropertyUseTypeGFA/PropertyGFATotal > 1.30,❌ Suppression,Erreur physique manifeste,False,True,4.472279069767442,0.0
20376,2016,SPS-District K-12,K-12 School,Kimball Elementary,3200 23rd Ave. S.,Seattle,WA,98144.0,1624049006,2,GREATER DUWAMISH,47.57405,-122.30301,1971,1.0,1.0,55206,0,55206,K-12 School,K-12 School,55206.0,,,,,,75.0,42.5,47.90000153,96.09999847,104.0999985,2345752.5,2644410.5,0.0,398548.1875,1359846.0,9859.058594,985906.0,True,,Error - Correct Default Data,,61.84,1.12,False,True,Statut Error/Missing,ComplianceStatus invalide,❌ Suppression,Données explicitement invalidées,False,False,1.0,0.0
20415,2016,NonResidential,K-12 School,Holy Rosary School,4142 42nd Ave. SW,Seattle,WA,98116.0,0952002500,1,SOUTHWEST,47.56542,-122.38502,1922,1.0,2.0,33462,0,33462,K-12 School,K-12 School,57896.0,,,,,,76.0,68.90000153,81.5,93.09999847,107.0999985,3987215.5,4719841.5,0.0,168505.2031,574940.0,34122.75781,3412276.0,False,,Compliant,,185.23,5.54,False,True,Ratio Usage/Total critique (> 1.30),LargestPropertyUseTypeGFA/PropertyGFATotal > 1.30,❌ Suppression,Erreur physique manifeste,False,False,1.730201422509115,0.0
20439,2016,NonResidential,Other,West Seattle Family YMCA,4515 36th Ave SW,Seattle,WA,98126.0,0952007845,1,SOUTHWEST,47.56245,-122.37805,1984,1.0,1.0,33334,0,33334,"Fitness Center/Health Club/Gym, Swimming Pool",Fitness Center/Health Club/Gym,50000.0,Swimming Pool,0.0,,,,,122.4000015,128.1000061,232.3000031,238.3999939,6118300.5,6405464.5,0.0,728225.8125,2484706.0,36335.9375,3633594.0,False,,Compliant,,210.3,6.31,True,True,Ratio Usage/Total critique (> 1.30),LargestPropertyUseTypeGFA/PropertyGFATotal > 1.30,❌ Suppression,Erreur physique manifeste,False,False,1.499970000599988,0.0
20440,2016,NonResidential,Small- and Mid-Sized Office,SK Food Group,4600 37th Ave S.W.,Seattle,WA,98126.0,0952007920,1,SOUTHWEST,47.56175,-122.37835,1981,1.0,3.0,43387,0,43387,Office,Office,45000.0,,,,,,60.0,59.70000076,59.90000153,172.0,172.0,2686765.0,2695090.5,0.0,689505.8125,2352594.0,3341.709961,334171.0,False,,Compliant,,34.15,0.79,False,False,Ratio Usage/Total toléré (≤ 1.05),1.00 < Ratio ≤ 1.05,✅ Conservation,Incertitude de mesure acceptable (< 5%),False,False,1.0371770345956162,0.0
20500,2016,NonResidential,Warehouse,Central Park,5614 7th Ave S,Seattle,WA,98108.0,1486300005,2,GREATER DUWAMISH,47.552,-122.32262,1985,1.0,1.0,37500,0,37500,Non-Refrigerated Warehouse,Non-Refrigerated Warehouse,61419.0,,,,,,36.0,29.5,31.10000038,92.19999695,97.19999695,1811506.375,1908057.875,0.0,527520.0,1799898.0,116.0800018,11608.0,False,,Compliant,,13.16,0.35,False,True,Ratio Usage/Total critique (> 1.30),LargestPropertyUseTypeGFA/PropertyGFATotal > 1.30,❌ Suppression,Erreur physique manifeste,False,False,1.63784,0.0
20515,2016,SPS-District K-12,K-12 School,Beacon Hill International Elementary,2025 14th Ave. S.,Seattle,WA,98144.0,1498300850,2,GREATER DUWAMISH,47.58547,-122.3151,1971,1.0,1.0,51704,0,51704,K-12 School,K-12 School,51704.0,,,,,,62.0,34.79999924,38.0,83.69999695,87.09999847,1799402.75,1965120.125,0.0,342275.9063,1167845.0,6315.571777,631557.0,True,,Error - Correct Default Data,,41.68,0.81,False,True,Statut Error/Missing,ComplianceStatus invalide,❌ Suppression,Données explicitement invalidées,False,False,1.0,0.0
20532,2016,Nonresidential COS,Other,Amy Yee Tennis Center,2000 M L King Jr Way S,Seattle,WA,98134.0,1498303565,3,SOUTHEAST,47.58476,-122.29765,1977,0.0,1.0,36070,0,36070,Other - Recreation,Other - Recreation,66597.0,,,,,,,21.60000038,23.20000076,68.0,72.69999695,1441665.375,1542945.125,0.0,422527.9063,1441665.0,0.0,0.0,False,,Compliant,,10.05,0.28,True,True,Ratio Usage/Total critique (> 1.30),LargestPropertyUseTypeGFA/PropertyGFATotal > 1.30,❌ Suppression,Erreur physique manifeste,False,False,1.846326587191572,0.0
20556,2016,NonResidential,Warehouse,3300,3300 6th Avenue South,Seattle,WA,98134.0,1327300012,2,GREATER DUWAMISH,47.5741,-122.32541,1955,1.0,2.0,32400,0,32400,Non-Refrigerated Warehouse,Non-Refrigerated Warehouse,32700.0,,,,,,91.0,7.599999905,7.599999905,23.89999962,23.89999962,248616.0,248616.0,0.0,72865.20313,248616.0,0.0,0.0,False,,Compliant,,1.73,0.05,False,False,Ratio Usage/Total toléré (≤ 1.05),1.00 < Ratio ≤ 1.05,✅ Conservation,Incertitude de mesure acceptable (< 5%),False,False,1.0092592592592593,0.0
20565,2016,NonResidential,Supermarket / Grocery Store,Safeway 0368 - Queen Anne,2100 Queen Anne Ave N,Seattle,WA,98109.0,1794500895,7,MAGNOLIA / QUEEN ANNE,47.63776,-122.35606,1962,1.0,1.0,25159,0,25159,"Parking, Supermarket/Grocery Store",Supermarket/Grocery Store,25883.0,Parking,0.0,,,,38.0,344.1000061,350.5,755.2000122,762.0,8905287.0,9072714.0,0.0,1429919.75,4878886.0,40264.00391,4026400.0,False,,Compliant,,247.85,9.85,False,False,Ratio Usage/Total toléré (≤ 1.05),1.00 < Ratio ≤ 1.05,✅ Conservation,Incertitude de mesure acceptable (< 5%),False,False,1.0287769784172662,0.0
20604,2016,NonResidential,Distribution Center,MCNIVEN,20-24 S. Idaho Street,Seattle,WA,98134.0,1824049012,2,GREATER DUWAMISH,47.56489,-122.3409,1955,1.0,1.0,26680,0,26680,Distribution Center,Distribution Center,33987.0,,,,,,92.0,7.199999809,7.199999809,22.5,22.5,243518.2031,243518.2031,0.0,71371.10156,243518.0,0.0,0.0,False,,Compliant,,1.7,0.06,False,True,Ratio Usage/Total critique (monostructurel),1.05 < Ratio ≤ 1.30 + monostructurel,❌ Suppression,Incohérence structurelle (risque sous-estimation 20%+ sur EUI),False,False,1.2738755622188906,0.0
20617,2016,NonResidential,Retail Store,Seattle Habitat Store,21 S Nevada St,Seattle,WA,98134.0,1824049074,2,GREATER DUWAMISH,47.56535,-122.34054,1953,1.0,1.0,39900,0,39900,"Non-Refrigerated Warehouse, Retail Store",Retail Store,25000.0,Non-Refrigerated Warehouse,15000.0,,,,100.0,3.599999905,3.599999905,6.400000095,6.400000095,145468.7969,145468.7969,0.0,14362.5,49005.0,964.6400146,96464.0,True,,Error - Correct Default Data,Low outlier,5.46,0.14,False,True,Statut Error/Missing,ComplianceStatus invalide,❌ Suppression,Données explicitement invalidées,False,False,0.6265664160401002,0.0
20645,2016,SPS-District K-12,K-12 School,Stevens Elementary,1242 18th Ave. E.,Seattle,WA,98112.0,1337801270,3,EAST,47.6315,-122.30761,2001,1.0,3.0,62078,0,62078,K-12 School,K-12 School,62078.0,,,,,,97.0,31.5,35.20000076,71.80000305,77.5,1955013.5,2187712.5,0.0,337560.1875,1151755.0,8032.580078,803258.0,True,,Error - Correct Default Data,,50.69,0.82,False,True,Statut Error/Missing,ComplianceStatus invalide,❌ Suppression,Données explicitement invalidées,False,False,1.0,0.0
20686,2016,NonResidential,Self-Storage Facility,Lake City Mini Storage,3136 NE 130th St,Seattle,WA,98125.0,1453600301,5,NORTH,47.72356,-122.29378,1988,2.0,2.0,50368,0,50368,Self-Storage Facility,Self-Storage Facility,50369.0,,,,,,,15.0,17.79999924,26.0,29.20000076,753275.1875,897822.875,0.0,72594.39844,247692.0,5055.82959,505583.0,False,,Compliant,,28.58,0.57,True,False,Ratio Usage/Total toléré (≤ 1.05),1.00 < Ratio ≤ 1.05,✅ Conservation,Incertitude de mesure acceptable (< 5%),False,False,1.0000198538754765,0.0
20735,2016,NonResidential,K-12 School,St. Anne School,101 W. Lee St.,Seattle,WA,98112.0,1731800825,7,MAGNOLIA / QUEEN ANNE,47.63111,-122.35814,1922,1.0,3.0,32691,0,32691,K-12 School,K-12 School,33550.0,,,,,,99.0,29.0,32.70000076,59.90000153,65.19999695,971990.3125,1095913.75,0.0,138476.2969,472481.0,4995.090332,499509.0,False,,Compliant,,29.82,0.91,False,False,Ratio Usage/Total toléré (≤ 1.05),1.00 < Ratio ≤ 1.05,✅ Conservation,Incertitude de mesure acceptable (< 5%),False,False,1.0262763451714538,0.0
20743,2016,NonResidential,Worship Facility,St. Anne Church & Rectory,1411 1st Ave.,Seattle,WA,98119.0,1731801135,7,MAGNOLIA / QUEEN ANNE,47.63159,-122.35839,1963,1.0,2.0,24227,0,24227,Worship Facility,Worship Facility,26210.0,,,,,,55.0,41.5,47.29999924,61.0,67.09999847,1086678.125,1238854.625,0.0,64300.39844,219393.0,8672.850586,867285.0,False,,Compliant,,47.59,1.96,False,True,Ratio Usage/Total critique (monostructurel),1.05 < Ratio ≤ 1.30 + monostructurel,❌ Suppression,Incohérence structurelle (risque sous-estimation 20%+ sur EUI),False,False,1.0818508275890535,0.0
20811,2016,SPS-District K-12,K-12 School,TOPS K-8,2500 Franklin Ave. E.,Seattle,WA,98102.0,1959700005,4,LAKE UNION,47.64252,-122.32418,1999,1.0,3.0,95501,0,95501,K-12 School,K-12 School,95501.0,,,,,,88.0,31.5,34.0,79.09999847,81.59999847,3009967.0,3244148.0,0.0,615660.125,2100632.0,9093.345703,909335.0,True,,Error - Correct Default Data,,62.94,0.66,False,True,Statut Error/Missing,ComplianceStatus invalide,❌ Suppression,Données explicitement invalidées,False,False,1.0,0.0
20885,2016,NonResidential,Senior Care Community,Ballard Center,820 NW 95th Street,Seattle,WA,98117.0,1865400030,6,BALLARD,47.69875,-122.36725,1966,1.0,2.0,34636,31000,3636,"Parking, Senior Care Community",Senior Care Community,36000.0,Parking,0.0,,,,3.0,337.5,355.7000122,561.0999756,587.9000244,12148720.0,12805711.0,0.0,1043779.313,3561375.0,85873.4375,8587344.0,False,,Compliant,,480.9,13.88,False,False,Ratio Usage/Total toléré (≤ 1.05),1.00 < Ratio ≤ 1.05,✅ Conservation,Incertitude de mesure acceptable (< 5%),False,False,1.0393809908765446,0.0
20916,2016,NonResidential,Small- and Mid-Sized Office,St. John Egan Hall,123 N. 79th St.,Seattle,WA,98103.0,1646500985,6,NORTHWEST,47.68602,-122.35674,1960,1.0,1.0,20678,0,20678,Office,Office,23100.0,,,,,,98.0,33.29999924,37.90000153,51.29999924,56.59999847,770333.0,875049.6875,0.0,52613.39844,179517.0,5908.160156,590816.0,False,,Compliant,,32.63,1.58,False,True,Ratio Usage/Total critique (monostructurel),1.05 < Ratio ≤ 1.30 + monostructurel,❌ Suppression,Incohérence structurelle (risque sous-estimation 20%+ sur EUI),False,False,1.1171293161814488,0.0
20917,2016,NonResidential,K-12 School,St. John School,120 N. 79th St.,Seattle,WA,98103.0,1646501150,6,NORTHWEST,47.68642,-122.35707,1922,1.0,3.0,28820,0,28820,K-12 School,K-12 School,33780.0,,,,,,43.0,76.80000305,87.59999847,122.8000031,135.6999969,2595783.5,2959193.75,0.0,199518.5938,680757.0,19150.25977,1915026.0,False,,Compliant,,106.45,3.69,False,True,Ratio Usage/Total critique (monostructurel),1.05 < Ratio ≤ 1.30 + monostructurel,❌ Suppression,Incohérence structurelle (risque sous-estimation 20%+ sur EUI),False,False,1.1721027064538514,0.0
20928,2016,NonResidential,Worship Facility,St. Paul Church & School,10001 57th Ave. S,Seattle,WA,98178.0,1686400005,2,SOUTHEAST,47.51042,-122.26277,1954,1.0,2.0,27876,0,27876,Worship Facility,Worship Facility,44816.0,,,,,,69.0,40.79999924,46.79999924,71.40000153,78.5,1829981.375,2095655.25,0.0,179244.2031,611581.0,12184.0,1218400.0,False,,Compliant,,68.97,2.47,False,True,Ratio Usage/Total critique (> 1.30),LargestPropertyUseTypeGFA/PropertyGFATotal > 1.30,❌ Suppression,Erreur physique manifeste,False,False,1.607691203902999,0.0
20967,2016,SPS-District K-12,K-12 School,Columbia Building,3528 Ferdinand St.,Seattle,WA,98118.0,1703400755,2,SOUTHEAST,47.55818,-122.28712,1925,1.0,1.0,33105,0,33105,K-12 School,K-12 School,33105.0,,,,,,79.0,52.09999847,58.09999847,84.59999847,91.5,1725336.25,1924436.0,0.0,138864.7969,473807.0,12515.2959,1251530.0,True,,Error - Correct Default Data,,69.77,2.11,False,True,Statut Error/Missing,ComplianceStatus invalide,❌ Suppression,Données explicitement invalidées,False,False,1.0,0.0
20989,2016,NonResidential,Warehouse,Building N,661 South Orcas Street,Seattle,WA,98108.0,1722801081,2,GREATER DUWAMISH,47.55127,-122.32576,1969,1.0,1.0,20500,0,20500,Non-Refrigerated Warehouse,Non-Refrigerated Warehouse,21386.0,,,,,,65.0,10.39999962,10.39999962,32.70000076,32.70000076,222600.0938,222600.0938,0.0,65240.30078,222600.0,0.0,0.0,False,,Compliant,,1.55,0.08,False,False,Ratio Usage/Total toléré (≤ 1.05),1.00 < Ratio ≤ 1.05,✅ Conservation,Incertitude de mesure acceptable (< 5%),False,False,1.043219512195122,0.0
21102,2016,NonResidential,Retail Store,"SWIFTY PRINTING & DIGITAL IMAGING, INC.",2001 3RD AVENUE,Seattle,WA,98121.0,1977201135,7,DOWNTOWN,47.61236,-122.34144,1919,1.0,2.0,25920,0,25920,Retail Store,Retail Store,38880.0,,,,,,93.0,26.0,26.89999962,74.0,74.90000153,1011667.5,1046976.813,0.0,254234.5938,867448.0,1442.189819,144219.0,False,,Compliant,,13.71,0.53,False,True,Ratio Usage/Total critique (> 1.30),LargestPropertyUseTypeGFA/PropertyGFATotal > 1.30,❌ Suppression,Erreur physique manifeste,False,False,1.5,0.0
21145,2016,NonResidential,Small- and Mid-Sized Office,Fremont West Building,123 NW 36th St,Seattle,WA,98107.0,1972204350,6,LAKE UNION,47.65297,-122.35839,1986,1.0,2.0,35600,0,35600,"Office, Parking",Office,36839.0,Parking,0.0,,,,47.0,59.0,59.59999847,181.3000031,181.8999939,2173143.75,2195095.5,0.0,616677.375,2104103.0,690.4000244,69040.0,False,,Compliant,,18.34,0.52,False,False,Ratio Usage/Total toléré (≤ 1.05),1.00 < Ratio ≤ 1.05,✅ Conservation,Incertitude de mesure acceptable (< 5%),False,False,1.034803370786517,0.0
21192,2016,NonResidential,Distribution Center,Alaska Marine Lines,5615 W Marginal Way SW,Seattle,WA,98106.0,1924049081,1,DELRIDGE,47.55105,-122.34695,1971,2.0,2.0,28368,0,28368,"Distribution Center, Office",Distribution Center,35300.0,Office,9408.0,,,,,41.5,43.20000076,113.0999985,114.8000031,1856230.625,1931830.75,0.0,435559.9063,1486130.0,3700.999512,370100.0,False,,Compliant,,30.02,1.06,True,False,Ratio Usage/Total intermédiaire (multi-usages),1.05 < Ratio ≤ 1.30 + NumberofBuildings > 1,✅ Conservation sélective,Dépassement structurel accepté pour bâtiments complexes,False,False,1.2443598420755781,0.0
21208,2016,NonResidential,Other,Stone Avenue Building,13100 Stone Avenue North,Seattle,WA,98133.0,1926049122,5,NORTHWEST,47.72471,-122.3412,1964,1.0,2.0,92080,0,92080,Other,Other,92129.0,,,,,,,56.0,58.29999924,130.8999939,133.3000031,5155090.5,5368434.5,0.0,931812.6875,3179345.0,19757.45117,1975745.0,False,,Compliant,,127.1,1.38,True,False,Ratio Usage/Total toléré (≤ 1.05),1.00 < Ratio ≤ 1.05,✅ Conservation,Incertitude de mesure acceptable (< 5%),False,False,1.0005321459600347,0.0
21239,2016,NonResidential,Worship Facility,Seattle North,5701 8th Ave N,Seattle,WA,98105.0,1928300405,4,NORTHEAST,47.6702,-122.32066,1949,1.0,1.0,26033,0,26033,"Parking, Worship Facility",Worship Facility,30044.0,Parking,0.0,,,,78.0,38.20000076,44.70000076,63.79999924,72.30000305,1149140.25,1343672.875,0.0,99743.0,340323.0,8088.169922,808817.0,False,,Compliant,,45.33,1.74,False,True,Ratio Usage/Total critique (monostructurel),1.05 < Ratio ≤ 1.30 + monostructurel,❌ Suppression,Incohérence structurelle (risque sous-estimation 20%+ sur EUI),False,False,1.1540736757192793,0.0
21243,2016,NonResidential,K-12 School,"Seattle Country Day School Bldgs 1,2 & 4",2619 4th Ave North,Seattle,WA,98109.0,1929300110,7,MAGNOLIA / QUEEN ANNE,47.64344,-122.3509,2007,1.0,4.0,48660,0,48660,K-12 School,K-12 School,49468.0,,,,,,82.0,38.0,42.79999924,74.69999695,80.40000153,1881516.125,2115259.0,0.0,241063.5938,822509.0,10590.07031,1059007.0,False,,Compliant,,61.98,1.27,False,False,Ratio Usage/Total toléré (≤ 1.05),1.00 < Ratio ≤ 1.05,✅ Conservation,Incertitude de mesure acceptable (< 5%),False,False,1.0166050143855323,0.0
21315,2016,NonResidential,Small- and Mid-Sized Office,1518 Fifith Ave,1520 Fifth Ave,Seattle,WA,98101.0,1975700135,7,DOWNTOWN,47.61119,-122.33581,1903,1.0,3.0,57720,0,57720,Office,Office,25000.0,,,,,,,1.0,1.0,3.0,3.0,24105.5,24105.5,0.0,7064.899902,24105.0,0.0,0.0,False,,Non-Compliant,Low outlier,0.17,0.0,True,True,Statut Error/Missing,ComplianceStatus invalide,❌ Suppression,Données explicitement invalidées,False,False,0.4331254331254331,0.0
21328,2016,NonResidential,Other,Seattle First Hill,1334 Terry Avenue,Seattle,WA,98101.0,1978200320,7,EAST,47.61186,-122.32857,1964,1.0,4.0,49243,0,49243,Other/Specialty Hospital,Other/Specialty Hospital,52284.0,,,,,,,162.1000061,162.3999939,472.5,472.7999878,8476183.0,8491346.0,0.0,2215881.5,7560588.0,9155.942383,915594.0,False,,Compliant,,101.34,2.06,True,True,Ratio Usage/Total critique (monostructurel),1.05 < Ratio ≤ 1.30 + monostructurel,❌ Suppression,Incohérence structurelle (risque sous-estimation 20%+ sur EUI),False,False,1.0617549702495785,0.0
21365,2016,NonResidential,Medical Office,Northwest Kidney Center (21365),700 Broadway,Seattle,WA,98114.0,1978201435,3,EAST,47.60865416,-122.3205904,1963,0.0,3.0,39115,0,39115,Medical Office,Medical Office,50000.0,,,,,,42.0,74.69999695,76.80000305,203.8000031,205.8999939,3735308.5,3838425.0,0.0,878757.3125,2998320.0,7369.880859,736988.0,False,,Compliant,,60.04,1.53,False,False,Ratio Usage/Total intermédiaire (multi-usages),1.05 < Ratio ≤ 1.30 + NumberofBuildings > 1,✅ Conservation sélective,Dépassement structurel accepté pour bâtiments complexes,False,False,1.278281989006775,0.0
21367,2016,NonResidential,Worship Facility,First Presbyterian Church of Seattle,1013 8th Ave,Seattle,WA,98104.0,1979200090,7,EAST,47.60821,-122.3296,1962,1.0,3.0,37796,0,37796,"Parking, Worship Facility",Worship Facility,53000.0,Parking,17600.0,,,,55.0,46.5,52.29999924,87.69999695,96.0,2465983.5,2769792.0,1379517.75,259038.0,883838.0,2026.280029,202628.0,False,,Compliant,,123.41,3.27,False,True,Ratio Usage/Total critique (> 1.30),LargestPropertyUseTypeGFA/PropertyGFATotal > 1.30,❌ Suppression,Erreur physique manifeste,False,False,1.4022647899248597,0.0
21418,2016,Nonresidential COS,Other,Northwest Rooms,394 1st Ave. N.,Seattle,WA,98109.0,1985200003,7,MAGNOLIA / QUEEN ANNE,47.62208,-122.35398,1961,1.0,1.0,26000,0,26000,Other,Other,49847.0,,,,,,,105.9000015,114.6999969,250.8999939,261.6000061,5277482.5,5719698.0,2097789.75,931914.625,3179693.0,0.0,0.0,False,,Compliant,,184.09,7.08,True,True,Ratio Usage/Total critique (> 1.30),LargestPropertyUseTypeGFA/PropertyGFATotal > 1.30,❌ Suppression,Erreur physique manifeste,False,False,1.9171923076923076,0.0
21435,2016,NonResidential,Other,space needle,400 broard street,Seattle,WA,98109.0,1985200495,7,MAGNOLIA / QUEEN ANNE,47.62049,-122.3493,1961,1.0,2.0,33971,0,33971,Other - Recreation,Other - Recreation,50000.0,,,,,,,353.7000122,363.2999878,747.7000122,757.9000244,17686444.0,18163924.0,0.0,2638550.75,9002735.0,86837.08594,8683709.0,False,,Compliant,,523.95,15.42,True,True,Ratio Usage/Total critique (> 1.30),LargestPropertyUseTypeGFA/PropertyGFATotal > 1.30,❌ Suppression,Erreur physique manifeste,False,False,1.4718436313326073,0.0
21436,2016,Nonresidential COS,Other,Seattle Children's Theatre,201 Thomas St.,Seattle,WA,98109.0,1985200550,7,MAGNOLIA / QUEEN ANNE,47.62082,-122.35251,1992,1.0,2.0,40600,0,40600,Other,Other,33000.0,,,,,,,56.40000153,56.0,174.6000061,174.3999939,2485521.0,2470816.0,137900.0,442413.1875,1509514.0,3745.369629,374537.0,False,,Compliant,,41.06,1.01,True,True,Incohérence énergétique,Écart sources/total > 10%,❌ Suppression,CO₂ mathématiquement corrompu (déconnexion sources/total),False,False,0.812807881773399,18.65
21474,2016,NonResidential,Other,The Lusty Lady,1315 1st Ave,Seattle,WA,98101.0,1976200060,7,DOWNTOWN,47.60711,-122.33886,1900,1.0,3.0,49760,0,49760,Other,Other,24019.0,,,,,,,1.799999952,1.799999952,5.800000191,5.800000191,44293.5,44293.5,0.0,12981.7002,44294.0,0.0,0.0,False,,Non-Compliant,Low outlier,0.31,0.01,True,True,Statut Error/Missing,ComplianceStatus invalide,❌ Suppression,Données explicitement invalidées,False,False,0.4826969453376206,0.0
21505,2016,NonResidential,Small- and Mid-Sized Office,U0010 - Union Stables,2200 Western Avenue,Seattle,WA,98121.0,1977200605,7,DOWNTOWN,47.6123,-122.34611,1909,1.0,5.0,66900,0,66900,Office,Office,68048.0,,,,,,100.0,24.0,24.0,73.59999847,73.59999847,1634178.25,1634178.25,0.0,461583.0,1574921.0,592.5700073,59257.0,False,,Compliant,,14.13,0.21,False,False,Ratio Usage/Total toléré (≤ 1.05),1.00 < Ratio ≤ 1.05,✅ Conservation,Incertitude de mesure acceptable (< 5%),False,False,1.0171599402092675,0.0
21520,2016,NonResidential,Small- and Mid-Sized Office,1910 Fairview - new,1910 Fairview,Seattle,WA,98104.0,2025049040,4,LAKE UNION,47.63616,-122.32718,1964,1.0,5.0,54465,9605,44860,"Office, Parking",Office,57972.0,Parking,0.0,,,,68.0,62.09999847,63.09999847,182.3999939,183.5,3600571.25,3658985.5,0.0,952872.1875,3251200.0,3493.709961,349371.0,False,,Compliant,,41.22,0.76,False,True,Ratio Usage/Total critique (monostructurel),1.05 < Ratio ≤ 1.30 + monostructurel,❌ Suppression,Incohérence structurelle (risque sous-estimation 20%+ sur EUI),False,False,1.0643899752134398,0.0
21534,2016,NonResidential,Small- and Mid-Sized Office,Little Wing,120 6th Ave N,Seattle,WA,98109.0,1991200705,7,LAKE UNION,47.61952,-122.34462,2013,1.0,3.0,51552,0,51552,"Data Center, Office",Office,54150.0,Data Center,650.0,,,,,28.10000038,28.10000038,88.19999695,88.19999695,1539066.375,1539066.375,0.0,451074.5,1539066.0,0.0,0.0,False,,Compliant,,10.73,0.21,True,True,Ratio Usage/Total critique (monostructurel),1.05 < Ratio ≤ 1.30 + monostructurel,❌ Suppression,Incohérence structurelle (risque sous-estimation 20%+ sur EUI),False,False,1.0503957169459963,0.0
21557,2016,NonResidential,K-12 School,Lakeside Middle School,13510 1st Ave NE,Seattle,WA,98125.0,2026049022,5,NORTHWEST,47.72726,-122.32835,1999,1.0,2.0,49252,0,49252,K-12 School,K-12 School,61099.0,,,,,,23.0,57.09999847,63.40000153,119.4000015,127.1999969,3485865.5,3870672.5,0.0,509598.3125,1738749.0,17471.16016,1747116.0,False,,Compliant,,104.91,2.13,False,True,Ratio Usage/Total critique (monostructurel),1.05 < Ratio ≤ 1.30 + monostructurel,❌ Suppression,Incohérence structurelle (risque sous-estimation 20%+ sur EUI),False,False,1.2405384552911556,0.0
21570,2016,SPS-District K-12,K-12 School,Hazel Wolf K-8 at Pinehurst,11530 12th Ave. N.E.,Seattle,WA,98125.0,2044500390,5,North,47.71343,-122.31466,1950,1.0,1.0,34005,0,34005,K-12 School,K-12 School,50337.0,,,,,,94.0,19.70000076,19.70000076,59.0,59.0,991918.0,991918.0,0.0,270174.4063,921835.0,700.8300171,70083.0,True,,Error - Correct Default Data,,10.15,0.3,False,True,Statut Error/Missing,ComplianceStatus invalide,❌ Suppression,Données explicitement invalidées,False,False,1.4802823114247905,0.0
21578,2016,SPS-District K-12,K-12 School,Genesee Hill Elementary,5012 S.W. Genesee St.,Seattle,WA,98116.0,2095200005,1,SOUTHWEST,47.56549,-122.39689,1949,1.0,1.0,41221,0,41221,K-12 School,K-12 School,60814.0,,,,,,83.0,36.90000153,36.90000153,93.09999847,93.09999847,2246747.5,2246747.5,0.0,462843.3125,1579221.0,6675.260254,667526.0,True,,Error - Correct Default Data,,46.46,1.13,False,True,Statut Error/Missing,ComplianceStatus invalide,❌ Suppression,Données explicitement invalidées,False,False,1.4753159797190751,0.0
21601,2016,SPS-District K-12,K-12 School,Dunlap Elementary,4525 S. Cloverdale St.,Seattle,WA,98118.0,2123700235,2,SOUTHEAST,47.52499,-122.27466,2000,1.0,2.0,75605,0,75605,K-12 School,K-12 School,75605.0,,,,,,83.0,30.10000038,32.5,73.59999847,76.19999695,2274873.5,2457541.75,0.0,445602.5,1520396.0,7544.773926,754477.0,True,,Error - Correct Default Data,,50.67,0.67,False,True,Statut Error/Missing,ComplianceStatus invalide,❌ Suppression,Données explicitement invalidées,False,False,1.0,0.0
21604,2016,SPS-District K-12,K-12 School,South Lake High,8601 Rainier Ave S,Seattle,WA,98118.0,2123700250,2,SOUTHEAST,47.52526,-122.27092,2008,1.0,2.0,29525,0,29525,K-12 School,K-12 School,29525.0,,,,,,77.0,44.0,46.40000153,114.4000015,117.0,1297812.75,1369340.75,0.0,282748.9063,964739.0,3330.735596,333074.0,True,,Error - Correct Default Data,,24.42,0.83,False,True,Statut Error/Missing,ComplianceStatus invalide,❌ Suppression,Données explicitement invalidées,False,False,1.0,0.0
21616,2016,SPS-District K-12,K-12 School,Olympic Hills Elementary,13018 20th Ave. N.E.,Seattle,WA,98125.0,2126049041,5,NORTH,47.72369,-122.30676,1954,1.0,1.0,42292,0,42292,K-12 School,K-12 School,43188.0,,,,,,100.0,0.0,0.0,0.0,0.0,0.0,0.0,0.0,0.0,0.0,0.0,0.0,True,,Error - Correct Default Data,,0.0,0.0,False,True,Statut Error/Missing,ComplianceStatus invalide,❌ Suppression,Données explicitement invalidées,False,False,1.021186039912986,
21741,2016,NonResidential,Senior Care Community,Mirabella Seattle,116 Fairview Ave. N.,Seattle,WA,98109.0,2468400005,7,LAKE UNION,47.61935,-122.33389,2006,1.0,14.0,724148,0,724148,Senior Care Community,Senior Care Community,726000.0,,,,,,8.0,52.09999847,53.90000153,122.9000015,124.9000015,37797084.0,39120828.0,0.0,6951462.0,23718388.0,140786.9375,14078694.0,False,,Compliant,,913.07,1.26,False,False,Ratio Usage/Total toléré (≤ 1.05),1.00 < Ratio ≤ 1.05,✅ Conservation,Incertitude de mesure acceptable (< 5%),False,False,1.0025574882482586,0.0
21774,2016,SPS-District K-12,K-12 School,West Seattle Elementary,6760 34th Ave. S.W.,Seattle,WA,98126.0,2524039050,1,DELRIDGE,47.54176,-122.37349,1988,1.0,2.0,54528,0,54528,K-12 School,K-12 School,54285.0,,,,,,75.0,36.29999924,37.29999924,114.0999985,117.0999985,1972078.625,2024296.625,0.0,577983.125,1972078.0,0.0,0.0,True,,Error - Correct Default Data,,13.75,0.25,False,True,Statut Error/Missing,ComplianceStatus invalide,❌ Suppression,Données explicitement invalidées,False,False,0.995543573943662,0.0
21883,2016,NonResidential,Worship Facility,Shoreline,102 N 132nd St,Seattle,WA,98133.0,2426039065,5,NORTHWEST,47.72558,-122.3578,1962,1.0,1.0,22047,0,22047,"Parking, Worship Facility",Worship Facility,22898.0,Parking,0.0,,,,100.0,11.60000038,11.89999962,36.40000153,37.40000153,265774.9063,272664.4063,0.0,77894.20313,265775.0,0.0,0.0,False,,Compliant,,1.85,0.08,False,False,Ratio Usage/Total toléré (≤ 1.05),1.00 < Ratio ≤ 1.05,✅ Conservation,Incertitude de mesure acceptable (< 5%),False,False,1.0385993559214406,0.0
21896,2016,NonResidential,Warehouse,PNP Properties Building,860 South Cambridge Street,Seattle,WA,98108.0,2433700074,1,GREATER DUWAMISH,47.51899,-122.321,1981,1.0,1.0,28920,0,28920,Non-Refrigerated Warehouse,Non-Refrigerated Warehouse,30000.0,,,,,,50.0,58.29999924,68.5,80.69999695,91.30000305,1750419.0,2053772.75,0.0,81783.10156,279044.0,14713.75098,1471375.0,False,,Compliant,,80.09,2.77,False,False,Ratio Usage/Total toléré (≤ 1.05),1.00 < Ratio ≤ 1.05,✅ Conservation,Incertitude de mesure acceptable (< 5%),False,False,1.037344398340249,0.0
21898,2016,NonResidential,Warehouse,Halfon Candy Company,9229 10th Avenue South,Seattle,WA,98108.0,2433700076,1,GREATER DUWAMISH,47.51968,-122.3212,1978,1.0,1.0,31300,0,31300,Non-Refrigerated Warehouse,Non-Refrigerated Warehouse,31300.0,,,,,,89.0,11.60000038,12.69999981,26.89999962,28.10000038,362874.0,398438.5938,0.0,64745.89844,220913.0,1419.610107,141961.0,True,,Error - Correct Default Data,,9.08,0.29,False,True,Statut Error/Missing,ComplianceStatus invalide,❌ Suppression,Données explicitement invalidées,False,False,1.0,0.0
21902,2016,NonResidential,Warehouse,Samson,9928 10th Ave South,Seattle,WA,98108.0,2433700165,1,GREATER DUWAMISH,47.51918,-122.31957,1979,1.0,1.0,22000,0,22000,"Non-Refrigerated Warehouse, Parking",Non-Refrigerated Warehouse,22000.0,Parking,0.0,,,,14.0,31.79999924,31.79999924,100.0,100.0,700627.625,700627.625,0.0,205342.2031,700628.0,0.0,0.0,True,,Error - Correct Default Data,,4.88,0.22,False,True,Statut Error/Missing,ComplianceStatus invalide,❌ Suppression,Données explicitement invalidées,False,False,1.0,0.0
21909,2016,NonResidential,Medical Office,311 NGT Northgate Med,9800 4th Ave NE,Seattle,WA,98115.0,2434900130,5,NORTH,47.70087,-122.32379,1968,1.0,2.0,38745,0,38745,"Medical Office, Parking",Medical Office,65069.0,Parking,0.0,,,,76.0,44.40000153,47.20000076,119.0,122.9000015,2890379.0,3073612.0,0.0,659899.875,2251578.0,6388.0,638800.0,False,,Compliant,,49.62,1.28,False,True,Ratio Usage/Total critique (> 1.30),LargestPropertyUseTypeGFA/PropertyGFATotal > 1.30,❌ Suppression,Erreur physique manifeste,False,False,1.6794166989288941,0.0
21921,2016,NonResidential,Supermarket / Grocery Store,Safeway 0488 - 45th St,3020 NE 45th St,Seattle,WA,98105.0,2437200030,4,NORTHEAST,47.66205,-122.29545,1975,1.0,1.0,33005,0,33005,"Parking, Supermarket/Grocery Store",Supermarket/Grocery Store,34982.0,Parking,0.0,,,,21.0,304.2000122,309.3999939,759.2000122,760.2999878,10642754.0,10821972.0,0.0,2156999.75,7359683.0,32830.69922,3283070.0,False,,Compliant,,225.67,6.84,False,True,Ratio Usage/Total critique (monostructurel),1.05 < Ratio ≤ 1.30 + monostructurel,❌ Suppression,Incohérence structurelle (risque sous-estimation 20%+ sur EUI),False,False,1.0599000151492197,0.0
21945,2016,NonResidential,Other,First Hill Plaza Retail Building,1300 Madison St,Seattle,WA,98104.0,2560350000,3,EAST,47.61074,-122.32259,1981,1.0,1.0,20971,0,20971,"Bank Branch, Medical Office, Parking, Retail Store",Parking,23483.0,Retail Store,10360.0,Medical Office,8509.0,,,33.29999924,33.29999924,104.5,104.5,729397.1875,729397.1875,0.0,213774.0938,729397.0,0.0,0.0,False,,Compliant,,5.08,0.24,True,True,Ratio Usage/Total critique (monostructurel),1.05 < Ratio ≤ 1.30 + monostructurel,❌ Suppression,Incohérence structurelle (risque sous-estimation 20%+ sur EUI),False,False,1.1197844642601689,0.0
22149,2016,SPS-District K-12,K-12 School,John Rogers Elementary,4030 N.E. 109th St.,Seattle,WA,98125.0,2726049114,5,NORTH,47.70743,-122.28463,1955,1.0,1.0,38582,0,38582,K-12 School,K-12 School,40374.0,,,,,,85.0,45.79999924,50.90000153,85.80000305,93.09999847,1848878.5,2054157.0,0.0,213797.4063,729477.0,11194.0166,1119402.0,True,,Error - Correct Default Data,,64.54,1.67,False,True,Statut Error/Missing,ComplianceStatus invalide,❌ Suppression,Données explicitement invalidées,False,False,1.046446529469701,0.0
22420,2016,NonResidential,Other,SUNSET,1138 NW 63RD ST,Seattle,WA,98107.0,2767704040,6,BALLARD,47.67482,-122.37316,1942,1.0,2.0,30087,0,30087,Other,Other,30554.0,,,,,,,172.6000061,170.3999939,542.0999756,535.0,5274642.0,5205994.5,0.0,1545908.875,5274641.0,0.0,0.0,False,,Compliant,,36.77,1.22,True,False,Ratio Usage/Total toléré (≤ 1.05),1.00 < Ratio ≤ 1.05,✅ Conservation,Incertitude de mesure acceptable (< 5%),False,False,1.0155216538704424,0.0
22454,2016,NonResidential,Retail Store,Ballard Goodwill,6400 8th Avenue NW,Seattle,WA,98134.0,2769601465,6,Ballard,47.67518,-122.36549,1967,1.0,1.0,22420,0,22420,Retail Store,Retail Store,23067.0,,,,,,82.0,60.90000153,66.09999847,148.0,152.6999969,1404253.75,1524765.875,0.0,271811.8125,927422.0,4768.319824,476832.0,False,,Compliant,,31.79,1.42,False,False,Ratio Usage/Total toléré (≤ 1.05),1.00 < Ratio ≤ 1.05,✅ Conservation,Incertitude de mesure acceptable (< 5%),False,False,1.0288581623550401,0.0
22479,2016,NonResidential,Supermarket / Grocery Store,70500811 -- Interbay,1600 West Dravus,Seattle,WA,98119.0,2770602660,7,MAGNOLIA / QUEEN ANNE,47.64909,-122.37788,1961,1.0,1.0,25842,0,25842,Supermarket/Grocery Store,Supermarket/Grocery Store,25987.0,,,,,,35.0,327.7999878,336.6000061,718.7000122,727.9000244,8518313.0,8746499.0,0.0,1364887.75,4656997.0,38613.15625,3861316.0,False,,Compliant,,237.54,9.19,False,False,Ratio Usage/Total toléré (≤ 1.05),1.00 < Ratio ≤ 1.05,✅ Conservation,Incertitude de mesure acceptable (< 5%),False,False,1.005611020818822,0.0
22574,2016,NonResidential,Small- and Mid-Sized Office,Nickerson Business Center,3837 13th Avenue West,Seattle,WA,98119.0,2770604870,7,MAGNOLIA / QUEEN ANNE,47.65504,-122.37402,1961,1.0,2.0,20022,0,20022,Office,Office,20784.0,,,,,,80.0,31.60000038,33.09999847,99.30000305,104.0999985,657385.8125,688824.0,0.0,192668.7031,657386.0,0.0,0.0,False,,Compliant,,4.58,0.23,False,False,Ratio Usage/Total toléré (≤ 1.05),1.00 < Ratio ≤ 1.05,✅ Conservation,Incertitude de mesure acceptable (< 5%),False,False,1.0380581360503447,0.0
22801,2016,Nonresidential COS,Other,Meadowbrook Community Center/Pool,10700 30th Ave NE,Seattle,WA,98125.0,2826049024,5,NORTH,47.70544,-122.2918,1996,0.0,2.0,29258,0,29258,"Fitness Center/Health Club/Gym, Other - Recreation, Swimming Pool",Other - Recreation,31991.0,Fitness Center/Health Club/Gym,2648.0,Swimming Pool,0.0,,,233.5,247.3999939,402.5,417.2000122,8086943.5,8571176.0,0.0,764531.6875,2608582.0,54783.60547,5478361.0,False,,Compliant,,309.14,10.57,True,False,Ratio Usage/Total intermédiaire (multi-usages),1.05 < Ratio ≤ 1.30 + NumberofBuildings > 1,✅ Conservation sélective,Dépassement structurel accepté pour bâtiments complexes,False,False,1.0934103493061726,0.0
22830,2016,NonResidential,Worship Facility,Freedom Church,9601 35th Ave,Seattle,WA,98126.0,2858600090,1,SOUTHWEST,47.51709,-122.37797,1971,1.0,1.0,23772,0,23772,Worship Facility,Worship Facility,23772.0,,,,,,100.0,4.199999809,4.199999809,13.30000019,13.30000019,100841.7031,100841.7031,0.0,29555.0,100842.0,0.0,0.0,False,,Non-Compliant,Low outlier,0.7,0.03,False,True,Statut Error/Missing,ComplianceStatus invalide,❌ Suppression,Données explicitement invalidées,False,False,1.0,0.0
22834,2016,NonResidential,K-12 School,University Child Development School,5040 9th Ave NE,Seattle,WA,98105.0,2862100610,4,NORTHEAST,47.66665,-122.31818,2004,3.0,2.0,31343,0,31343,K-12 School,K-12 School,51515.0,,,,,,5.0,74.69999695,83.0,144.8999939,153.6999969,3846501.25,4277566.0,0.0,480403.0,1639135.0,22073.66016,2207366.0,False,,Compliant,,128.66,4.1,False,True,Ratio Usage/Total critique (> 1.30),LargestPropertyUseTypeGFA/PropertyGFATotal > 1.30,❌ Suppression,Erreur physique manifeste,False,False,1.643588680088058,0.0
22936,2016,Nonresidential COS,Other,Seattle Asian Art Museum,1400 E Prospect,Seattle,WA,98112.0,2925049087,3,EAST,47.6303,-122.3142,1932,1.0,1.0,33087,0,33087,Other - Entertainment/Public Assembly,Other - Entertainment/Public Assembly,53776.0,,,,,,,66.0,73.40000153,125.4000015,133.1000061,3548858.25,3944599.75,0.0,422960.3125,1443141.0,21057.17383,2105717.0,False,,Compliant,,121.9,3.68,True,True,Ratio Usage/Total critique (> 1.30),LargestPropertyUseTypeGFA/PropertyGFATotal > 1.30,❌ Suppression,Erreur physique manifeste,False,False,1.6252908997491462,0.0
22953,2016,NonResidential,Retail Store,Tux Shop,10716 5th Ave NE,Seattle,WA,98125.0,2926049039,5,NORTH,47.70747,-122.32249,1965,1.0,1.0,24982,0,24982,Retail Store,Retail Store,24982.0,,,,,,99.0,13.39999962,13.39999962,42.09999847,42.09999847,335245.0,335245.0,0.0,98254.70313,335245.0,0.0,0.0,True,,Error - Correct Default Data,,2.34,0.09,False,True,Statut Error/Missing,ComplianceStatus invalide,❌ Suppression,Données explicitement invalidées,False,False,1.0,0.0
23011,2016,NonResidential,Retail Store,Bevmo,10700 5th Ave NE,Seattle,WA,98125.0,2926049223,5,NORTH,47.70708,-122.32251,1966,1.0,1.0,41615,0,41615,Retail Store,Retail Store,41615.0,,,,,,69.0,45.70000076,48.09999847,143.3999939,151.0,1900006.25,2001296.75,0.0,556859.875,1900006.0,0.0,0.0,True,,Error - Correct Default Data,,13.25,0.32,False,True,Statut Error/Missing,ComplianceStatus invalide,❌ Suppression,Données explicitement invalidées,False,False,1.0,0.0
23065,2016,NonResidential,Medical Office,Meridian Center for Health,10521 Meridian ave N,Seattle,WA,98133.0,3026049025,5,NORTHWEST,47.70558,-122.33486,1979,1.0,2.0,34759,0,34759,"Medical Office, Parking",Medical Office,44667.0,Parking,0.0,,,,81.0,36.59999847,36.59999847,114.8000031,114.8000031,1633105.375,1633105.375,0.0,478635.6875,1633105.0,0.0,0.0,False,,Compliant,,11.39,0.33,False,True,Ratio Usage/Total critique (monostructurel),1.05 < Ratio ≤ 1.30 + monostructurel,❌ Suppression,Incohérence structurelle (risque sous-estimation 20%+ sur EUI),False,False,1.2850484766535286,0.0
23071,2016,NonResidential,Hospital,Main Hospital - All Wings,Facilities Management MS: B-120,Seattle,WA,98133.0,3026049130,5,NORTHWEST,47.71425,-122.33689,1966,8.0,1.0,415632,0,415632,"Hospital (General Medical & Surgical), Parking",Hospital (General Medical & Surgical),483520.0,Parking,266833.0,,,,85.0,204.6999969,207.5,400.2000122,402.1000061,98960776.0,100328264.0,0.0,12562766.0,42864158.0,560966.125,56096612.0,False,,Compliant,,3278.11,7.89,False,False,Ratio Usage/Total intermédiaire (multi-usages),1.05 < Ratio ≤ 1.30 + NumberofBuildings > 1,✅ Conservation sélective,Dépassement structurel accepté pour bâtiments complexes,False,False,1.1633367979366362,0.0
23076,2016,NonResidential,Worship Facility,North Seattle Alliance Church,2150 N. 122nd Street,Seattle,WA,98133.0,3034200285,5,NORTHWEST,47.71745,-122.33221,1965,1.0,2.0,44719,0,44719,"Medical Office, Office, Worship Facility",Worship Facility,45909.0,Medical Office,1025.0,Office,972.0,,,33.70000076,37.20000076,66.09999847,71.0,1614026.25,1781436.375,0.0,206530.2031,704681.0,9093.450195,909345.0,False,,Compliant,,53.21,1.19,True,False,Ratio Usage/Total toléré (≤ 1.05),1.00 < Ratio ≤ 1.05,✅ Conservation,Incertitude de mesure acceptable (< 5%),False,False,1.026610612938572,0.0
23115,2016,NonResidential,Distribution Center,Intermountain Supply,7901 1st Ave South,Seattle,WA,98108.0,3124049001,1,DELRIDGE,47.53158,-122.33568,1979,1.0,1.0,42900,0,42900,Distribution Center,Distribution Center,43050.0,,,,,,53.0,10.10000038,10.69999981,31.79999924,33.59999847,436252.5,461205.5938,0.0,127858.2969,436253.0,0.0,0.0,False,,Compliant,,3.04,0.07,False,False,Ratio Usage/Total toléré (≤ 1.05),1.00 < Ratio ≤ 1.05,✅ Conservation,Incertitude de mesure acceptable (< 5%),False,False,1.0034965034965035,0.0
23204,2016,SPS-District K-12,K-12 School,Maple Elementary,4925 Corson Ave. S.,Seattle,WA,98108.0,3869400560,2,GREATER DUWAMISH,47.55813,-122.3189,1971,1.0,1.0,50546,0,50546,K-12 School,K-12 School,53234.0,,,,,,94.0,21.70000076,22.89999962,64.59999847,67.5,1155080.5,1220512.25,0.0,312518.1875,1066312.0,887.6842041,88768.0,True,,Error - Correct Default Data,,12.15,0.24,False,True,Statut Error/Missing,ComplianceStatus invalide,❌ Suppression,Données explicitement invalidées,False,False,1.0531792822379615,0.0
23265,2016,Campus,Other,T102 1011 B/C,1011 Klickitat Way SW,Seattle,WA,98134.0,7666701220,1,GREATER DUWAMISH,47.57049,-122.34857,1989,5.0,2.0,138907,0,138907,Other,Other,139557.0,,,,,,,56.20000076,61.29999924,135.8000031,142.6999969,7837692.5,8551562.0,0.0,1503605.875,5130303.0,27073.88867,2707389.0,False,,Compliant,,179.55,1.29,True,False,Ratio Usage/Total toléré (≤ 1.05),1.00 < Ratio ≤ 1.05,✅ Conservation,Incertitude de mesure acceptable (< 5%),False,True,1.004679389807569,0.0
23297,2016,NonResidential,Residence Hall,St. James Cathedral & Rectory,804 9th Ave.,Seattle,WA,98104.0,8590900085,3,EAST,47.6073,-122.32585,1904,1.0,1.0,44086,0,44086,Residence Hall/Dormitory,Residence Hall/Dormitory,44091.0,,,,,,29.0,82.80000305,92.0,151.3999939,163.1999969,3652708.75,4056815.5,1920474.25,357251.9063,1218944.0,5132.909668,513291.0,False,,Compliant,,184.0,4.17,False,False,Ratio Usage/Total toléré (≤ 1.05),1.00 < Ratio ≤ 1.05,✅ Conservation,Incertitude de mesure acceptable (< 5%),False,False,1.0001134146894706,0.0
23311,2016,NonResidential,Medical Office,HART First Hill LLC,1124 Columbia Street,Seattle,WA,98104.0,8590900646,3,EAST,47.60862,-122.32372,1945,1.0,,274568,0,274568,"Medical Office, Parking",Medical Office,228133.0,Parking,135954.0,,,,52.0,111.0,111.1999969,235.5,233.1000061,25311526.0,25358122.0,13296249.0,3521475.75,12015275.0,0.0,0.0,False,,Compliant,,1110.07,4.04,False,False,Nombre d'étages incohérent,NumberofFloors=0 & BuildingType!=Campus,⚠️ Feature Engineering : NaN + Flag,"Structure massive nécessitant plusieurs niveaux (ex: Grand Hyatt, Pacific Place)",True,False,0.8308797820576324,0.0
23722,2016,SPS-District K-12,K-12 School,North Beach Elementary,9018 24th Ave N.W.,Seattle,WA,98117.0,3526039024,6,BALLARD,47.69497,-122.38704,1958,1.0,1.0,39971,0,39971,K-12 School,K-12 School,40867.0,,,,,,,0.0,0.0,0.0,0.0,0.0,0.0,0.0,0.0,0.0,9455.367188,945537.0,False,,Missing Data,,50.22,1.26,True,True,Statut Error/Missing,ComplianceStatus invalide,❌ Suppression,Données explicitement invalidées,False,False,1.0224162517825424,inf
23861,2016,NonResidential,Small- and Mid-Sized Office,Commuter Center LLC,815 Western,Seattle,WA,98105.0,7666202545,7,DOWNTOWN,47.6032,-122.33663,1906,1.0,3.0,32160,0,32160,"Office, Retail Store",Office,35693.0,Retail Store,14219.0,,,,,56.20000076,56.20000076,176.5,176.5,2805826.0,2805826.0,0.0,822340.5,2805826.0,0.0,0.0,False,,Compliant,,19.56,0.61,True,True,Ratio Usage/Total critique (monostructurel),1.05 < Ratio ≤ 1.30 + monostructurel,❌ Suppression,Incohérence structurelle (risque sous-estimation 20%+ sur EUI),False,False,1.1098569651741295,0.0
23877,2016,SPS-District K-12,K-12 School,Dearborn Park Int'l Elementary,2820 S. Orcas St.,Seattle,WA,98108.0,7857000410,2,GREATER DUWAMISH,47.55226,-122.29629,1971,1.0,2.0,52609,0,52609,K-12 School,K-12 School,52609.0,,,,,,67.0,34.29999924,38.0,78.30000305,83.40000153,1801941.75,2001525.875,0.0,312475.0938,1066165.0,7357.766113,735777.0,True,,Error - Correct Default Data,,46.51,0.88,False,True,Statut Error/Missing,ComplianceStatus invalide,❌ Suppression,Données explicitement invalidées,False,False,1.0,0.0
23912,2016,NonResidential,Small- and Mid-Sized Office,1416 S Jackson,1416 South Jackson Street,Seattle,WA,98133.0,3320000165,3,CENTRAL,47.59973,-122.31331,1947,1.0,1.0,45068,0,45068,Office,Office,45068.0,,,,,,100.0,6.300000191,6.900000095,13.19999981,13.80000019,284857.3125,309214.0,0.0,41554.60156,141784.0,1430.729858,143073.0,False,,Non-Compliant,Low outlier,8.59,0.19,False,True,Statut Error/Missing,ComplianceStatus invalide,❌ Suppression,Données explicitement invalidées,False,False,1.0,0.0
24012,2016,SPS-District K-12,K-12 School,Concord International Elementary,723 S. Concord St.,Seattle,WA,98108.0,7885100255,1,GREATER DUWAMISH,47.52361,-122.32469,2000,1.0,2.0,64493,0,64493,K-12 School,K-12 School,64493.0,,,,,,85.0,30.89999962,31.60000038,86.59999847,87.30000305,1989763.875,2037940.0,0.0,489828.3125,1671294.0,3184.696045,318470.0,True,,Error - Correct Default Data,,28.57,0.44,False,True,Statut Error/Missing,ComplianceStatus invalide,❌ Suppression,Données explicitement invalidées,False,False,1.0,0.0
24026,2016,NonResidential,Self-Storage Facility,U-Haul Moving & Storage of SE Seattle,6401 Mlk Jr Wy S,Seattle,WA,98118.0,3333001690,2,GREATER DUWAMISH,47.54514,-122.28596,1955,1.0,1.0,23100,0,23100,Self-Storage Facility,Self-Storage Facility,23250.0,,,,,,,37.09999847,38.40000153,101.4000015,105.4000015,863703.0,893514.5,0.0,203280.0938,693592.0,1701.110474,170111.0,False,,Compliant,,13.87,0.6,True,False,Ratio Usage/Total toléré (≤ 1.05),1.00 < Ratio ≤ 1.05,✅ Conservation,Incertitude de mesure acceptable (< 5%),False,False,1.0064935064935066,0.0
24030,2016,NonResidential,Retail Store,King Plaza 6951,6951 Martin Luther King Jr Way S,Seattle,WA,98118.0,3333002890,2,GREATER DUWAMISH,47.53922,-122.28295,2002,1.0,2.0,54211,17471,36740,"Parking, Retail Store, Supermarket/Grocery Store",Retail Store,30000.0,Supermarket/Grocery Store,5000.0,Parking,4000.0,,100.0,36.20000076,36.20000076,113.6999969,113.6999969,1267463.125,1267463.125,0.0,371472.0938,1267463.0,0.0,0.0,True,,Error - Correct Default Data,,8.84,0.16,False,True,Statut Error/Missing,ComplianceStatus invalide,❌ Suppression,Données explicitement invalidées,False,False,0.553393222777665,0.0
24035,2016,SPS-District K-12,K-12 School,Rainier View Elementary,11650 Beacon Ave S,Seattle,WA,98178.0,3352401300,2,SOUTHEAST,47.49917,-122.26306,1961,1.0,1.0,41428,0,41428,K-12 School,K-12 School,41428.0,,,,,,90.0,33.90000153,37.59999847,68.80000305,73.69999695,1404702.25,1556431.5,0.0,192707.2969,657517.0,7471.848633,747185.0,True,,Error - Correct Default Data,,44.27,1.07,False,True,Statut Error/Missing,ComplianceStatus invalide,❌ Suppression,Données explicitement invalidées,False,False,1.0,0.0
24086,2016,Campus,Other,(ID#24086)Campus1:KC Metro Transit Atlantic Central Bases,1333 AIRPORT WAY S,Seattle,WA,98134.0,7666203387,2,GREATER DUWAMISH,47.59042,-122.32498,1991,10.0,0.0,230971,0,230971,"Other, Parking",Other,230970.0,Parking,0.0,,,,,91.0,96.19999695,235.1000061,242.1999969,21022288.0,22230844.0,0.0,4519276.0,15419770.0,56025.15234,5602515.0,False,,Compliant,,405.05,1.75,True,False,Structure Campus agrégée,,✅ Conservation (Flag Campus),Zéro accepté pour les entités multi-bâtiments,True,True,0.9999956704521347,0.0
24091,2016,NonResidential,Warehouse,"Total Reclaim, Inc",2200 6th Ave SE,Seattle,WA,98134.0,7666203485,2,GREATER DUWAMISH,47.58336,-122.32525,1960,1.0,1.0,45842,0,45842,"Non-Refrigerated Warehouse, Office",Non-Refrigerated Warehouse,49802.0,Office,22198.0,,,,99.0,11.39999962,11.80000019,31.39999962,31.39999962,819354.625,847703.375,0.0,196713.7969,671187.0,1481.669922,148167.0,False,,Compliant,,12.55,0.27,False,True,Ratio Usage/Total critique (monostructurel),1.05 < Ratio ≤ 1.30 + monostructurel,❌ Suppression,Incohérence structurelle (risque sous-estimation 20%+ sur EUI),False,False,1.0863836656341346,0.0
24105,2016,NonResidential,Warehouse,625 Building,625 South Lander,Seattle,WA,98134.0,7666203710,2,GREATER DUWAMISH,47.57934,-122.32501,1953,1.0,1.0,24990,0,24990,"Non-Refrigerated Warehouse, Office",Non-Refrigerated Warehouse,25649.0,Office,6728.0,,,,80.0,16.20000076,17.0,43.70000076,44.59999847,523614.0938,550746.6875,0.0,121398.7969,414213.0,1094.011719,109401.0,False,,Compliant,,8.7,0.35,False,False,Ratio Usage/Total toléré (≤ 1.05),1.00 < Ratio ≤ 1.05,✅ Conservation,Incertitude de mesure acceptable (< 5%),False,False,1.0263705482192877,0.0
24164,2016,SPS-District K-12,K-12 School,Sanislo Elementary,1812 S.W. Myrtle,Seattle,WA,98106.0,3438502560,1,DELRIDGE,47.53961,-122.35866,1970,1.0,1.0,41526,0,41526,K-12 School,K-12 School,41526.0,,,,,,79.0,43.70000076,49.0,89.90000153,97.30000305,1814947.0,2033428.125,0.0,256331.9063,874604.0,9403.424805,940342.0,True,,Error - Correct Default Data,,56.04,1.35,False,True,Statut Error/Missing,ComplianceStatus invalide,❌ Suppression,Données explicitement invalidées,False,False,1.0,0.0
24216,2016,NonResidential,Small- and Mid-Sized Office,Lamar Advertising Company,3601 Sixth Ave S.,Seattle,WA,98134.0,7666204110,2,GREATER DUWAMISH,47.57075,-122.32724,1962,1.0,1.0,28800,0,28800,"Non-Refrigerated Warehouse, Office",Office,28800.0,Non-Refrigerated Warehouse,7350.0,,,,73.0,58.29999924,67.5,98.19999695,107.5,2107743.75,2438706.5,0.0,230523.5938,786547.0,10288.21973,1028822.0,False,,Compliant,,60.12,2.09,False,True,Incohérence énergétique,Écart sources/total > 10%,❌ Suppression,CO₂ mathématiquement corrompu (déconnexion sources/total),False,False,1.0,13.87
24225,2016,NonResidential,Distribution Center,2900,2900 4th ave. so.,Seattle,WA,98134.0,7666204180,2,GREATER DUWAMISH,47.57747,-122.32844,1937,1.0,1.0,41248,0,41248,Distribution Center,Distribution Center,41430.0,,,,,,37.0,26.79999924,28.5,74.40000153,77.69999695,1108310.875,1180859.625,0.0,269114.5,918219.0,1900.920166,190092.0,False,,Compliant,,16.5,0.4,False,False,Ratio Usage/Total toléré (≤ 1.05),1.00 < Ratio ≤ 1.05,✅ Conservation,Incertitude de mesure acceptable (< 5%),False,False,1.0044123351435221,0.0
24374,2016,NonResidential,Retail Store,Jumbo chinese restaurant,4208 rainier ave so.,Seattle,WA,98118.0,7950301480,2,SOUTHEAST,47.56514,-122.28781,1968,1.0,1.0,36071,0,36071,Retail Store,Retail Store,36071.0,,,,,,97.0,42.09999847,42.09999847,81.90000153,81.90000153,1519952.125,1519952.125,0.0,190315.0938,649355.0,8705.969727,870597.0,True,,Error - Correct Default Data,,50.76,1.41,False,True,Statut Error/Missing,ComplianceStatus invalide,❌ Suppression,Données explicitement invalidées,False,False,1.0,0.0
24479,2016,NonResidential,Supermarket / Grocery Store,Safeway 0423 - 35th Ave,7340 35th Ave NE,Seattle,WA,98115.0,7974200020,4,NORTHEAST,47.68269,-122.28912,1965,1.0,1.0,32822,0,32822,"Parking, Supermarket/Grocery Store",Supermarket/Grocery Store,35042.0,Parking,0.0,,,,42.0,252.3000031,260.7000122,587.5,596.2999878,8839812.0,9134359.0,0.0,1585199.625,5408701.0,34311.10156,3431110.0,False,,Compliant,,219.93,6.7,False,True,Ratio Usage/Total critique (monostructurel),1.05 < Ratio ≤ 1.30 + monostructurel,❌ Suppression,Incohérence structurelle (risque sous-estimation 20%+ sur EUI),False,False,1.0676375601730546,0.0
24482,2016,SPS-District K-12,K-12 School,View Ridge Elementary,7047 50th Ave. NE.,Seattle,WA,98115.0,7974200250,4,NORTHEAST,47.68069,-122.27533,1948,1.0,1.0,64314,0,64314,K-12 School,K-12 School,65210.0,,,,,,86.0,45.0,51.70000076,80.59999847,89.80000305,2936336.25,3370435.5,0.0,304246.6875,1038090.0,18982.46094,1898246.0,True,,Error - Correct Default Data,,108.05,1.68,False,True,Statut Error/Missing,ComplianceStatus invalide,❌ Suppression,Données explicitement invalidées,False,False,1.0139316478527225,0.0
24531,2016,NonResidential,Warehouse,Kenyon Industrial Park Building D,7951 Second Avenue South,Seattle,WA,98108.0,3224049007,1,GREATER DUWAMISH,47.5316,-122.333,1966,1.0,1.0,32000,0,32000,Non-Refrigerated Warehouse,Non-Refrigerated Warehouse,32040.0,,,,,,3.0,68.19999695,73.0,176.6999969,181.8000031,2186148.5,2340055.75,0.0,472220.1875,1611215.0,5749.330078,574933.0,False,,Compliant,,41.77,1.31,False,False,Ratio Usage/Total toléré (≤ 1.05),1.00 < Ratio ≤ 1.05,✅ Conservation,Incertitude de mesure acceptable (< 5%),False,False,1.00125,0.0
24532,2016,NonResidential,Warehouse,Kenyon Industrial Park Building B,121 S Kenyon Street,Seattle,WA,98108.0,3224049007,1,GREATER DUWAMISH,47.5316,-122.333,1970,1.0,1.0,44000,0,44000,Non-Refrigerated Warehouse,Non-Refrigerated Warehouse,45449.0,,,,,,15.0,94.69999695,108.9000015,152.1999969,167.1000061,4302455.5,4947630.5,0.0,336495.5,1148123.0,31543.32813,3154333.0,False,,Compliant,,175.53,3.99,False,False,Ratio Usage/Total toléré (≤ 1.05),1.00 < Ratio ≤ 1.05,✅ Conservation,Incertitude de mesure acceptable (< 5%),False,False,1.0329318181818181,0.0
24539,2016,NonResidential,Warehouse,Cloverdale Business Park Building E,309 South Cloverdale Street,Seattle,WA,98108.0,3224049012,1,GREATER DUWAMISH,47.52549,-122.33064,1979,1.0,1.0,27420,0,27420,Non-Refrigerated Warehouse,Non-Refrigerated Warehouse,27850.0,,,,,,55.0,42.20000076,48.09999847,82.5,88.59999847,1176342.25,1340563.125,0.0,148811.0,507743.0,6685.990234,668599.0,False,,Compliant,,39.05,1.42,False,False,Ratio Usage/Total toléré (≤ 1.05),1.00 < Ratio ≤ 1.05,✅ Conservation,Incertitude de mesure acceptable (< 5%),False,False,1.0156819839533187,0.0
24547,2016,NonResidential,K-12 School,Islamic School of Seattle,720 25TH AVE,Seattle,WA,98122.0,6840700175,3,CENTRAL,47.60885,-122.2999,1929,1.0,2.0,24152,0,24152,K-12 School,K-12 School,24152.0,,,,,,100.0,6.699999809,6.699999809,21.0,21.0,161363.4063,161363.4063,0.0,47292.89844,161363.0,0.0,0.0,False,,Non-Compliant,Low outlier,1.12,0.05,False,True,Statut Error/Missing,ComplianceStatus invalide,❌ Suppression,Données explicitement invalidées,False,False,1.0,0.0
24603,2016,NonResidential,Warehouse,20731-West Seattle / Delridge Way SW,7133 Delridge Way Sw,Seattle,WA,98106.0,7985400475,1,DELRIDGE,47.53846,-122.36175,1982,1.0,2.0,36600,0,36600,Non-Refrigerated Warehouse,Non-Refrigerated Warehouse,43556.0,,,,,,80.0,7.099999905,7.400000095,22.20000076,23.10000038,308400.4063,320606.5938,0.0,90387.0,308400.0,0.0,0.0,False,,Compliant,,2.15,0.06,False,True,Ratio Usage/Total critique (monostructurel),1.05 < Ratio ≤ 1.30 + monostructurel,❌ Suppression,Incohérence structurelle (risque sous-estimation 20%+ sur EUI),False,False,1.1900546448087432,0.0
24614,2016,SPS-District K-12,K-12 School,Sacajawea Elementary,9501 20th Ave. NE,Seattle,WA,98115.0,8024202285,5,NORTH,47.69845,-122.30747,1959,1.0,1.0,36701,0,36701,K-12 School,K-12 School,40285.0,,,,,,87.0,38.79999924,43.70000076,80.30000305,88.30000305,1564891.75,1760895.125,0.0,223159.0938,761419.0,8034.728516,803473.0,True,,Error - Correct Default Data,,47.98,1.31,False,True,Statut Error/Missing,ComplianceStatus invalide,❌ Suppression,Données explicitement invalidées,False,False,1.097654014876979,0.0
24636,2016,NonResidential,Retail Store,Westwood Village - Building E,2600 SW Barton St,Seattle,WA,98126.0,3624039009,1,DELRIDGE,47.52254,-122.36627,1990,1.0,1.0,40265,0,40265,Retail Store,Retail Store,40793.0,,,,,,19.0,91.69999695,92.30000305,277.5,276.1000061,3740373.75,3766310.0,0.0,1036525.625,3536625.0,2037.479858,203748.0,False,,Compliant,,35.48,0.88,False,False,Ratio Usage/Total toléré (≤ 1.05),1.00 < Ratio ≤ 1.05,✅ Conservation,Incertitude de mesure acceptable (< 5%),False,False,1.0131131255432757,0.0
24640,2016,NonResidential,Retail Store,Westwood Village - Building F,2600 SW Barton St,Seattle,WA,98126.0,3624039009,1,DELRIDGE,47.52254,-122.36627,2005,1.0,1.0,26208,0,26208,Retail Store,Retail Store,32427.0,,,,,,79.0,49.59999847,54.29999924,118.9000015,123.5999985,1608884.25,1761050.125,0.0,303859.0938,1036767.0,5721.17041,572117.0,False,,Compliant,,37.61,1.44,False,True,Ratio Usage/Total critique (monostructurel),1.05 < Ratio ≤ 1.30 + monostructurel,❌ Suppression,Incohérence structurelle (risque sous-estimation 20%+ sur EUI),False,False,1.237293956043956,0.0
24646,2016,Nonresidential COS,Other,Southwest Teen Life Center and Pool,2801 Thistle St,Seattle,WA,98106.0,3624039172,1,DELRIDGE,47.52801,-122.36918,1975,0.0,2.0,27227,0,27227,"Fitness Center/Health Club/Gym, Office, Other - Recreation, Other - Technology/Science, Pre-school/Daycare, Swimming Pool",Other - Recreation,29064.0,Fitness Center/Health Club/Gym,8508.0,Pre-school/Daycare,715.0,,,204.8000031,217.5,377.2999878,390.7000122,8054334.0,8556389.0,0.0,894881.8125,3053337.0,50009.96875,5000997.0,False,,Compliant,,286.89,10.54,True,False,Ratio Usage/Total intermédiaire (multi-usages),1.05 < Ratio ≤ 1.30 + NumberofBuildings > 1,✅ Conservation sélective,Dépassement structurel accepté pour bâtiments complexes,False,False,1.0674697910162707,0.0
24717,2016,NonResidential,Other,1701 First Ave South LLC,1701 First Ave South,Seattle,WA,98134.0,7666207085,2,GREATER DUWAMISH,47.58788,-122.33458,1910,1.0,3.0,27690,0,27690,"Other, Parking",Other,24717.0,Parking,0.0,,,,,0.699999988,0.699999988,2.099999905,2.200000048,16808.90039,17260.0,0.0,4926.399902,16809.0,0.0,0.0,False,,Non-Compliant,Low outlier,0.12,0.0,True,True,Statut Error/Missing,ComplianceStatus invalide,❌ Suppression,Données explicitement invalidées,False,False,0.8926327193932828,0.0
24825,2016,NonResidential,Small- and Mid-Sized Office,2233 Building,2233 1st AVE.South,Seattle,WA,98104.0,7666207190,2,GREATER DUWAMISH,47.58292,-122.33468,1910,1.0,2.0,20970,0,20970,"Office, Parking",Office,20970.0,Parking,0.0,,,,100.0,9.800000191,11.10000038,22.0,23.39999962,204499.0938,233531.9063,0.0,34489.89844,117680.0,868.1939087,86819.0,False,,Non-Compliant,Low outlier,5.43,0.26,False,True,Statut Error/Missing,ComplianceStatus invalide,❌ Suppression,Données explicitement invalidées,False,False,1.0,0.0
24862,2016,NonResidential,K-12 School,Our Lady of Guadalupe School,3401 SW Myrtle St.,Seattle,WA,98126.0,8123100005,1,DELRIDGE,47.53887,-122.37564,1962,1.0,3.0,29874,0,29874,K-12 School,K-12 School,31375.0,,,,,,95.0,40.59999847,47.09999847,62.0,69.69999695,1274049.75,1478408.125,0.0,85064.10156,290239.0,9838.110352,983811.0,False,,Compliant,,54.27,1.82,False,True,Ratio Usage/Total critique (monostructurel),1.05 < Ratio ≤ 1.30 + monostructurel,❌ Suppression,Incohérence structurelle (risque sous-estimation 20%+ sur EUI),False,False,1.0502443596438376,0.0
24868,2016,NonResidential,Worship Facility,Magnolia,2415 31st Ave,Seattle,WA,98199.0,8127700530,7,MAGNOLIA / QUEEN ANNE,47.64,-122.39743,1965,1.0,1.0,20140,0,20140,"Parking, Worship Facility",Worship Facility,22000.0,Parking,0.0,,,,35.0,45.09999847,52.90000153,59.0,67.80000305,992794.6875,1164370.875,0.0,35870.39844,122390.0,8704.049805,870405.0,False,,Compliant,,47.08,2.34,False,True,Ratio Usage/Total critique (monostructurel),1.05 < Ratio ≤ 1.30 + monostructurel,❌ Suppression,Incohérence structurelle (risque sous-estimation 20%+ sur EUI),False,False,1.0923535253227408,0.0
24955,2016,NonResidential,Distribution Center,3420/3430 E. Marginal Way Whse,3420/3430 E. Marginal Way,Seattle,WA,98134.0,7666207585,2,GREATER DUWAMISH,47.57227,-122.33843,1952,1.0,1.0,16300,0,16300,Distribution Center,Distribution Center,65164.0,,,,,,100.0,2.299999952,2.299999952,6.900000095,6.900000095,150167.7969,150167.7969,0.0,40497.89844,138179.0,119.8899918,11989.0,False,,Compliant,,1.6,0.1,False,True,Ratio Usage/Total critique (> 1.30),LargestPropertyUseTypeGFA/PropertyGFATotal > 1.30,❌ Suppression,Erreur physique manifeste,False,False,3.997791411042945,0.0
25217,2016,SPS-District K-12,K-12 School,Schmitz Park Building,5000 S.W. Spokane St.,Seattle,WA,98116.0,6318000005,1,SOUTHWEST,47.57269,-122.39673,1962,1.0,1.0,51410,0,51410,K-12 School,K-12 School,51410.0,,,,,,87.0,38.29999924,43.90000153,75.30000305,84.19999695,1968907.25,2256911.75,0.0,252658.5,862071.0,11068.36426,1106836.0,True,,Error - Correct Default Data,,64.79,1.26,False,True,Statut Error/Missing,ComplianceStatus invalide,❌ Suppression,Données explicitement invalidées,False,False,1.0,0.0
25276,2016,NonResidential,Warehouse,Pedersens Rentals,4500 4th Avenue South,Seattle,WA,98134.0,3958900645,2,GREATER DUWAMISH,47.56318,-122.32889,1962,1.0,1.0,31569,0,31569,Non-Refrigerated Warehouse,Non-Refrigerated Warehouse,33000.0,,,,,,12.0,92.80000305,101.4000015,148.5,157.3999939,3064039.5,3344952.0,0.0,235929.7969,804992.0,22590.46875,2259047.0,False,,Compliant,,125.59,3.98,False,False,Ratio Usage/Total toléré (≤ 1.05),1.00 < Ratio ≤ 1.05,✅ Conservation,Incertitude de mesure acceptable (< 5%),False,False,1.0453292787227977,0.0
25317,2016,SPS-District K-12,K-12 School,Lowell Elementary,1058 E. Mercer St.,Seattle,WA,98102.0,6852700355,3,EAST,47.62442,-122.31838,1925,1.0,2.0,73769,0,73769,K-12 School,K-12 School,73769.0,,,,,,92.0,34.70000076,39.40000153,61.5,67.30000305,2556131.0,2904558.75,0.0,259822.5938,886515.0,16696.16211,1669616.0,True,,Error - Correct Default Data,,94.85,1.29,False,True,Statut Error/Missing,ComplianceStatus invalide,❌ Suppression,Données explicitement invalidées,False,False,1.0,0.0
25361,2016,SPS-District K-12,K-12 School,Decatur Building,7711 43rd Ave. N.E.,Seattle,WA,98115.0,6392002430,4,NORTHEAST,47.68503,-122.28267,1961,1.0,1.0,43578,0,43578,K-12 School,K-12 School,45370.0,,,,,,83.0,31.70000076,31.70000076,84.90000153,84.90000153,1436773.875,1436773.875,0.0,328289.5,1120124.0,3166.5,316650.0,True,,Error - Correct Default Data,,24.63,0.57,False,True,Statut Error/Missing,ComplianceStatus invalide,❌ Suppression,Données explicitement invalidées,False,False,1.0411216668961403,0.0
25371,2016,NonResidential,K-12 School,Epiphany School,1802 36TH AVE,Seattle,WA,98122.0,9103000660,3,CENTRAL,47.61791,-122.28594,2009,4.0,2.0,28500,0,28500,K-12 School,K-12 School,31100.0,,,,,,92.0,37.40000153,41.79999924,87.5,94.69999695,1162561.125,1300765.5,0.0,210289.2969,717507.0,4450.540039,445054.0,False,,Compliant,,28.64,1.0,False,False,Ratio Usage/Total intermédiaire (multi-usages),1.05 < Ratio ≤ 1.30 + NumberofBuildings > 1,✅ Conservation sélective,Dépassement structurel accepté pour bâtiments complexes,False,False,1.0912280701754387,0.0
25553,2016,NonResidential,Hotel,J & M HOTEL BUILDING (ID25553),210 1St Ave S,Seattle,WA,98104.0,5247800130,7,DOWNTOWN,47.60035,-122.33379,1900,1.0,3.0,25450,0,25450,Hotel,Hotel,25450.0,,,,,,99.0,19.79999924,19.39999962,62.20000076,60.79999924,503744.6875,492844.5938,0.0,147639.0938,503745.0,0.0,0.0,False,,Non-Compliant,Low outlier,3.51,0.14,False,True,Statut Error/Missing,ComplianceStatus invalide,❌ Suppression,Données explicitement invalidées,False,False,1.0,0.0
25661,2016,NonResidential,Small- and Mid-Sized Office,Buttnick City Loan,206 1st Avenue South,Seattle,WA,98104.0,5247800380,7,DOWNTOWN,47.60071,-122.33377,1909,0.0,3.0,47215,0,47215,"Office, Retail Store",Office,23659.0,Retail Store,22376.0,,,,58.0,45.5,46.40000153,131.6000061,135.1000061,2092696.0,2136896.0,0.0,468222.3125,1597575.0,9918.134766,991813.0,False,,Compliant,,63.81,1.35,False,True,Incohérence énergétique,Écart sources/total > 10%,❌ Suppression,CO₂ mathématiquement corrompu (déconnexion sources/total),False,False,0.5010907550566557,23.73
25673,2016,NonResidential,Retail Store,The Ford Building,1521 10th Ave,Seattle,WA,98122.0,6003500470,3,EAST,47.61466,-122.31984,1920,1.0,1.0,30240,0,30240,"Restaurant, Retail Store",Retail Store,32205.0,Restaurant,714.0,,,,78.0,38.40000153,40.0,107.6999969,108.3000031,1264626.875,1316900.75,0.0,311067.3125,1061362.0,2032.649902,203265.0,False,,Compliant,,18.19,0.6,False,True,Ratio Usage/Total critique (monostructurel),1.05 < Ratio ≤ 1.30 + monostructurel,❌ Suppression,Incohérence structurelle (risque sous-estimation 20%+ sur EUI),False,False,1.0649801587301588,0.0
25674,2016,NonResidential,Low-Rise Multifamily,(ID25674) COMET TAVERN,916 E PIKE ST,Seattle,WA,98122.0,6003500480,3,EAST,47.61427,-122.31977,1910,1.0,3.0,32100,0,32100,"Bar/Nightclub, Multifamily Housing",Multifamily Housing,21400.0,Bar/Nightclub,10700.0,,,,,3.400000095,4.5,4.300000191,5.400000095,108200.3984,142892.5,0.0,3332.5,11370.0,968.3001709,96830.0,False,,Non-Compliant,Low outlier,5.22,0.16,True,True,Statut Error/Missing,ComplianceStatus invalide,❌ Suppression,Données explicitement invalidées,False,False,0.6666666666666666,0.0
25772,2016,NonResidential,Hospital,Park West Skilled Nursing,1703 California Ave SW,Seattle,WA,98116.0,9274200430,1,SOUTHWEST,47.58767,-122.38672,1961,0.0,3.0,54863,0,54863,Hospital (General Medical & Surgical),Hospital (General Medical & Surgical),109726.0,,,,,,100.0,18.60000038,18.79999924,58.29999924,59.09999847,2037720.625,2066851.25,0.0,597221.6875,2037720.0,0.0,0.0,False,,Compliant,,14.21,0.26,False,True,Ratio Usage/Total critique (> 1.30),LargestPropertyUseTypeGFA/PropertyGFATotal > 1.30,❌ Suppression,Erreur physique manifeste,False,False,2.0,0.0
25844,2016,NonResidential,Other,Washington machine Works,5201/5211 1st ave so.,Seattle,WA,98108.0,5263300985,2,GREATER DUWAMISH,47.55523,-122.33448,1927,1.0,1.0,22622,0,22622,Manufacturing/Industrial Plant,Manufacturing/Industrial Plant,23000.0,,,,,,,33.70000076,37.90000153,64.0,69.0,774075.6875,872014.3125,0.0,92448.89844,315436.0,4586.399902,458640.0,False,,Compliant,,26.56,1.17,True,False,Ratio Usage/Total toléré (≤ 1.05),1.00 < Ratio ≤ 1.05,✅ Conservation,Incertitude de mesure acceptable (< 5%),False,False,1.0167093979312174,0.0
25956,2016,SPS-District K-12,K-12 School,McGilvra Elementary,1617 38th Ave. E.,Seattle,WA,98112.0,5318100820,3,EAST,47.63408,-122.28483,1925,1.0,3.0,38297,0,38297,K-12 School,K-12 School,38297.0,,,,,,85.0,48.20000076,55.59999847,84.69999695,93.80000305,1845150.625,2127889.25,0.0,183054.7031,624583.0,12205.67871,1220568.0,True,,Error - Correct Default Data,,69.18,1.81,False,True,Statut Error/Missing,ComplianceStatus invalide,❌ Suppression,Données explicitement invalidées,False,False,1.0,0.0
26040,2016,NonResidential,Self-Storage Facility,Stor-More Self Storage,2850 SW Yancy Street,Seattle,WA,98126.0,9358000450,1,DELRIDGE,47.56785,-122.37039,1994,1.0,3.0,66610,0,66610,Self-Storage Facility,Self-Storage Facility,66720.0,,,,,,,9.600000381,11.10000038,20.39999962,22.0,640377.0,742571.5,0.0,96545.70313,329414.0,3109.630127,310963.0,False,,Compliant,,18.81,0.28,True,False,Ratio Usage/Total toléré (≤ 1.05),1.00 < Ratio ≤ 1.05,✅ Conservation,Incertitude de mesure acceptable (< 5%),False,False,1.0016514036931392,0.0
26150,2016,SPS-District K-12,K-12 School,Fairmount Park Elementary,3800 S.W. Findlay,Seattle,WA,98126.0,9396700035,1,SOUTHWEST,47.55257,-122.38019,1964,1.0,2.0,39929,0,39929,K-12 School,K-12 School,39929.0,,,,,,82.0,45.40000153,50.09999847,103.4000015,110.6999969,1813718.0,2001873.25,0.0,312166.1875,1065111.0,7486.066895,748607.0,True,,Error - Correct Default Data,,47.18,1.18,False,True,Statut Error/Missing,ComplianceStatus invalide,❌ Suppression,Données explicitement invalidées,False,False,1.0,0.0
26183,2016,NonResidential,Small- and Mid-Sized Office,Supply Laundry Building,1265 Republican St.,Seattle,WA,98109.0,6849200110,7,LAKE UNION,47.62298,-122.33082,1912,1.0,2.0,27788,0,27788,"Office, Other - Restaurant/Bar",Office,32610.0,Other - Restaurant/Bar,4874.0,,,,73.0,56.59999847,56.79999924,151.8999939,152.1999969,2119806.25,2127889.25,0.0,486507.6875,1659964.0,4598.419922,459842.0,False,,Compliant,,35.99,1.3,False,True,Ratio Usage/Total critique (monostructurel),1.05 < Ratio ≤ 1.30 + monostructurel,❌ Suppression,Incohérence structurelle (risque sous-estimation 20%+ sur EUI),False,False,1.173528141643875,0.0
26236,2016,NonResidential,Other,4130 1st Ave,4130 1st Ave South,Seattle,WA,98134.0,6172900300,2,GREATER DUWAMISH,47.5661,-122.33358,1946,1.0,2.0,31360,0,31360,Other - Entertainment/Public Assembly,Other - Entertainment/Public Assembly,32000.0,,,,,,,53.90000153,58.90000153,130.1999969,135.5,1725108.25,1886366.625,0.0,330127.1875,1126394.0,5987.140137,598714.0,False,,Compliant,,39.65,1.26,True,False,Ratio Usage/Total toléré (≤ 1.05),1.00 < Ratio ≤ 1.05,✅ Conservation,Incertitude de mesure acceptable (< 5%),False,False,1.0204081632653061,0.0
26289,2016,NonResidential,Senior Care Community,Columbia Lutheran Home,4700 Phinney Avenue North,Seattle,WA,98103.0,9521100080,6,Northwest,47.66312,-122.35311,1961,1.0,2.0,55974,0,55974,Senior Care Community,Senior Care Community,56000.0,,,,,,98.0,109.5999985,114.5,214.1999969,222.1000061,6135173.0,6412428.0,0.0,778957.375,2657803.0,34773.69922,3477370.0,False,,Compliant,,203.21,3.63,False,False,Ratio Usage/Total toléré (≤ 1.05),1.00 < Ratio ≤ 1.05,✅ Conservation,Incertitude de mesure acceptable (< 5%),False,False,1.0004645013756386,0.0
26319,2016,SPS-District K-12,K-12 School,Wing Luke Elementary,3701 S. Kenyon St.,Seattle,WA,98118.0,4006000598,2,GREATER DUWAMISH,47.53074,-122.28491,1971,1.0,2.0,52901,0,52901,K-12 School,K-12 School,52901.0,,,,,,75.0,42.29999924,47.40000153,94.80000305,102.1999969,2240342.0,2508012.0,0.0,373387.1875,1273997.0,9663.448242,966345.0,True,,Error - Correct Default Data,,60.2,1.14,False,True,Statut Error/Missing,ComplianceStatus invalide,❌ Suppression,Données explicitement invalidées,False,False,1.0,0.0
26473,2016,NonResidential,Supermarket / Grocery Store,70500869 -- Wallingford,1801 North 45th Street,Seattle,WA,98103.0,4083802815,4,LAKE UNION,47.66185,-122.33594,1957,1.0,1.0,28808,0,28808,Supermarket/Grocery Store,Supermarket/Grocery Store,31174.0,,,,,,29.0,296.2000122,303.2000122,694.0,697.5,9232576.0,9450746.0,0.0,1674540.0,5713530.0,35190.44922,3519045.0,False,,Compliant,,226.73,7.87,False,True,Ratio Usage/Total critique (monostructurel),1.05 < Ratio ≤ 1.30 + monostructurel,❌ Suppression,Incohérence structurelle (risque sous-estimation 20%+ sur EUI),False,False,1.082129963898917,0.0
26532,2016,NonResidential,Mixed Use Property,KALBERG BUILDING,4515 UNIVERSITY WAY NE,Seattle,WA,98105.0,8816401120,4,NORTHEAST,47.66182,-122.31345,1928,,2.0,20760,0,20760,,,,,,,,,,,,,,,,,,,,,False,,Non-Compliant,,,,True,True,Statut Error/Missing,ComplianceStatus invalide,❌ Suppression,Données explicitement invalidées,False,False,,
26593,2016,NonResidential,Small- and Mid-Sized Office,Delmar Building,108 South Washington St,Seattle,WA,98104.0,5247800481,7,DOWNTOWN,47.60102,-122.33378,1900,1.0,4.0,22840,0,22840,"Office, Other",Office,18400.0,Other,4440.0,,,,64.0,38.59999847,43.0,121.1999969,135.1000061,881386.1875,983053.375,0.0,258319.5,881386.0,0.0,0.0,True,,Error - Correct Default Data,,6.14,0.27,False,True,Statut Error/Missing,ComplianceStatus invalide,❌ Suppression,Données explicitement invalidées,False,False,0.8056042031523643,0.0
26670,2016,NonResidential,Worship Facility,Calvary Christian Assembly,6801 Roosevelt Way NE,Seattle,WA,98133.0,9528102345,4,NORTHEAST,47.67842,-122.31949,1950,1.0,3.0,46485,0,46485,Worship Facility,Worship Facility,63922.0,,,,,,83.0,24.20000076,26.39999962,50.20000076,52.59999847,1544995.75,1689227.75,0.0,222506.5938,759192.0,7858.030273,785803.0,False,,Compliant,,47.03,1.01,False,True,Ratio Usage/Total critique (> 1.30),LargestPropertyUseTypeGFA/PropertyGFATotal > 1.30,❌ Suppression,Erreur physique manifeste,False,False,1.3751102506184791,0.0
26710,2016,NonResidential,Small- and Mid-Sized Office,Masin Building 1,220 Second Avenue South,Seattle,WA,98104.0,5247800890,7,DOWNTOWN,47.60048,-122.33157,1905,1.0,5.0,36879,0,36879,Office,Office,44000.0,,,,,,92.0,34.90000153,37.79999924,93.0,96.69999695,1537570.25,1664247.375,0.0,347601.6875,1186017.0,3515.530273,351553.0,False,,Compliant,,26.94,0.73,False,True,Ratio Usage/Total critique (monostructurel),1.05 < Ratio ≤ 1.30 + monostructurel,❌ Suppression,Incohérence structurelle (risque sous-estimation 20%+ sur EUI),False,False,1.1930909189511647,0.0
26731,2016,NonResidential,Small- and Mid-Sized Office,Dearborn Bldg.,624 S. Dearborn Bldg.,Seattle,WA,98134.0,5247801801,2,DOWNTOWN,47.5962,-122.32548,1970,1.0,2.0,26510,0,26510,Office,Office,30800.0,,,,,,91.0,32.0,33.0,94.30000305,95.30000305,987063.6875,1017753.188,0.0,261957.4063,893799.0,932.6499634,93265.0,False,,Compliant,,11.18,0.42,False,True,Ratio Usage/Total critique (monostructurel),1.05 < Ratio ≤ 1.30 + monostructurel,❌ Suppression,Incohérence structurelle (risque sous-estimation 20%+ sur EUI),False,False,1.161825726141079,0.0
26808,2016,SPS-District K-12,K-12 School,Green Lake Elementary,2400 N. 65th St.,Seattle,WA,98103.0,9528104870,6,NORTHWEST,47.6763,-122.3285,1970,1.0,1.0,42239,0,42239,K-12 School,K-12 School,48799.0,,,,,,83.0,44.0,49.40000153,84.5,91.59999847,2145603.5,2410752.0,0.0,262111.2969,894324.0,12512.7959,1251280.0,True,,Error - Correct Default Data,,72.69,1.72,False,True,Statut Error/Missing,ComplianceStatus invalide,❌ Suppression,Données explicitement invalidées,False,False,1.1553067070716636,0.0
26821,2016,SPS-District K-12,K-12 School,McDonald International School,144 NE 54th St,Seattle,WA,98105.0,9550202395,6,Northwest,47.66828,-122.3266,1925,1.0,3.0,51360,0,51360,K-12 School,K-12 School,51026.0,,,,,,89.0,27.5,30.10000038,68.19999695,72.59999847,1403094.75,1535481.375,0.0,281414.4063,960186.0,4429.087402,442909.0,True,,Error - Correct Default Data,,30.22,0.59,False,True,Statut Error/Missing,ComplianceStatus invalide,❌ Suppression,Données explicitement invalidées,False,False,0.9934968847352025,0.0
26849,2016,NonResidential,Retail Store,C & T BLDG,650 S JACKSON STREET,Seattle,WA,98104.0,5247802260,2,DOWNTOWN,47.59935,-122.32468,1917,1.0,2.0,24550,0,24550,"Office, Retail Store",Retail Store,13500.0,Office,11050.0,,,,100.0,39.79999924,42.0,16.39999962,17.70000076,977230.3125,1031447.625,0.0,26436.40039,90201.0,1147.940186,114794.0,False,,Compliant,,6.73,0.27,False,True,Incohérence énergétique,Écart sources/total > 10%,❌ Suppression,CO₂ mathématiquement corrompu (déconnexion sources/total),False,False,0.5498981670061099,79.02
26870,2016,SPS-District K-12,K-12 School,John Stanford Int'l Elementary,4057 5th Ave. N.E.,Seattle,WA,98105.0,4206901020,4,LAKE UNION,47.65753,-122.32405,2000,1.0,2.0,61052,0,61052,K-12 School,K-12 School,61052.0,,,,,,80.0,38.79999924,41.79999924,98.5,103.0999985,2366929.5,2549041.25,0.0,494999.0938,1688937.0,6779.92334,677992.0,True,,Error - Correct Default Data,,47.78,0.78,False,True,Statut Error/Missing,ComplianceStatus invalide,❌ Suppression,Données explicitement invalidées,False,False,1.0,0.0
26933,2016,Nonresidential COS,Other,Langston Hughes Performing Arts Center,104 17th Ave South,Seattle,WA,98144.0,9826700795,3,CENTRAL,47.60133,-122.31088,1913,1.0,3.0,20992,0,20992,"Other - Education, Performing Arts, Social/Meeting Hall",Performing Arts,24600.0,Social/Meeting Hall,4625.0,Other - Education,1665.0,,,80.09999847,93.19999695,123.0999985,138.3999939,2473302.0,2879554.5,0.0,169077.4063,576892.0,18964.09961,1896410.0,False,,Compliant,,104.74,4.99,True,True,Ratio Usage/Total critique (monostructurel),1.05 < Ratio ≤ 1.30 + monostructurel,❌ Suppression,Incohérence structurelle (risque sous-estimation 20%+ sur EUI),False,False,1.171875,0.0
26973,2016,NonResidential,Mixed Use Property,New Central,657 South Weller Street,Seattle,WA,98104.0,6054550000,2,DOWNTOWN,47.59737,-122.32487,1909,1.0,3.0,49299,0,49299,"Multifamily Housing, Office, Restaurant",Office,24099.0,Multifamily Housing,23632.0,Restaurant,5320.0,,,89.19999695,90.90000153,0.0,0.0,4729846.5,4821852.0,0.0,387981.3125,1323792.0,0.0,0.0,False,,Compliant,,9.23,0.19,True,True,Incohérence énergétique,Écart sources/total > 10%,❌ Suppression,CO₂ mathématiquement corrompu (déconnexion sources/total),False,False,0.48883344489746244,72.01
27007,2016,NonResidential,Worship Facility,Seattle Community Church,4501 46th Avenue NE,Seattle,WA,98105.0,5364200005,4,NORTHEAST,47.66146,-122.2788,1954,1.0,2.0,20039,0,20039,Worship Facility,Worship Facility,20039.0,,,,,,100.0,5.199999809,5.199999809,16.39999962,16.39999962,104722.2969,104722.2969,0.0,30692.30078,104722.0,0.0,0.0,False,,Non-Compliant,Low outlier,0.73,0.04,False,True,Statut Error/Missing,ComplianceStatus invalide,❌ Suppression,Données explicitement invalidées,False,False,1.0,0.0
27008,2016,SPS-District K-12,K-12 School,Laurelhurst Elementary,4530 46th Ave. N.E.,Seattle,WA,98105.0,5364200330,4,NORTHEAST,47.6622,-122.27796,1928,1.0,2.0,54943,0,54943,K-12 School,K-12 School,57247.0,,,,,,94.0,37.70000076,43.59999847,63.79999924,70.90000153,2155390.25,2498122.25,0.0,195086.9063,665637.0,14897.53809,1489754.0,True,,Error - Correct Default Data,,83.76,1.52,False,True,Statut Error/Missing,ComplianceStatus invalide,❌ Suppression,Données explicitement invalidées,False,False,1.0419343683453761,0.0
27080,2016,NonResidential,Worship Facility,Japanese Presbyterian Church,1801 24th Avenue South,Seattle,WA,98144.0,3881900570,3,SOUTHEAST,47.58671,-122.30201,1963,1.0,2.0,22952,0,22952,"Parking, Worship Facility",Worship Facility,22962.0,Parking,0.0,,,,98.0,20.5,23.70000076,32.79999924,36.70000076,470666.6875,545136.5,0.0,36306.5,123878.0,3467.890137,346789.0,False,,Compliant,,19.28,0.84,False,False,Ratio Usage/Total toléré (≤ 1.05),1.00 < Ratio ≤ 1.05,✅ Conservation,Incertitude de mesure acceptable (< 5%),False,False,1.0004356918787034,0.0
27122,2016,NonResidential,Warehouse,Cedar Heights,6535 5th Place South,Seattle,WA,98108.0,5367201865,2,GREATER DUWAMISH,47.54491,-122.32758,1951,1.0,2.0,28032,0,28032,Non-Refrigerated Warehouse,Non-Refrigerated Warehouse,30000.0,,,,,,52.0,44.0,51.29999924,81.80000305,89.40000153,1321065.0,1539819.875,0.0,149629.5,510536.0,8105.290039,810529.0,False,,Compliant,,46.61,1.66,False,True,Ratio Usage/Total critique (monostructurel),1.05 < Ratio ≤ 1.30 + monostructurel,❌ Suppression,Incohérence structurelle (risque sous-estimation 20%+ sur EUI),False,False,1.0702054794520548,0.0
27231,2016,SPS-District K-12,K-12 School,Loyal Heights Elementary,2511 N.W. 80th St.,Seattle,WA,98117.0,4443801580,6,BALLARD,47.68644,-122.38905,1932,1.0,2.0,44753,0,44753,K-12 School,K-12 School,46545.0,,,,,,96.0,35.20000076,39.09999847,62.09999847,67.19999695,1638691.625,1817756.125,0.0,163794.7031,558868.0,10798.24121,1079824.0,True,,Error - Correct Default Data,,61.25,1.37,False,True,Statut Error/Missing,ComplianceStatus invalide,❌ Suppression,Données explicitement invalidées,False,False,1.0400420083569817,0.0
27303,2016,NonResidential,Other,EMERSON,1249 NE 145TH ST,Seattle,WA,98155.0,6632300641,5,North,47.73368,-122.31366,1948,1.0,2.0,47237,0,47237,Other,Other,47661.0,,,,,,,125.5,125.8000031,394.1000061,395.0,5981430.0,5996179.5,0.0,1753056.75,5981430.0,0.0,0.0,False,,Compliant,,41.7,0.88,True,False,Ratio Usage/Total toléré (≤ 1.05),1.00 < Ratio ≤ 1.05,✅ Conservation,Incertitude de mesure acceptable (< 5%),False,False,1.0089760145648539,0.0
27365,2016,SPS-District K-12,K-12 School,Adams Elementary,6110 28th Ave. N.W.,Seattle,WA,98107.0,6658000060,6,BALLARD,47.67363,-122.39152,1989,1.0,2.0,57298,0,57298,K-12 School,K-12 School,60882.0,,,,,,91.0,26.10000038,27.60000038,81.80000305,86.69999695,1586388.75,1681189.25,0.0,464943.9063,1586389.0,0.0,0.0,True,,Error - Correct Default Data,,11.06,0.19,False,True,Statut Error/Missing,ComplianceStatus invalide,❌ Suppression,Données explicitement invalidées,False,False,1.0625501762714231,0.0
27597,2016,SPS-District K-12,K-12 School,Northgate Elementary,11725 1st Ave. N.E.,Seattle,WA,98125.0,6411600312,5,NORTHWEST,47.71487,-122.32959,1956,1.0,1.0,45174,0,45174,K-12 School,K-12 School,45174.0,,,,,,84.0,43.79999924,48.79999924,82.5,88.90000153,1980825.25,2205570.75,0.0,230648.0938,786971.0,11938.53711,1193854.0,True,,Error - Correct Default Data,,68.89,1.52,False,True,Statut Error/Missing,ComplianceStatus invalide,❌ Suppression,Données explicitement invalidées,False,False,1.0,0.0
27821,2016,NonResidential,Supermarket / Grocery Store,70500866 -- Northgate,11100 Roosevelt Way NE,Seattle,WA,98125.0,5724500615,5,North,47.70941,-122.31707,1996,1.0,1.0,44755,0,44755,Supermarket/Grocery Store,Supermarket/Grocery Store,46978.0,,,,,,56.0,245.1999969,254.1999969,521.0,527.2999878,11521140.0,11943740.0,0.0,1736110.75,5923610.0,55975.28906,5597529.0,False,,Compliant,,338.58,7.57,False,False,Ratio Usage/Total toléré (≤ 1.05),1.00 < Ratio ≤ 1.05,✅ Conservation,Incertitude de mesure acceptable (< 5%),False,False,1.0496704278851525,0.0
27891,2016,NonResidential,Other,University VW,4724 Roosevelt Way NE,Seattle,WA,98105.0,6746701575,4,NORTHEAST,47.66386,-122.31715,1924,1.0,2.0,21600,0,21600,"Other - Services, Retail Store",Other - Services,32580.0,Retail Store,9650.0,,,,,38.40000153,38.40000153,120.6999969,120.6999969,1623657.0,1623657.0,0.0,475866.5938,1623657.0,0.0,0.0,False,,Compliant,,11.32,0.52,True,True,Ratio Usage/Total critique (> 1.30),LargestPropertyUseTypeGFA/PropertyGFATotal > 1.30,❌ Suppression,Erreur physique manifeste,False,False,1.5083333333333333,0.0
27922,2016,NonResidential,K-12 School,Seattle Temple,1511 E. Pike Street,Seattle,WA,98122.0,7234600135,3,CENTRAL,47.61395,-122.31253,1951,1.0,2.0,36825,0,36825,"K-12 School, Office, Social/Meeting Hall, Worship Facility",K-12 School,44340.0,Worship Facility,10415.0,Social/Meeting Hall,4925.0,,,27.20000076,29.29999924,58.0,60.29999924,1755072.75,1892122.25,0.0,267222.4063,911763.0,8433.100586,843310.0,False,,Compliant,,51.14,1.39,True,True,Ratio Usage/Total critique (monostructurel),1.05 < Ratio ≤ 1.30 + monostructurel,❌ Suppression,Incohérence structurelle (risque sous-estimation 20%+ sur EUI),False,False,1.2040733197556008,0.0
27928,2016,NonResidential,Small- and Mid-Sized Office,Jewish Family Service,1601 16th Ave,Seattle,WA,98122.0,7234600310,3,EAST,47.61546,-122.31195,1958,1.0,3.0,25834,0,25834,Office,Office,31822.0,,,,,,73.0,65.19999695,69.90000153,148.6000061,157.3000031,2076289.625,2223401.5,0.0,357342.6875,1219253.0,8570.360352,857036.0,False,,Compliant,,54.02,2.09,False,True,Ratio Usage/Total critique (monostructurel),1.05 < Ratio ≤ 1.30 + monostructurel,❌ Suppression,Incohérence structurelle (risque sous-estimation 20%+ sur EUI),False,False,1.2317875667724705,0.0
27947,2016,NonResidential,Worship Facility,ST MARKS CATHEDRAL,1245 10th Avenue East,Seattle,WA,98102.0,6762700860,3,EAST,47.63193,-122.32126,1929,1.0,1.0,37700,0,37700,Worship Facility,Worship Facility,52225.0,,,,,,38.0,66.69999695,80.30000305,100.0999985,115.6999969,3481727.5,4195549.5,0.0,220347.7969,751827.0,27299.00781,2729901.0,False,,Compliant,,150.23,3.98,False,True,Ratio Usage/Total critique (> 1.30),LargestPropertyUseTypeGFA/PropertyGFATotal > 1.30,❌ Suppression,Erreur physique manifeste,False,False,1.3852785145888593,0.0
27955,2016,SPS-District K-12,K-12 School,Montlake Elementary,2409 22nd Ave. E.,Seattle,WA,98112.0,6788200735,3,EAST,47.64063,-122.30428,1925,1.0,2.0,27273,0,27273,K-12 School,K-12 School,27273.0,,,,,,90.0,46.09999847,52.70000076,81.90000153,90.90000153,1258619.125,1436271.0,0.0,127941.0,436535.0,8220.842773,822084.0,True,,Error - Correct Default Data,,46.7,1.71,False,True,Statut Error/Missing,ComplianceStatus invalide,❌ Suppression,Données explicitement invalidées,False,False,1.0,0.0
28029,2016,NonResidential,Refrigerated Warehouse,Plymouth Poultry,4500 7th Ave S,Seattle,WA,98108.0,7376600690,2,GREATER DUWAMISH,47.56268,-122.32364,1970,1.0,1.0,22890,0,22890,"Office, Refrigerated Warehouse",Refrigerated Warehouse,43452.0,Office,2890.0,,,,,215.8999939,212.3999939,629.0999756,615.0,10005787.0,9844836.0,0.0,2614893.0,8922015.0,10837.70996,1083771.0,False,,Compliant,,119.76,5.23,True,True,Ratio Usage/Total critique (> 1.30),LargestPropertyUseTypeGFA/PropertyGFATotal > 1.30,❌ Suppression,Erreur physique manifeste,False,False,1.8982961992136305,0.0
29552,2016,NonResidential,Large Office,705 5th Avenue,705 5th Ave S,Seattle,WA,98104.0,8809700040,2,DOWNTOWN,47.59634,-122.32807,2000,1.0,11.0,273185,0,273185,Office,Office,281566.0,,,,,20162015201020092008,88.0,52.20000076,52.20000076,164.0,164.0,14709151.0,14709151.0,0.0,4311005.0,14709149.0,0.0,0.0,False,,Compliant,,102.54,0.38,False,False,Ratio Usage/Total toléré (≤ 1.05),1.00 < Ratio ≤ 1.05,✅ Conservation,Incertitude de mesure acceptable (< 5%),False,False,1.0306788440068086,0.0
33527,2016,NonResidential,University,SCCC WOOD CONSTRUCTION,2310 S LANE ST,Seattle,WA,98144.0,3646100850,3,CENTRAL,47.59677,-122.30172,2013,2.0,1.0,57468,0,57468,College/University,College/University,67750.0,,,,,,,52.29999924,55.79999924,120.6999969,124.4000015,3543985.5,3778965.75,0.0,625200.0,2133182.0,14108.0293,1410803.0,False,,Compliant,,89.8,1.56,True,False,Ratio Usage/Total intermédiaire (multi-usages),1.05 < Ratio ≤ 1.30 + NumberofBuildings > 1,✅ Conservation sélective,Dépassement structurel accepté pour bâtiments complexes,False,False,1.178916962483469,0.0
33548,2016,NonResidential,University,SCCC SCIENCE AND MATH,1814 HARVARD ST,Seattle,WA,98122.0,6003001335,3,EAST,47.61808,-122.32175,2006,1.0,5.0,84000,0,84000,College/University,College/University,84300.0,,,,,,,144.5,149.1999969,262.0,264.3999939,12184124.0,12581302.0,0.0,1303202.75,4446528.0,77375.96094,7737596.0,False,,Compliant,,441.94,5.26,True,False,Ratio Usage/Total toléré (≤ 1.05),1.00 < Ratio ≤ 1.05,✅ Conservation,Incertitude de mesure acceptable (< 5%),False,False,1.0035714285714286,0.0
35391,2016,NonResidential,Retail Store,LUMEN Commercial,500 Mercer st,Seattle,WA,98109.0,4458720000,7,MAGNOLIA / QUEEN ANNE,47.62473,-122.34727,2006,1.0,4.0,34010,0,34010,Retail Store,Retail Store,38428.0,,,,,,,92.69999695,94.0,290.8999939,295.1000061,3560614.25,3611326.75,0.0,1043556.188,3560614.0,0.0,0.0,False,,Compliant,,24.82,0.73,True,True,Ratio Usage/Total critique (monostructurel),1.05 < Ratio ≤ 1.30 + monostructurel,❌ Suppression,Incohérence structurelle (risque sous-estimation 20%+ sur EUI),False,False,1.1299029697147898,0.0
37008,2016,NonResidential,Other,CenturyLink Field Event Center,1000 Occidental Ave.,Seattle,WA,98134.0,7666204876,2,GREATER DUWAMISH,47.59544,-122.33159,1999,1.0,6.0,333698,0,333698,"Other - Entertainment/Public Assembly, Parking",Parking,432903.0,Other - Entertainment/Public Assembly,333698.0,,,,,41.09999847,43.90000153,102.0999985,105.0,13730204.0,14658050.0,0.0,2755550.0,9401937.0,43282.66797,4328267.0,False,,Compliant,,295.42,0.89,True,True,Ratio Usage/Total critique (monostructurel),1.05 < Ratio ≤ 1.30 + monostructurel,❌ Suppression,Incohérence structurelle (risque sous-estimation 20%+ sur EUI),False,False,1.2972897649970931,0.0
39332,2016,SPS-District K-12,K-12 School,South Shore K-8,4800 S. Henderson,Seattle,WA,98118.0,2123700250,2,SOUTHEAST,47.52374,-122.27201,2009,1.0,2.0,138705,0,138705,K-12 School,K-12 School,138705.0,,,,,,84.0,35.79999924,38.5,82.80000305,85.69999695,4959298.0,5344758.0,0.0,880538.0,3004396.0,19549.02148,1954902.0,True,,Error - Correct Default Data,,124.77,0.9,False,True,Statut Error/Missing,ComplianceStatus invalide,❌ Suppression,Données explicitement invalidées,False,False,1.0,0.0
40028,2016,NonResidential,Warehouse,Sandpoint #5,7561 63rd Ave NE,Seattle,WA,98115.0,0225049077,4,NORTHEAST,47.68454,-122.26235,1940,1.0,,384772,0,384772,"Non-Refrigerated Warehouse, Office",Non-Refrigerated Warehouse,349953.0,Office,63872.0,,,,69.0,36.70000076,39.0,84.09999847,86.5,15206762.0,16139557.0,0.0,2642108.0,9014872.0,61918.87891,6191888.0,False,,Compliant,,391.7,1.02,False,False,Nombre d'étages incohérent,NumberofFloors=0 & BuildingType!=Campus,⚠️ Feature Engineering : NaN + Flag,"Structure massive nécessitant plusieurs niveaux (ex: Grand Hyatt, Pacific Place)",True,False,0.9095074485669435,0.0
40031,2016,NonResidential,Medical Office,Sandpoint #25,6222 NE 74th St,Seattle,WA,98115.0,0225049077,4,NORTHEAST,47.6824,-122.26223,1960,1.0,,30287,0,30287,Medical Office,Medical Office,28050.0,,,,,,32.0,78.19999695,81.30000305,217.3999939,220.6000061,2193115.0,2279632.5,0.0,532064.6875,1815405.0,3777.100342,377710.0,False,,Compliant,,32.72,1.08,False,False,Nombre d'étages incohérent,NumberofFloors=0 & BuildingType!=Campus,⚠️ Feature Engineering : NaN + Flag,"Structure massive nécessitant plusieurs niveaux (ex: Grand Hyatt, Pacific Place)",True,False,0.9261399280219236,0.0
40034,2016,NonResidential,Small- and Mid-Sized Office,Sandpoint #29,6200 NE 74th ST,Seattle,WA,98115.0,0225049077,4,NORTHEAST,47.68254,-122.26299,1960,1.0,,21931,0,21931,Office,Office,31845.0,Office,31845.0,,,,32.0,124.0,134.8000031,221.8999939,233.3000031,3947209.25,4292216.0,0.0,409903.5,1398591.0,25486.18555,2548619.0,False,,Compliant,,145.11,6.62,False,True,Ratio Usage/Total critique (> 1.30),LargestPropertyUseTypeGFA/PropertyGFATotal > 1.30,❌ Suppression,Erreur physique manifeste,True,False,1.4520541698964935,0.0
40067,2016,NonResidential,Small- and Mid-Sized Office,Olympic Block,101 Yesler Way,Seattle,WA,98104.0,5247800440,7,DOWNTOWN,47.60148,-122.33379,1985,1.0,6.0,73102,0,73102,"Office, Parking",Office,92723.0,Parking,18364.0,,,,84.0,46.5,48.40000153,145.8999939,151.8000031,4307238.5,4483478.0,0.0,1262379.25,4307238.0,0.0,0.0,False,,Compliant,,30.03,0.41,False,True,Ratio Usage/Total critique (monostructurel),1.05 < Ratio ≤ 1.30 + monostructurel,❌ Suppression,Incohérence structurelle (risque sous-estimation 20%+ sur EUI),False,False,1.268405789171295,0.0
41928,2016,NonResidential,Supermarket / Grocery Store,Safeway 1586 - 15th Ave,12318 15th Ave NE,Seattle,WA,98115.0,6798100875,5,NORTH,47.71864,-122.312,2011,1.0,1.0,51400,0,51400,"Parking, Supermarket/Grocery Store",Supermarket/Grocery Store,51841.0,Parking,0.0,,,,74.0,225.6999969,233.0,514.7999878,522.4000244,11702959.0,12081430.0,0.0,2019099.75,6889168.0,48137.89844,4813790.0,False,,Compliant,,303.69,5.91,False,False,Ratio Usage/Total toléré (≤ 1.05),1.00 < Ratio ≤ 1.05,✅ Conservation,Incertitude de mesure acceptable (< 5%),False,False,1.008579766536965,0.0
43948,2016,Nonresidential COS,Other,Georgetown Steamplant,6605 13th Avenue South,Seattle,WA,98108.0,0000000000,2,GREATER DUWAMISH,47.54277,-122.31626,1906,1.0,2.0,39212,0,39212,Other,Other,39212.0,,,,,,,1.799999952,1.799999952,5.800000191,5.800000191,72370.39844,72370.39844,0.0,21210.59961,72371.0,0.0,0.0,False,,Non-Compliant,Low outlier,0.5,0.01,True,True,Statut Error/Missing,ComplianceStatus invalide,❌ Suppression,Données explicitement invalidées,False,False,1.0,0.0
45927,2016,NonResidential,Laboratory,Reasearch and Training Building,300 Ninth Avenue,Seattle,WA,98104.0,8590900220,3,EAST,47.60427,-122.32311,2000,1.0,8.0,178000,0,178000,Laboratory,Laboratory,181930.0,,,,,,,292.2000122,302.7000122,587.2000122,594.4000244,53166156.0,55068016.0,31030194.0,6487678.5,22135959.0,0.0,0.0,False,,Compliant,,2549.47,14.32,True,False,Ratio Usage/Total toléré (≤ 1.05),1.00 < Ratio ≤ 1.05,✅ Conservation,Incertitude de mesure acceptable (< 5%),False,False,1.0220786516853932,0.0
49699,2016,NonResidential,Warehouse,21615-Seattle/10020 MartinLutherKing,10020 Martin Luther King Jr Way S,Seattle,WA,98178.0,0323049141,2,SOUTHEAST,47.51098,-122.27817,1988,1.0,2.0,45700,0,45700,Non-Refrigerated Warehouse,Non-Refrigerated Warehouse,293707.0,,,,,,99.0,5.300000191,5.300000191,15.80000019,15.80000019,1544193.75,1547490.125,0.0,422506.9063,1441594.0,1025.999756,102600.0,False,,Compliant,,15.5,0.34,False,True,Ratio Usage/Total critique (> 1.30),LargestPropertyUseTypeGFA/PropertyGFATotal > 1.30,❌ Suppression,Erreur physique manifeste,False,False,6.426849015317287,0.0
49703,2016,SPS-District K-12,K-12 School,Catharine Blaine K-8,2550 34th Ave. W.,Seattle,WA,98199.0,2225039016,7,MAGNOLIA / QUEEN ANNE,47.64342,-122.3997,1952,1.0,1.0,116101,0,116101,K-12 School,K-12 School,119685.0,,,,,,,0.0,0.0,0.0,0.0,0.0,0.0,0.0,0.0,0.0,49936.19531,4993620.0,False,,Missing Data,,265.21,2.28,True,True,Statut Error/Missing,ComplianceStatus invalide,❌ Suppression,Données explicitement invalidées,False,False,1.0308696738184857,inf
49705,2016,Nonresidential COS,Other,Magnuson,7400 Sand Point Way NE,Seattle,WA,98115.0,0225049062,4,NORTHEAST,47.68212,-122.2633,1929,8.0,,502030,0,502030,Other - Recreation,Other - Recreation,564258.0,,,,,,,32.70000076,36.59999847,69.0,74.30000305,18470340.0,20672948.0,0.0,2743225.0,9359884.0,91104.54688,9110455.0,False,,Compliant,,549.11,1.09,True,False,Ratio Usage/Total intermédiaire (multi-usages),1.05 < Ratio ≤ 1.30 + NumberofBuildings > 1,✅ Conservation sélective,Dépassement structurel accepté pour bâtiments complexes,True,False,1.12395275182758,0.0
49715,2016,NonResidential,Residence Hall,Elm Hall,1218 NE Campus Pkwy,Seattle,WA,98195.0,1142002135,4,NORTHEAST,47.65642,-122.31475,2012,1.0,5.0,136758,0,136758,Residence Hall/Dormitory,Residence Hall/Dormitory,207017.0,,,,,,90.0,30.29999924,32.20000076,66.40000153,70.09999847,6275367.5,6662918.5,0.0,1002526.313,3420620.0,28547.47656,2854748.0,False,,Compliant,,175.46,1.28,False,True,Ratio Usage/Total critique (> 1.30),LargestPropertyUseTypeGFA/PropertyGFATotal > 1.30,❌ Suppression,Erreur physique manifeste,False,False,1.513746910601208,0.0
49718,2016,Nonresidential COS,Other,South Transfer Station,130 South Kenyon St.,Seattle,WA,98108.0,2924049006,1,GREATER DUWAMISH,47.53246,-122.33304,2012,2.0,2.0,137138,0,137138,Other - Utility,Other - Utility,138602.0,,,,,,,39.5,40.20000076,124.0,126.3000031,5475367.0,5574345.0,0.0,1604738.125,5475366.0,0.0,0.0,False,,Compliant,,38.17,0.28,True,False,Ratio Usage/Total toléré (≤ 1.05),1.00 < Ratio ≤ 1.05,✅ Conservation,Incertitude de mesure acceptable (< 5%),False,False,1.0106753780863071,0.0
49784,2016,NonResidential,Small- and Mid-Sized Office,Bullitt Center,1501 E. Madison St.,Seattle,WA,98122.0,7234600195,3,CENTRAL,47.61432,-122.31257,2013,1.0,6.0,52000,0,52000,Office,Office,48159.0,,,,,,100.0,7.099999905,5.0,2.0,-2.099999905,342726.0938,240132.0938,0.0,-33826.80078,-115417.0,0.0,0.0,False,,Compliant,,-0.8,-0.02,False,True,Contraintes physiques,Valeurs énergétiques < 0,❌ Suppression,Violation physique fondamentale,False,False,0.9261346153846154,133.68
49858,2016,NonResidential,K-12 School,The Northwest School 401,401 Pike,Seattle,WA,98122.0,8725600410,3,EAST,47.61386,-122.32647,2014,1.0,2.0,35780,0,35780,K-12 School,K-12 School,38000.0,,,,,,22.0,76.59999847,78.0,203.3999939,204.6999969,2912264.0,2962615.25,0.0,654810.625,2234214.0,6780.5,678050.0,False,,Compliant,,51.59,1.44,False,True,Ratio Usage/Total critique (monostructurel),1.05 < Ratio ≤ 1.30 + monostructurel,❌ Suppression,Incohérence structurelle (risque sous-estimation 20%+ sur EUI),False,False,1.0620458356623812,0.0
49850,2016,NonResidential,K-12 School,Paul G Allen Athletic Center,14050 1st Ave NE,Seattle,WA,98125.0,2832100190,5,NORTHWEST,47.73143,-122.32784,2014,1.0,2.0,48925,0,48925,K-12 School,K-12 School,63500.0,,,,,,82.0,26.20000076,26.70000076,73.0,73.59999847,1662054.125,1695022.25,0.0,405739.3125,1384383.0,2469.06958,246907.0,False,,Compliant,,22.76,0.47,False,True,Ratio Usage/Total critique (monostructurel),1.05 < Ratio ≤ 1.30 + monostructurel,❌ Suppression,Incohérence structurelle (risque sous-estimation 20%+ sur EUI),False,False,1.2979049565661727,1.85
49865,2016,NonResidential,Other,SOUTH,2623 NE 46th St,Seattle,WA,98105.0,0925049427,4,NORTHEAST,47.66246,-122.29898,2013,1.0,6.0,305025,239252,65773,"Lifestyle Center, Medical Office",Lifestyle Center,318986.0,Medical Office,19909.0,,,,,76.59999847,78.30000305,156.5,159.0,25959642.0,26532170.0,0.0,3614135.75,12331431.0,136282.0938,13628209.0,False,,Compliant,,809.76,2.65,True,False,Ratio Usage/Total toléré (≤ 1.05),1.00 < Ratio ≤ 1.05,✅ Conservation,Incertitude de mesure acceptable (< 5%),False,False,1.0457700188509138,0.0
49926,2016,NonResidential,University,SCCC MAIN BROADWAY/EDISON,1701 BROADWAY,Seattle,WA,98122.0,6003001130,3,EAST,47.61748356,-122.321853,1925,1.0,3.0,428347,0,428347,College/University,College/University,472384.0,,,,,,,78.40000153,82.5,183.6999969,187.3000031,37022180.0,38977108.0,13556219.0,6427496.5,21930618.0,15353.41016,1535341.0,False,,Compliant,,1280.81,2.99,True,True,Ratio Usage/Total critique (monostructurel),1.05 < Ratio ≤ 1.30 + monostructurel,❌ Suppression,Incohérence structurelle (risque sous-estimation 20%+ sur EUI),False,False,1.1028068365133874,0.0
49940,2016,NonResidential,Hospital,Virginia Mason Medical Center - 2149,925 Seneca St.,Seattle,WA,98101.0,1979200210,3,EAST,47.60986,-122.32774,1920,1.0,8.0,374466,0,374466,Hospital (General Medical & Surgical),Hospital (General Medical & Surgical),1010135.0,,,,,,74.0,162.3000031,165.5,367.8999939,369.3999939,163945984.0,167207104.0,73885472.0,26395222.0,90060497.0,0.0,0.0,False,,Compliant,,6330.91,16.91,False,True,Ratio Usage/Total critique (> 1.30),LargestPropertyUseTypeGFA/PropertyGFATotal > 1.30,❌ Suppression,Erreur physique manifeste,False,False,2.697534622635967,0.0
49966,2016,NonResidential,Other,Smilow Rainier Vista Boys & Girls Club,4520 Martin Luther King Jr. Way S,Seattle,WA,98108.0,6056110050,2,SOUTHEAST,47.5626,-122.29396,2009,1.0,,40265,0,40265,Pre-school/Daycare,Pre-school/Daycare,40265.0,,,,,,,53.59999847,56.20000076,127.5,130.1999969,2159170.25,2261075.5,0.0,402023.1875,1371703.0,7874.669922,787467.0,False,,Compliant,,51.39,1.28,True,False,Nombre d'étages incohérent,NumberofFloors=0 & BuildingType!=Campus,⚠️ Feature Engineering : NaN + Flag,"Structure massive nécessitant plusieurs niveaux (ex: Grand Hyatt, Pacific Place)",True,False,1.0,0.0
49967,2016,Campus,University,University of Washington - Seattle Campus,NE 45th St & Brooklyn Ave,Seattle,WA,98105.0,1625049001,4,NORTHEAST,47.65644,-122.31041,1900,111.0,0.0,9320156,0,9320156,College/University,College/University,9320156.0,,,,,,,93.80000305,0.0,246.6000061,0.0,873923712.0,0.0,84985240.0,192577488.0,657074389.0,0.0,0.0,False,,Compliant,,11140.56,1.2,True,True,Incohérence énergétique,Écart sources/total > 10%,❌ Suppression,CO₂ mathématiquement corrompu (déconnexion sources/total),True,True,1.0,15.09
49968,2016,NonResidential,University,Aerospace,3795 E Stevens Way NE,Seattle,WA,98195.0,1625049001,4,NORTHEAST,47.65395,-122.30584,1969,1.0,4.0,58779,0,58779,College/University,College/University,58779.0,,,,,,,85.09999847,0.0,221.0,0.0,5000717.0,0.0,0.0,1090040.125,3719217.0,0.0,0.0,False,,Compliant,,25.93,0.44,True,True,Incohérence énergétique,Écart sources/total > 10%,❌ Suppression,CO₂ mathématiquement corrompu (déconnexion sources/total),False,False,1.0,25.63
49970,2016,NonResidential,Residence Hall,Cedar Hall,1112 NE 41st ST,Seattle,WA,98105.0,1625049001,4,NORTHEAST,47.65718,-122.31632,2011,1.0,,176225,0,176225,"Parking, Residence Hall/Dormitory",Residence Hall/Dormitory,176225.0,Parking,24000.0,,,,91.0,28.0,29.60000038,70.0,73.59999847,4926695.0,5209463.5,0.0,1003689.188,3424588.0,15021.07031,1502107.0,False,,Compliant,,103.65,0.59,False,False,Nombre d'étages incohérent,NumberofFloors=0 & BuildingType!=Campus,⚠️ Feature Engineering : NaN + Flag,"Structure massive nécessitant plusieurs niveaux (ex: Grand Hyatt, Pacific Place)",True,False,1.0,0.0
49972,2016,NonResidential,University,Computer Science and Electrical Engineering,3785 E Stevens Way NE,Seattle,WA,98195.0,1625049001,4,NORTHEAST,47.65356,-122.30613,1998,1.0,6.0,203030,0,203030,College/University,College/University,203030.0,,,,,,,252.0,0.0,561.0,0.0,51168308.0,0.0,0.0,8386463.5,28614613.0,0.0,0.0,False,,Compliant,,199.48,0.98,True,True,Incohérence énergétique,Écart sources/total > 10%,❌ Suppression,CO₂ mathématiquement corrompu (déconnexion sources/total),False,False,1.0,44.08
49979,2016,NonResidential,Residence Hall,Lander Hall,1201 NE Campus Pkwy,Seattle,WA,98195.0,1625049001,4,NORTHEAST,47.65577,-122.3153,1953,1.0,,166991,0,166991,Residence Hall/Dormitory,Residence Hall/Dormitory,166991.0,,,,,,19.0,95.59999847,99.40000153,211.8000031,215.6999969,15965859.0,16591973.0,0.0,2609182.0,8902529.0,70633.28906,7063329.0,False,,Compliant,,437.2,2.62,False,False,Nombre d'étages incohérent,NumberofFloors=0 & BuildingType!=Campus,⚠️ Feature Engineering : NaN + Flag,"Structure massive nécessitant plusieurs niveaux (ex: Grand Hyatt, Pacific Place)",True,False,1.0,0.0
49980,2016,NonResidential,Residence Hall,Mercer Hall,1009 NE Pacific St,Seattle,WA,98195.0,1625049001,4,NORTHEAST,47.65447,-122.31733,1970,1.0,,89392,0,89392,Residence Hall/Dormitory,Residence Hall/Dormitory,89392.0,,,,,,16.0,77.90000153,83.69999695,244.5,262.8999939,6960904.5,7483350.0,0.0,2040124.25,6960904.0,0.0,0.0,False,,Compliant,,48.53,0.54,False,False,Nombre d'étages incohérent,NumberofFloors=0 & BuildingType!=Campus,⚠️ Feature Engineering : NaN + Flag,"Structure massive nécessitant plusieurs niveaux (ex: Grand Hyatt, Pacific Place)",True,False,1.0,0.0
49983,2016,NonResidential,Residence Hall,Poplar Hall,3715 W Stevens Way NE,Seattle,WA,98195.0,1625049001,4,NORTHEAST,47.65176,-122.30756,2011,1.0,,97040,0,97040,Residence Hall/Dormitory,Residence Hall/Dormitory,97040.0,,,,,,69.0,40.09999847,42.0,109.5,114.4000015,3894142.5,4075094.5,0.0,917299.0,3129824.0,7643.180176,764318.0,False,,Compliant,,62.41,0.64,False,False,Nombre d'étages incohérent,NumberofFloors=0 & BuildingType!=Campus,⚠️ Feature Engineering : NaN + Flag,"Structure massive nécessitant plusieurs niveaux (ex: Grand Hyatt, Pacific Place)",True,False,1.0,0.0
50002,2016,NonResidential,Other,Audi Seattle UVA Bldg,4741 11TH AVE NE,Seattle,WA,98105.0,6746701515,4,NORTHEAST,47.66414,-122.31664,2014,1.0,3.0,33648,0,33648,"Automobile Dealership, Parking",Parking,83600.0,Automobile Dealership,39000.0,,,,,35.90000153,35.90000153,112.6999969,112.6999969,1399581.625,1399581.625,0.0,410193.9063,1399582.0,0.0,0.0,False,,Compliant,,9.76,0.29,True,True,Ratio Usage/Total critique (> 1.30),LargestPropertyUseTypeGFA/PropertyGFATotal > 1.30,❌ Suppression,Erreur physique manifeste,False,False,2.4845458868283403,0.0
50035,2016,NonResidential,Hotel,Hilton Garden Inn Seattle,1821 Boren Ave,Seattle,WA,98101.0,3374400010,7,DOWNTOWN,47.61665,-122.33261,2015,1.0,14.0,144614,0,144614,Hotel,Hotel,159500.0,,,,,,89.0,34.59999847,34.79999924,105.4000015,105.5999985,5525072.5,5547964.5,0.0,1544316.5,5269208.0,2558.640137,255864.0,False,,Compliant,,50.32,0.35,False,True,Ratio Usage/Total critique (monostructurel),1.05 < Ratio ≤ 1.30 + monostructurel,❌ Suppression,Incohérence structurelle (risque sous-estimation 20%+ sur EUI),False,False,1.1029360919413058,0.0
50039,2016,NonResidential,Other,Honda of Seattle/Toyota of Seattle,2005 Airport Way South,Seattle,WA,98134.0,7666203255,2,GREATER DUWAMISH,47.58542,-122.32185,2015,1.0,2.0,108036,0,108036,"Automobile Dealership, Parking",Parking,202171.0,Automobile Dealership,108036.0,,,,,46.20000076,49.0,121.0999985,124.0999985,4991893.5,5298717.5,0.0,1099805.25,3752536.0,12393.57129,1239357.0,False,,Compliant,,91.98,0.85,True,True,Ratio Usage/Total critique (> 1.30),LargestPropertyUseTypeGFA/PropertyGFATotal > 1.30,❌ Suppression,Erreur physique manifeste,False,False,1.87132992706135,0.0
50081,2016,NonResidential,K-12 School,Hamlin Robinson School,1701 20th Ave South,Seattle,WA,98144.0,7548300840,3,GREATER DUWAMISH,47.58831,-122.3065,2015,1.0,3.0,45000,0,45000,"K-12 School, Parking",K-12 School,45728.0,Parking,0.0,,,,77.0,29.0,30.60000038,91.09999847,96.0,1325972.75,1397742.375,0.0,388620.4063,1325973.0,0.0,0.0,False,,Compliant,,9.24,0.21,False,False,Ratio Usage/Total toléré (≤ 1.05),1.00 < Ratio ≤ 1.05,✅ Conservation,Incertitude de mesure acceptable (< 5%),False,False,1.0161777777777778,0.0
50101,2016,NonResidential,University,Burke Museum,4331 Memorial Way NE,Seattle,WA,98195.0,1625049001,4,NORTHEAST,47.66127,-122.31256,1962,1.0,1.0,68072,0,68072,College/University,College/University,68916.0,,,,,,,46.20000076,46.20000076,144.8999939,144.8999939,3180819.25,3180819.25,0.0,932244.6875,3180819.0,0.0,0.0,False,,Compliant,,22.17,0.33,True,False,Ratio Usage/Total toléré (≤ 1.05),1.00 < Ratio ≤ 1.05,✅ Conservation,Incertitude de mesure acceptable (< 5%),False,False,1.012398636737572,0.0
50210,2016,Nonresidential COS,Office,Central West HQ / Brown Bear,1403 w howe,Seattle,WA,,2425039137,7,MAGNOLIA / QUEEN ANNE,47.63572,-122.37525,1952,1.0,1.0,13661,0,13661,Office,Office,13661.0,,,,,,75.0,36.79999924,40.90000153,115.5,128.3999939,502667.6875,558525.125,0.0,147323.5,502667.782,0.0,0.0,True,,Error - Correct Default Data,,3.5,0.26,False,True,Statut Error/Missing,ComplianceStatus invalide,❌ Suppression,Données explicitement invalidées,False,False,1.0,0.0
50220,2016,Nonresidential COS,Office,Genesee/SC SE HQ,4420 S Genesee,Seattle,WA,,4154300585,2,SOUTHEAST,47.5644,-122.27813,1960,1.0,1.0,15398,0,15398,Office,Office,15398.0,,,,,,93.0,25.20000076,26.89999962,64.09999847,66.69999695,387810.0,414172.4063,0.0,81341.39844,277536.8515,1102.72998,110272.998,True,,Error - Correct Default Data,,7.79,0.51,False,True,Statut Error/Missing,ComplianceStatus invalide,❌ Suppression,Données explicitement invalidées,False,False,1.0,0.0
50222,2016,Nonresidential COS,Office,Horticulture building,1600 S Dakota St,Seattle,WA,,1624049080,2,GREATER DUWAMISH,47.56722,-122.31154,1990,1.0,1.0,12294,0,12294,Office,Office,12294.0,,,,,,46.0,69.09999847,76.69999695,161.6999969,176.1000061,849745.6875,943003.1875,0.0,153655.0,524270.86,3254.750244,325475.0244,True,,Error - Correct Default Data,,20.94,1.7,False,True,Statut Error/Missing,ComplianceStatus invalide,❌ Suppression,Données explicitement invalidées,False,False,1.0,0.0
